acct_id;alpha;acct_num;owner_name;last_visit_dt;last_full_insp_dt;last_insp_stat;prem_addr;bin;number;street;communitydistrict;citycouncildistrict;bbl;cent_latitude;cent_longitude;zipcode;borough;census_tract;nta
1;P;4812798;BEN RIC FUR FASHIONS INC;03/23/2018 00:00:00;03/23/2018 00:00:00;APPROVAL;186-14 UNION TNPK;0;186-14;UNION TNPK;;;;;;;;;
2;P;6486682;RICHAL INC.;03/23/2018 00:00:00;03/23/2018 00:00:00;APPROVAL;179-10 UNION TNPK;0;179-10;UNION TNPK;;;;;;;;;
3;C;6743934;CROSSTOWN MGT. CORP.;03/29/2017 00:00:00;03/29/2017 00:00:00;NOV(HOLD);179-18 UNION TNPK;0;179-18;UNION TNPK;;;;;;;;;
4;RR;23012560;F.D.N.Y.;01/25/2016 00:00:00;01/25/2016 00:00:00;APPROVAL;34-11 HUNTERS POINT AVE;0;34-11;HUNTERS POINT AVE;;;;;;;;;
5;G;26087460;MTA NYC TRANSIT;08/21/2014 00:00:00;08/21/2014 00:00:00;APPROVAL;1 176 STREET STATION;0;1;176 STREET STATION;;;;;;;;;
6;G;27149681;ANTLER APARTMENT;06/10/2014 00:00:00;06/10/2014 00:00:00;NOT APPROVAL(W/REASON);2079 DOUGLAS BLVD;0;2079;DOUGLAS BLVD;;;;;;;;;
7;G;28029114;MTA NYC TRANSIT;07/25/2018 00:00:00;07/25/2018 00:00:00;NOT APPROVAL(VIO);1 BEACH 116 ST STAT;0;1;BEACH 116 ST STAT;;;;;;;;;
9;G;28069136;MTA NYC TRANSIT;06/30/2018 00:00:00;06/30/2018 00:00:00;NOT APPROVAL(VIO);3 CANAL ST STATION;0;3;CANAL ST STATION;;;;;;;;;
10;F;28084887;BAINBRIDGE CLUSTER ASSOC;01/15/2014 00:00:00;01/15/2014 00:00:00;APPROVAL;412 MCDONOUGH ST;0;412;MCDONOUGH ST;;;;;;;;;
11;G;28084895;BAINBRIDGE CLUSTER ASSOC;12/10/2014 00:00:00;12/10/2014 00:00:00;APPROVAL;412 MCDONOUGH ST;0;412;MCDONOUGH ST;;;;;;;;;
14;G;28106250;CHELSEA PIERS MGMT INC.;07/08/2015 00:00:00;08/26/2014 00:00:00;NOT APPROVAL(W/REASON);1 CHELSEA PIERS;0;1;CHELSEA PIERS;;;;;;;;;
15;G;28106268;CHELSEA PIERS MGMT INC.;10/28/2014 00:00:00;08/27/2014 00:00:00;NOT APPROVAL(W/REASON);1 CHELSEA PIERS;0;1;CHELSEA PIERS;;;;;;;;;
17;G;28129138;NYC RESTORATION PROJECT;01/29/2014 00:00:00;01/29/2014 00:00:00;APPROVAL;1 PETER JAY SHARP PL;0;1;PETER JAY SHARP PL;;;;;;;;;
19;F;28142271;JOSE ARIAS;02/10/2017 00:00:00;02/10/2017 00:00:00;NOT APPROVAL(W/REASON);38 MARBLE HILL AVE;0;38;MARBLE HILL AVE;;;;;;;;;
23;P;28167344;UNION PLAZA MANAGEMENT;07/27/2018 00:00:00;07/27/2018 00:00:00;APPROVAL;211-18 UNION TNPK;0;211-18;UNION TNPK;;;;;;;;;
27;F;28209047;J.R.D. MGMT CORP;08/01/2014 00:00:00;08/01/2014 00:00:00;APPROVAL;10-36 NIELSON ST;0;10-36;NIELSON ST;;;;;;;;;
28;G;28209732;MTA NYC TRANSIT;11/16/2017 00:00:00;04/20/2017 00:00:00;NOT APPROVAL(W/REASON);1 SO FERRY STATION;0;1;SO FERRY STATION;;;;;;;;;
29;G;28209807;MTA NYC TRANSIT;03/14/2018 00:00:00;06/14/2017 00:00:00;NOT APPROVAL(W/REASON);1 SO FERRY STATION;0;1;SO FERRY STATION;;;;;;;;;
34;DV;28230506;CHELSEA PIERS MGMT INC.;04/29/2016 00:00:00;08/22/2015 00:00:00;NOT APPROVAL(W/REASON);1 CHELSEA PIERS;0;1;CHELSEA PIERS;;;;;;;;;
36;DV;28231462;CELTIC HOLDING LLC;04/03/2014 00:00:00;04/03/2014 00:00:00;APPROVAL;30-30 THOMPSON AVE;0;30-30;THOMPSON AVE;;;;;;;;;
37;DV;28231850;PUBLIC STORAGE;10/01/2014 00:00:00;04/09/2014 00:00:00;NOT APPROVAL(W/REASON);275 VETERANS RD;0;275;VETERANS RD;;;;;;;;;
38;DV;28233674;NY RESTORATION PROJECT;02/02/2016 00:00:00;09/11/2014 00:00:00;NOV(NO HOLD);1 PETER JAY SHARP PL;0;1;PETER JAY SHARP PL;;;;;;;;;
39;F;29006954;LANGSAM PROP SERVICES;01/29/2015 00:00:00;12/05/2013 00:00:00;NOT APPROVAL(W/REASON);63 ADRIAN AVE;0;63;ADRIAN AVE;;;;;;;;;
50;G;29099165;MTA NYC TRANSIT;08/28/2014 00:00:00;08/28/2014 00:00:00;APPROVAL;1 MT EDEN AVE STAT;0;1;MT EDEN AVE STAT;;;;;;;;;
58;G;29142460;BATTERY PK DEVELOP CORP;11/17/2015 00:00:00;04/15/2015 00:00:00;NOT APPROVAL(W/REASON);1 NORTH RIVER-PIER A;0;1;NORTH RIVER-PIER A;;;;;;;;;
60;G;29147527;TINY FOOTSTEPS CHILDCARE;10/31/2016 00:00:00;08/11/2015 00:00:00;NOV(NO HOLD);167-20 UNION TNPK;0;167-20;UNION TNPK;;;;;;;;;
77;P;30075402;G & L VENTURE LLC;10/09/2018 00:00:00;10/09/2018 00:00:00;APPROVAL;4231-33 ARTHUR KILL RD;0;4231-33;ARTHUR KILL RD;;;;;;;;;
80;N;30126585;CUNY;07/09/2014 00:00:00;07/09/2014 00:00:00;APPROVAL;94-45 GUY BREWER BLVD;0;94-45;GUY BREWER BLVD;;;;;;;;;
86;G;30197214;CHAMSA RLTY;05/11/2016 00:00:00;05/11/2016 00:00:00;NOT APPROVAL(W/REASON);186-14 UNION TNPK;0;186-14;UNION TNPK;;;;;;;;;
88;P;30222202;P&C #1 CORP.;12/14/2018 00:00:00;12/14/2018 00:00:00;NOT APPROVAL(W/REASON);56 50 ST;0;56;50 ST;;;;;;;;;
93;B;30272017;PUSH FITNESS CLUB;10/05/2018 00:00:00;10/05/2018 00:00:00;NOT APPROVAL(VIO);188-02 UNION TNPK;0;188-02;UNION TNPK;;;;;;;;;
97;G;31045321;NYCHA;01/15/2015 00:00:00;01/15/2015 00:00:00;NOT APPROVAL(W/REASON);3005 DOUGLAS BLVD;0;3005;DOUGLAS BLVD;;;;;;;;;
105;G;31143100;EMS STATION #4;08/31/2018 00:00:00;08/31/2018 00:00:00;NOT APPROVAL(W/REASON);1 PIER 36 EMS BLDG;0;1;PIER 36 EMS BLDG;;;;;;;;;
106;G;31159494;HARLEM YMCA OUTREACH/1FL;05/05/2014 00:00:00;06/15/2011 00:00:00;APPROVAL;2621 ADAM CLAYTON BLVD;0;2621;ADAM CLAYTON BLVD;;;;;;;;;
108;G;31181571;MTA NYC TRANSIT;07/13/2016 00:00:00;07/13/2016 00:00:00;NOT APPROVAL(VIO);1 BEACH 67 ST STATION;0;1;BEACH 67 ST STATION;;;;;;;;;
111;G;31215429;NYC DOE;03/19/2014 00:00:00;03/19/2014 00:00:00;NOT APPROVAL(W/REASON);84 SCHAEFFER ST;0;84;SCHAEFFER ST;;;;;;;;;
121;G;32030348;MTA NYC TRANSIT;02/25/2017 00:00:00;02/25/2017 00:00:00;APPROVAL;1 BEACH 60 ST STATION;0;1;BEACH 60 ST STATION;;;;;;;;;
122;G;32072977;GARDEN OF EDEN ASSOC;07/17/2015 00:00:00;07/17/2015 00:00:00;NOT APPROVAL(W/REASON);2217 DOUGLAS BLVD;0;2217;DOUGLAS BLVD;;;;;;;;;
123;G;32072985;GARDEN OF EDEN ASSOC.;07/17/2015 00:00:00;07/17/2015 00:00:00;NOT APPROVAL(W/REASON);2211 DOUGLAS BLVD;0;2211;DOUGLAS BLVD;;;;;;;;;
124;P;32074718;CLEAN RITE LAUNDRY;04/10/2018 00:00:00;04/10/2018 00:00:00;APPROVAL;8209-11 FLATLANDS AVE;0;8209-11;FLATLANDS AVE;;;;;;;;;
125;DV;32093007;MB FAMILY LLC;03/09/2018 00:00:00;03/09/2018 00:00:00;NOT APPROVAL(W/REASON);40-23 ITHACA ST;0;40-23;ITHACA ST;;;;;;;;;
130;S;32122798;CCA CIVIL INC;06/18/2014 00:00:00;06/18/2014 00:00:00;APPROVAL;29 LAMBERTS LA;0;29;LAMBERTS LA;;;;;;;;;
132;S;32143547;SKANSKA;04/19/2016 00:00:00;04/19/2016 00:00:00;APPROVAL;100 WASHINGTON ST;0;100;WASHINGTON ST;;;;;;;;;
135;P;32153595;GRAB & GO CONVENIENCE;10/19/2018 00:00:00;10/19/2018 00:00:00;APPROVAL;272-08 UNION TNPK;0;272-08;UNION TNPK;;;;;;;;;
136;F;32178105;394/6/98 MCDONOUGH HSG;08/28/2014 00:00:00;08/28/2014 00:00:00;APPROVAL;394 MCDONOUGH ST;0;394;MCDONOUGH ST;;;;;;;;;
138;F;32195075;CHASE COLLISION;12/21/2017 00:00:00;12/21/2017 00:00:00;NOT APPROVAL(VIO);1213-43 E 15 ST;0;1213-43;E 15 ST;;;;;;;;;
142;T;32214827;JP MORGAN CHASE BANK;02/05/2015 00:00:00;02/05/2015 00:00:00;NOT APPROVAL(W/REASON);98 W 225 ST;0;98;W 225 ST;;;;;;;;;
144;T;32238875;CELIT HOLDINGS LLC;06/24/2014 00:00:00;06/24/2014 00:00:00;NOT APPROVAL(W/REASON);30-30 THOMPSON AVE;0;30-30;THOMPSON AVE;;;;;;;;;
147;R;32262115;SKANSKA KOCH INC;05/29/2014 00:00:00;05/29/2014 00:00:00;APPROVAL;100 WASHINGTON ST;0;100;WASHINGTON ST;;;;;;;;;
151;G;32290587;MTA NYC TRANSIT;08/24/2017 00:00:00;08/05/2017 00:00:00;NOT APPROVAL(W/REASON);1 61 ST & WOODSIDE AVE STAT;0;1;61 ST & WOODSIDE AVE STAT;;;;;;;;;
158;F;33003054;CALVIN CLINTON;11/19/2015 00:00:00;11/19/2015 00:00:00;APPROVAL;324 MCDONOUGH ST;0;324;MCDONOUGH ST;;;;;;;;;
160;T;33004771;CELTIC HOLDING LLC;06/24/2014 00:00:00;06/24/2014 00:00:00;NOT APPROVAL(W/REASON);30-30 THOMPSON AVE;0;30-30;THOMPSON AVE;;;;;;;;;
171;S;33081241;PETER SCALAMANDRE & SONS;01/15/2014 00:00:00;01/15/2014 00:00:00;APPROVAL;21 WEST END AVE;0;21;WEST END AVE;;;;;;;;;
179;F;33138025;MICHAEL NAIRNE;11/13/2015 00:00:00;11/13/2015 00:00:00;APPROVAL;558 MCDONOUGH ST;0;558;MCDONOUGH ST;;;;;;;;;
181;R;33154113;MACY'S FIREWORKS;07/04/2018 00:00:00;07/04/2018 00:00:00;APPROVAL;52-10 CENTER BLVD;0;52-10;CENTER BLVD;;;;;;;;;
183;R;33157157;RUTTURA & SONS;01/16/2014 00:00:00;01/16/2014 00:00:00;APPROVAL;340 GATEWAY DR;0;340;GATEWAY DR;;;;;;;;;
187;S;33179680;GRANITE DESIGNS;09/27/2018 00:00:00;09/27/2018 00:00:00;APPROVAL;485 INDUSTRIAL LOOP;0;485;INDUSTRIAL LOOP;;;;;;;;;
188;F;33179706;EDGE AUTO REPAIR;09/27/2018 00:00:00;09/27/2018 00:00:00;APPROVAL;487 INDUSTRIAL LOOP;0;487;INDUSTRIAL LOOP;;;;;;;;;
191;B;33216144;NYC DEPT OF PARKS;10/11/2018 00:00:00;10/11/2018 00:00:00;NOT APPROVAL(W/REASON);338 STORY RD;0;338;STORY RD;;;;;;;;;
193;I;33225848;NYC PARKS & RECREATION;09/04/2018 00:00:00;09/04/2018 00:00:00;APPROVAL;77 CHEROKEE PL;0;77;CHEROKEE PL;;;;;;;;;
197;I;33237314;NYC PARKS & RECREATION;08/29/2018 00:00:00;08/29/2018 00:00:00;APPROVAL;67 CLAREMONT PKWY;0;67;CLAREMONT PKWY;;;;;;;;;
198;S;33239419;NYC DEP OF PARKS;07/24/2018 00:00:00;07/24/2018 00:00:00;APPROVAL;301 SHORE RD;0;301;SHORE RD;;;;;;;;;
201;S;33264557;TUTOR PERINI;11/07/2016 00:00:00;11/07/2016 00:00:00;APPROVAL;100 HUDSON RD;0;100;HUDSON RD;;;;;;;;;
205;N;33280819;CITY UNIVERSITY OF NY;02/20/2014 00:00:00;02/20/2014 00:00:00;APPROVAL;94-45 GUY BREWER BLVD;0;94-45;GUY BREWER BLVD;;;;;;;;;
206;N;33280835;CITY UNIVERSITY OF NY;07/09/2014 00:00:00;07/09/2014 00:00:00;APPROVAL;94-45 GUY BREWER BLVD;0;94-45;GUY BREWER BLVD;;;;;;;;;
208;A;33289448;USA ROOFING CO CORP;05/13/2015 00:00:00;05/13/2015 00:00:00;APPROVAL;163 FLUSHING AVE;0;163;FLUSHING AVE;;;;;;;;;
218;P;33311523;BELLROSE JEWISH CENTER;10/15/2018 00:00:00;10/15/2018 00:00:00;APPROVAL;254-14 UNION TNPK;0;254-14;UNION TNPK;;;;;;;;;
220;Z;33316670;ISLAND INTERNATIONAL ENT;03/20/2014 00:00:00;03/20/2014 00:00:00;APPROVAL;340 GATEWAY DR;0;340;GATEWAY DR;;;;;;;;;
221;AA;33322371;WALTER T GORMAN;08/18/2014 00:00:00;08/18/2014 00:00:00;NOT APPROVAL(W/REASON);114-15 GUY BREWER BLVD;0;114-15;GUY BREWER BLVD;;;;;;;;;
222;T;33325630;CUNY(YORK COLLEGE);10/07/2014 00:00:00;10/07/2014 00:00:00;APPROVAL;94-45 GUY BREWER BLVD;0;94-45;GUY BREWER BLVD;;;;;;;;;
223;N;34001032;MG REALTY LLC;06/03/2016 00:00:00;06/03/2016 00:00:00;APPROVAL;1029 6 AVE;0;1029;6 AVE;;;;;;;;;
224;G;34011494;NORWAY ASSOCIATES INC.;03/04/2016 00:00:00;03/17/2015 00:00:00;NOT APPROVAL(W/REASON);91 VAN CORTLANDT PARK W;0;91;VAN CORTLANDT PARK W;;;;;;;;;
225;N;34011775;NYCDEP;05/30/2014 00:00:00;05/30/2014 00:00:00;APPROVAL;301 SHORE RD;0;301;SHORE RD;;;;;;;;;
226;S;34012823;GRAMERCY GROUP, INC.;01/14/2014 00:00:00;01/14/2014 00:00:00;APPROVAL;17 W END AVE;0;17;W END AVE;;;;;;;;;
227;S;34016220;PETER SCALAMDRE & SONS I;01/15/2014 00:00:00;01/15/2014 00:00:00;APPROVAL;21 WEST END AVE;0;21;WEST END AVE;;;;;;;;;
228;AA;34019034;NY PRESBYTERIAN M.C.;01/27/2014 00:00:00;01/27/2014 00:00:00;NOT APPROVAL(W/REASON);710 WEST ST;0;710;WEST ST;;;;;;;;;
231;AA;34035774;KINGSBRIDGE ASSOCIATES;02/14/2014 00:00:00;02/14/2014 00:00:00;NOT APPROVAL(W/REASON);90 W 225 ST;0;90;W 225 ST;;;;;;;;;
232;E;34042283;NYC CUNY;09/24/2018 00:00:00;09/24/2018 00:00:00;APPROVAL;29-10 THOMPSON AVE;0;29-10;THOMPSON AVE;;;;;;;;;
233;T;34043158;SAKER AVIATION SERVICES;04/09/2014 00:00:00;04/09/2014 00:00:00;APPROVAL;1 PIER 6;0;1;PIER 6;;;;;;;;;
234;AA;34044131;DEPT OF CORRECTIONS;02/25/2014 00:00:00;02/25/2014 00:00:00;NOT APPROVAL(W/REASON);17-19 HAZEN ST;0;17-19;HAZEN ST;;;;;;;;;
235;AA;34044149;DEPT OF CORRECTIONS;02/25/2014 00:00:00;02/25/2014 00:00:00;NOT APPROVAL(W/REASON);17-19 HAZEN ST;0;17-19;HAZEN ST;;;;;;;;;
237;AA;34047720;N/A;05/26/2015 00:00:00;05/26/2015 00:00:00;NOT APPROVAL(W/REASON);84-33 RADNOR ST;0;84-33;RADNOR ST;;;;;;;;;
238;S;34048926;EXPRESS BUILDERS JB INC;02/25/2014 00:00:00;02/25/2014 00:00:00;APPROVAL;23 S 10 ST;0;23;S 10 ST;;;;;;;;;
239;AA;34050294;DEPT OF CORRECTIONS;03/04/2014 00:00:00;03/04/2014 00:00:00;NOT APPROVAL(W/REASON);17-19 HAZEN ST;0;17-19;HAZEN ST;;;;;;;;;
240;N;34051508;CUNY;08/29/2014 00:00:00;08/29/2014 00:00:00;APPROVAL;94-45 GUY BREWER BLVD;0;94-45;GUY BREWER BLVD;;;;;;;;;
241;G;34054692;SEIGEL  II LLC;05/31/2018 00:00:00;05/31/2018 00:00:00;APPROVAL;114 SIEGEL ST;0;114;SIEGEL ST;;;;;;;;;
242;G;34054700;GREEN COMPLEX INC.;04/10/2015 00:00:00;11/06/2014 00:00:00;NOT APPROVAL(W/REASON);120 SIEGEL ST;0;120;SIEGEL ST;;;;;;;;;
243;S;34056242;STRATIS CONTRACTING CORP;10/26/2017 00:00:00;07/01/2017 00:00:00;NOT APPROVAL(VIO);301 SHORE RD;0;301;SHORE RD;;;;;;;;;
244;RR;34057869;NYC POLICE DEPARTMENT;08/27/2015 00:00:00;08/27/2015 00:00:00;APPROVAL;90 FLOYD BENNETT FIELD;0;90;FLOYD BENNETT FIELD;;;;;;;;;
245;AA;34058339;JOSEPH R LORING & ASSOC;06/30/2014 00:00:00;06/30/2014 00:00:00;NOT APPROVAL(W/REASON);29-10 THOMPSON AVE;0;29-10;THOMPSON AVE;;;;;;;;;
246;N;34067074;CELTICS HOLDING;10/23/2018 00:00:00;10/23/2018 00:00:00;APPROVAL;30-20 THOMPSON AVE;0;30-20;THOMPSON AVE;;;;;;;;;
247;B;34078477;THE GIBSON BROOKLYN;10/13/2018 00:00:00;10/13/2018 00:00:00;APPROVAL;108 BEDFORD AVE;0;108;BEDFORD AVE;;;;;;;;;
248;RR;34079376;NYPD;11/01/2017 00:00:00;11/01/2017 00:00:00;APPROVAL;90 FLOYD BENNETT FIELD;0;90;FLOYD BENNETT FIELD;;;;;;;;;
249;G;34083287;MTA NYC TRANSIT;09/30/2014 00:00:00;03/29/2014 00:00:00;NOT APPROVAL(W/REASON);1 110 ST STATION;0;1;110 ST STATION;;;;;;;;;
250;P;34087320;RIVOLI REALTY CORP.;07/26/2018 00:00:00;07/26/2018 00:00:00;APPROVAL;188-10 UNION TNPK;0;188-10;UNION TNPK;;;;;;;;;
251;AA;34095257;DORMITORY AUTHORITY;04/17/2014 00:00:00;04/17/2014 00:00:00;NOT APPROVAL(W/REASON);29-10 THOMPSON AVE;0;29-10;THOMPSON AVE;;;;;;;;;
252;AA;34099465;NYC SCHOOL CONSTRUCTION;04/23/2014 00:00:00;04/23/2014 00:00:00;NOT APPROVAL(W/REASON);21 WEST END AVE;0;21;WEST END AVE;;;;;;;;;
253;A;34102848;REGAL USA CONSTRUCTION;10/06/2014 00:00:00;10/06/2014 00:00:00;APPROVAL;21 WEST END AVE;0;21;WEST END AVE;;;;;;;;;
254;AA;34108332;COFFEED OF LIC LANDING;07/01/2014 00:00:00;07/01/2014 00:00:00;NOT APPROVAL(W/REASON);52-10 CENTER BLVD;0;52-10;CENTER BLVD;;;;;;;;;
255;S;34118935;D&S IRON WORKS, INC.;05/12/2014 00:00:00;05/12/2014 00:00:00;APPROVAL;150-29 CROSSBAY BLVD;0;150-29;CROSSBAY BLVD;;;;;;;;;
256;AA;34124693;CELTIC HOLDINGS LLC;05/20/2014 00:00:00;05/20/2014 00:00:00;NOT APPROVAL(W/REASON);30-20 THOMPSON AVE;0;30-20;THOMPSON AVE;;;;;;;;;
257;AA;34126706;CITY OF NEW YORK PARKS;10/01/2014 00:00:00;10/01/2014 00:00:00;NOT APPROVAL(W/REASON);260 CEDAR GROVE AVE;0;260;CEDAR GROVE AVE;;;;;;;;;
258;N;34137083;CELTIC HOLDINGS LLC;07/29/2014 00:00:00;07/29/2014 00:00:00;APPROVAL;30-20 THOMPSON AVE;0;30-20;THOMPSON AVE;;;;;;;;;
259;N;34138131;DORMITORY AUTORITY OF NY;01/19/2014 00:00:00;01/19/2014 00:00:00;APPROVAL;31-40 THOMPSON AVE;0;31-40;THOMPSON AVE;;;;;;;;;
260;N;34138149;DORMITORY AUTORITY OF NY;04/26/2017 00:00:00;04/26/2017 00:00:00;NOT APPROVAL(W/REASON);31-40 THOMPSON AVE;0;31-40;THOMPSON AVE;;;;;;;;;
261;S;34142166;NYC DEPT OF CORRECTION;06/05/2014 00:00:00;06/05/2014 00:00:00;NOT APPROVAL(VIO);30 PERIMETER RD;0;30;PERIMETER RD;;;;;;;;;
262;S;34142166;NYC DEPT OF CORRECTION;06/05/2014 00:00:00;06/05/2014 00:00:00;NOV(HOLD);30 PERIMETER RD;0;30;PERIMETER RD;;;;;;;;;
263;AA;34151662;WILLIAMSBURG EDGE LLC;06/17/2014 00:00:00;06/17/2014 00:00:00;NOT APPROVAL(W/REASON);2 N 6 ST;0;2;N 6 ST;;;;;;;;;
264;AA;34157651;M214 WEST 39TH STRET STE;06/24/2014 00:00:00;06/24/2014 00:00:00;NOT APPROVAL(W/REASON);1029 6 AVE;0;1029;6 AVE;;;;;;;;;
265;T;34157883;NY KIDS CLUB;09/14/2015 00:00:00;09/14/2015 00:00:00;APPROVAL;2 NORTHSIDE PIER;0;2;NORTHSIDE PIER;;;;;;;;;
266;N;34173534;KINGSBRIDGE ASSOC;02/17/2016 00:00:00;02/17/2016 00:00:00;APPROVAL;90 W 225 ST;0;90;W 225 ST;;;;;;;;;
267;AA;34178145;STILLWELL SELF STORAGE;07/15/2014 00:00:00;07/15/2014 00:00:00;NOT APPROVAL(W/REASON);1540 BASSETT AVE;0;1540;BASSETT AVE;;;;;;;;;
268;AA;34178640;GTJ REIT INC;09/18/2014 00:00:00;09/18/2014 00:00:00;NOT APPROVAL(W/REASON);114-15 GUY BREWER BLVD;0;114-15;GUY BREWER BLVD;;;;;;;;;
269;G;34179374;AL PISNANI;03/06/2014 00:00:00;03/06/2014 00:00:00;APPROVAL;9-25 CROSSBAY BLVD;0;9-25;CROSSBAY BLVD;;;;;;;;;
270;AA;34180679;WYTHE & KENT REALTY LLC;10/14/2014 00:00:00;10/14/2014 00:00:00;NOT APPROVAL(W/REASON);23 S 10 ST;0;23;S 10 ST;;;;;;;;;
271;S;34193045;KSW MECHANICAL SERV;10/09/2015 00:00:00;10/09/2015 00:00:00;APPROVAL;21 WEST END AVE;0;21;WEST END AVE;;;;;;;;;
272;S;34200642;PARKVIEW PLUMBING & HEAT;06/07/2016 00:00:00;06/07/2016 00:00:00;APPROVAL;21 WEST END AVE;0;21;WEST END AVE;;;;;;;;;
273;A;34209445;UNIQUE MECHANICAL SERV.;08/12/2014 00:00:00;08/12/2014 00:00:00;APPROVAL;30-30 THOMPSON AVE;0;30-30;THOMPSON AVE;;;;;;;;;
274;G;34218222;JOSHUA LYLES;05/13/2014 00:00:00;05/13/2014 00:00:00;APPROVAL;52-10 CENTER BLVD;0;52-10;CENTER BLVD;;;;;;;;;
275;N;34219402;E&Y DEVELOPMENT;03/18/2015 00:00:00;03/18/2015 00:00:00;APPROVAL;2257 ADAM CLAYTON BLVD;0;2257;ADAM CLAYTON BLVD;;;;;;;;;
276;S;34241299;NYC DEPT OF CORRECTION;09/06/2017 00:00:00;09/06/2017 00:00:00;NOT APPROVAL(W/REASON);17-19 HAZEN ST;0;17-19;HAZEN ST;;;;;;;;;
277;AA;34263228;MICHAEL DIGIACOMO;12/18/2014 00:00:00;12/18/2014 00:00:00;NOT APPROVAL(W/REASON);21 WEST END AVE;0;21;WEST END AVE;;;;;;;;;
278;S;34267286;PARAGON IRON INC.;11/09/2015 00:00:00;11/09/2015 00:00:00;APPROVAL;21 WEST END AVE;0;21;WEST END AVE;;;;;;;;;
279;Z;34274423;REGAL USA CONSTRUCTION I;10/22/2014 00:00:00;10/22/2014 00:00:00;APPROVAL;21 WEST END AVE;0;21;WEST END AVE;;;;;;;;;
280;A;34279794;REGAL USA CONSTRUCTION I;10/28/2014 00:00:00;10/28/2014 00:00:00;APPROVAL;21 WEST END AVE;0;21;WEST END AVE;;;;;;;;;
281;N;34282574;213-14 UNION TURNPIKE;05/11/2015 00:00:00;05/11/2015 00:00:00;APPROVAL;213-18 UNION TNPK;0;213-18;UNION TNPK;;;;;;;;;
282;N;34289314;LAGUARDIA COM COLLEGE;03/18/2015 00:00:00;03/18/2015 00:00:00;APPROVAL;29-10 THOMPSON AVE;0;29-10;THOMPSON AVE;;;;;;;;;
283;AA;34322727;KINGSBRIDGE ASSOCIATES;12/16/2014 00:00:00;12/16/2014 00:00:00;NOT APPROVAL(W/REASON);90 W 225 ST;0;90;W 225 ST;;;;;;;;;
284;A;34328229;TUTOR PERINI CORP;12/19/2015 00:00:00;12/19/2015 00:00:00;APPROVAL;100 HUDSON RD;0;100;HUDSON RD;;;;;;;;;
285;AA;34331827;BELLEROSE JEWISH CENTER;12/24/2014 00:00:00;12/24/2014 00:00:00;NOT APPROVAL(W/REASON);254-14 UNION TNPK;0;254-14;UNION TNPK;;;;;;;;;
286;AA;34333211;DASNY;12/29/2014 00:00:00;12/29/2014 00:00:00;NOT APPROVAL(W/REASON);29-10 THOMPSON AVE;0;29-10;THOMPSON AVE;;;;;;;;;
287;T;35014851;HARLEM DOCTORS MED;01/21/2015 00:00:00;01/21/2015 00:00:00;APPROVAL;2257 ADAM CLAYTON BLVD;0;2257;ADAM CLAYTON BLVD;;;;;;;;;
288;AA;35078013;SAXON DESIGN GROUP;03/26/2015 00:00:00;03/26/2015 00:00:00;NOT APPROVAL(W/REASON);2175 ADAM CLAYTON BLVD;0;2175;ADAM CLAYTON BLVD;;;;;;;;;
289;A;35087535;LIC LANDING BY COFFEED;12/04/2018 00:00:00;12/04/2018 00:00:00;NOT APPROVAL(VIO);52-10 CENTER BLVD;0;52-10;CENTER BLVD;;;;;;;;;
290;T;35095603;STRATIS CONTRACTING CORP;03/10/2015 00:00:00;03/10/2015 00:00:00;APPROVAL;301 SHORE RD;0;301;SHORE RD;;;;;;;;;
291;A;35099035;J.E. LEVINE BUILDERS;08/09/2016 00:00:00;08/09/2016 00:00:00;APPROVAL;2 N 6 ST;0;2;N 6 ST;;;;;;;;;
292;G;35104421;BATTERY PK DEVELOP CORP;11/12/2015 00:00:00;11/12/2015 00:00:00;APPROVAL;1 NORTH RIVER-PIER A;0;1;NORTH RIVER-PIER A;;;;;;;;;
293;A;35107515;MOES SOUTHWEST GRILL;04/20/2015 00:00:00;04/20/2015 00:00:00;APPROVAL;1029 6 AVE;0;1029;6 AVE;;;;;;;;;
294;N;35108521;NYCSCA;12/19/2015 00:00:00;12/19/2015 00:00:00;NOT APPROVAL(W/REASON);30-30 THOMPSON AVE;0;30-30;THOMPSON AVE;;;;;;;;;
295;AA;35113851;DR JOSEPH MCGINN;04/29/2015 00:00:00;04/29/2015 00:00:00;NOT APPROVAL(W/REASON);7 CARRIAGE CT;0;7;CARRIAGE CT;;;;;;;;;
296;N;35138759;PLANET FITNESS;12/29/2015 00:00:00;12/29/2015 00:00:00;APPROVAL;82 W 225 ST;0;82;W 225 ST;;;;;;;;;
297;A;35140375;GCT CONSTRUCTORS;11/29/2018 00:00:00;11/29/2018 00:00:00;APPROVAL;82 W 225 ST;0;82;W 225 ST;;;;;;;;;
298;S;35144856;N.S.P. ENTERPRISES INC.;02/22/2016 00:00:00;02/22/2016 00:00:00;APPROVAL;10 GRAND ARMY PLZ;0;10;GRAND ARMY PLZ;;;;;;;;;
299;R;35151224;BRP CONSTRUCTION GROUP;06/04/2015 00:00:00;06/04/2015 00:00:00;APPROVAL;2239 ADAM CLAYTON BLVD;0;2239;ADAM CLAYTON BLVD;;;;;;;;;
300;N;35155084;CUNNY;06/11/2015 00:00:00;06/11/2015 00:00:00;APPROVAL;29-10 THOMPSON AVE;0;29-10;THOMPSON AVE;;;;;;;;;
301;P;35170471;NYC DEPT OF CORRECTION;05/31/2018 00:00:00;05/31/2018 00:00:00;APPROVAL;17-19 HAZEN ST;0;17-19;HAZEN ST;;;;;;;;;
302;AA;35202134;BELLEROSE JEWIS CENTER;08/03/2015 00:00:00;08/03/2015 00:00:00;NOT APPROVAL(W/REASON);254-14 UNION TNPK;0;254-14;UNION TNPK;;;;;;;;;
303;Z;35218965;FAMOUS OF NY CONSTRUCTIO;08/17/2015 00:00:00;08/17/2015 00:00:00;APPROVAL;2239 ADAM CLAYTON BLVD;0;2239;ADAM CLAYTON BLVD;;;;;;;;;
304;AA;35235407;RIVERSIDE CTR PARCEL;09/03/2015 00:00:00;09/03/2015 00:00:00;NOT APPROVAL(W/REASON);21 WEST END AVE;0;21;WEST END AVE;;;;;;;;;
305;RR;35238765;NYPD ESU;09/04/2015 00:00:00;09/04/2015 00:00:00;APPROVAL;90 FLOYD BENNETT FIELD;0;90;FLOYD BENNETT FIELD;;;;;;;;;
306;B;35245034;LINCOLN CTR FOR THE THE;09/03/2015 00:00:00;09/03/2015 00:00:00;APPROVAL;52-10 CENTER BLVD;0;52-10;CENTER BLVD;;;;;;;;;
307;S;35267228;WOODWORKS CONSTRUCTION;09/24/2015 00:00:00;09/24/2015 00:00:00;APPROVAL;21 WEST END AVE;0;21;WEST END AVE;;;;;;;;;
308;N;35281211;WYTHE GARDENS LLC;11/13/2015 00:00:00;11/13/2015 00:00:00;APPROVAL;23 S 10 ST;0;23;S 10 ST;;;;;;;;;
309;AA;35300045;MG RETAIL LLC;10/20/2015 00:00:00;10/20/2015 00:00:00;NOT APPROVAL(W/REASON);1029 6 AVE;0;1029;6 AVE;;;;;;;;;
310;AA;35324862;166 WEST 129 REALTY LLC;11/04/2015 00:00:00;11/04/2015 00:00:00;NOT APPROVAL(W/REASON);2175 ADAM CLAYTON BLVD;0;2175;ADAM CLAYTON BLVD;;;;;;;;;
311;AA;35369453;DORMITORY AUTHORITY OF N;12/10/2015 00:00:00;12/10/2015 00:00:00;NOT APPROVAL(W/REASON);31-40 THOMPSON AVE;0;31-40;THOMPSON AVE;;;;;;;;;
312;AA;35393933;DASNY;12/30/2015 00:00:00;12/30/2015 00:00:00;NOT APPROVAL(W/REASON);29-10 THOMPSON AVE;0;29-10;THOMPSON AVE;;;;;;;;;
313;AA;36014249;DELI;01/16/2016 00:00:00;01/16/2016 00:00:00;NOT APPROVAL(W/REASON);1 E 172 ST;0;1;E 172 ST;;;;;;;;;
314;G;36037513;J & F DELI GROCERY INC;12/22/2015 00:00:00;12/22/2015 00:00:00;APPROVAL;145-89 GUY BREWER BLVD;0;145-89;GUY BREWER BLVD;;;;;;;;;
315;B;36055556;THE ROCHDALE EARLY;12/11/2017 00:00:00;12/11/2017 00:00:00;APPROVAL;110-51 GUY BREWER BLVD;0;110-51;GUY BREWER BLVD;;;;;;;;;
316;AA;36092682;ARRIS LOFTS;03/30/2016 00:00:00;03/30/2016 00:00:00;NOT APPROVAL(W/REASON);27-28 THOMPSON AVE;0;27-28;THOMPSON AVE;;;;;;;;;
317;S;36096915;A.K.S. INTERNATIONAL;04/24/2017 00:00:00;04/24/2017 00:00:00;APPROVAL;29-10 THOMPSON AVE;0;29-10;THOMPSON AVE;;;;;;;;;
318;B;36097558;CHILD CENTER @ BEACON;09/28/2017 00:00:00;09/28/2017 00:00:00;APPROVAL;133-25 GUY BREWER BLVD;0;133-25;GUY BREWER BLVD;;;;;;;;;
319;B;36097566;HARRIMAN SUMMER CAMP,;09/28/2017 00:00:00;09/28/2017 00:00:00;APPROVAL;133-25 GUY BREWER BLVD;0;133-25;GUY BREWER BLVD;;;;;;;;;
320;AA;36103836;NYC SCHOOL CONSTRUCTION;04/08/2016 00:00:00;04/08/2016 00:00:00;NOT APPROVAL(W/REASON);21 WEST END AVE;0;21;WEST END AVE;;;;;;;;;
321;AA;36106698;DORMITORY AUTHORITY OF N;04/13/2016 00:00:00;04/13/2016 00:00:00;NOT APPROVAL(W/REASON);31-40 THOMPSON AVE;0;31-40;THOMPSON AVE;;;;;;;;;
322;AA;36113611;TAG ARRIS RETAIL LLC;04/15/2016 00:00:00;04/15/2016 00:00:00;NOT APPROVAL(W/REASON);27-28 THOMPSON AVE;0;27-28;THOMPSON AVE;;;;;;;;;
323;A;36123156;Q+A EVENTS AND PRODUCTIO;04/25/2016 00:00:00;04/25/2016 00:00:00;APPROVAL;25 PARK AVE S;0;25;PARK AVE S;;;;;;;;;
324;AA;36125854;AT&T MOBILITY;04/27/2016 00:00:00;04/27/2016 00:00:00;NOT APPROVAL(W/REASON);257-02 UNION TNPK;0;257-02;UNION TNPK;;;;;;;;;
325;RR;36140416;FDNY;05/05/2016 00:00:00;05/05/2016 00:00:00;APPROVAL;34-11 HUNTERS POINT AVE;0;34-11;HUNTERS POINT AVE;;;;;;;;;
326;N;36141356;RIVERSIDE CNTR PARCEL 2;06/23/2016 00:00:00;06/23/2016 00:00:00;APPROVAL;21 WEST END AVE;0;21;WEST END AVE;;;;;;;;;
327;AA;36144525;RIVERSIDE CENTER PARCEL;05/12/2016 00:00:00;05/12/2016 00:00:00;NOT APPROVAL(W/REASON);21 WEST END AVE;0;21;WEST END AVE;;;;;;;;;
328;A;36148971;J&F DELI GROCERY, INC;11/09/2016 00:00:00;11/09/2016 00:00:00;APPROVAL;145-89 GUY BREWER BLVD;0;145-89;GUY BREWER BLVD;;;;;;;;;
329;B;36176105;BASIE BEACON LEARNING CT;05/15/2018 00:00:00;05/15/2018 00:00:00;APPROVAL;133-25 GUY BREWER BLVD;0;133-25;GUY BREWER BLVD;;;;;;;;;
330;R;36182293;NYC DEPT. OF CORRECTION;05/31/2018 00:00:00;05/31/2018 00:00:00;APPROVAL;17-19 HAZEN ST;0;17-19;HAZEN ST;;;;;;;;;
331;R;36182301;NYC DEPT. OF CORRECTION;05/31/2018 00:00:00;05/31/2018 00:00:00;APPROVAL;17-19 HAZEN ST;0;17-19;HAZEN ST;;;;;;;;;
332;AA;36195832;DORMITOR SUTHORITY OF NY;06/21/2016 00:00:00;06/21/2016 00:00:00;NOT APPROVAL(W/REASON);31-40 THOMPSON AVE;0;31-40;THOMPSON AVE;;;;;;;;;
333;N;36226249;KINGSBRIDGE ASSOCIATES;11/02/2016 00:00:00;11/02/2016 00:00:00;APPROVAL;90 W 225 ST;0;90;W 225 ST;;;;;;;;;
334;AA;36254852;RIVERSIDE CNTR PARCEL;08/05/2016 00:00:00;08/05/2016 00:00:00;NOT APPROVAL(W/REASON);21 WEST END AVE;0;21;WEST END AVE;;;;;;;;;
335;B;36300291;LINCOLN CENTER FOR THE;08/26/2016 00:00:00;08/26/2016 00:00:00;APPROVAL;52-10 CENTER BLVD;0;52-10;CENTER BLVD;;;;;;;;;
336;DV;36302479;33 NASSAU LLC;04/19/2017 00:00:00;04/19/2017 00:00:00;APPROVAL;33 NASSAU ST;0;33;NASSAU ST;;;;;;;;;
337;R;36309649;LIFESTYLE SERVICES;09/27/2016 00:00:00;09/27/2016 00:00:00;APPROVAL;21 WEST END AVE;0;21;WEST END AVE;;;;;;;;;
338;AA;36397073;RESTAURANT;12/08/2016 00:00:00;12/08/2016 00:00:00;NOT APPROVAL(W/REASON);21 WEST END AVE;0;21;WEST END AVE;;;;;;;;;
339;G;36405314;RIVERSIDE 2;12/20/2016 00:00:00;12/20/2016 00:00:00;APPROVAL;21 WEST END AVE;0;21;WEST END AVE;;;;;;;;;
340;R;36413383;TRITON STRUCTURAL CONCRE;12/22/2016 00:00:00;12/22/2016 00:00:00;APPROVAL;47-40 CENTER BLVD;0;47-40;CENTER BLVD;;;;;;;;;
341;R;36413524;TRITON STRUCTURAL CONCRE;12/22/2016 00:00:00;12/22/2016 00:00:00;APPROVAL;47-40 CENTER BLVD;0;47-40;CENTER BLVD;;;;;;;;;
342;N;36414506;RIVERSIDE CNTR;05/16/2017 00:00:00;05/16/2017 00:00:00;APPROVAL;21 WEST END AVE;0;21;WEST END AVE;;;;;;;;;
343;B;37005956;P993Q @ MS72 DISTRICT 75;09/28/2017 00:00:00;09/28/2017 00:00:00;APPROVAL;133-25 GUY BREWER BLVD;0;133-25;GUY BREWER BLVD;;;;;;;;;
344;B;37005964;MS 332Q @ MS 72;09/28/2017 00:00:00;09/28/2017 00:00:00;APPROVAL;133-25 GUY BREWER BLVD;0;133-25;GUY BREWER BLVD;;;;;;;;;
345;N;37053303;SELK HOUSING HDFC;10/11/2017 00:00:00;10/11/2017 00:00:00;APPROVAL;2079 DOUGLAS BLVD;0;2079;DOUGLAS BLVD;;;;;;;;;
346;S;37069648;FORTHILL CONSTRUCTION;03/06/2017 00:00:00;03/06/2017 00:00:00;APPROVAL;63 FLUSHING AVE;0;63;FLUSHING AVE;;;;;;;;;
347;AA;37078862;BELLEROSE JEWISH CENTER;03/16/2017 00:00:00;03/16/2017 00:00:00;NOT APPROVAL(W/REASON);254-14 UNION TNPK;0;254-14;UNION TNPK;;;;;;;;;
348;R;37086857;GALVIN BROS, INC;03/20/2017 00:00:00;03/20/2017 00:00:00;APPROVAL;52-10 CENTER BLVD;0;52-10;CENTER BLVD;;;;;;;;;
349;T;37092749;NYCDEPT OF PARKS STRATIS;02/23/2017 00:00:00;02/23/2017 00:00:00;NOT APPROVAL(VIO);301 SHORE RD;0;301;SHORE RD;;;;;;;;;
350;AA;37148798;CELTIC HOLDINGS LLC;05/17/2017 00:00:00;05/17/2017 00:00:00;NOT APPROVAL(W/REASON);30-30 THOMPSON AVE;0;30-30;THOMPSON AVE;;;;;;;;;
351;AA;37165263;HUDSON RIVER PARK;06/01/2017 00:00:00;06/01/2017 00:00:00;NOT APPROVAL(W/REASON);1 PIER 6;0;1;PIER 6;;;;;;;;;
352;R;37171360;ASM MECHANICAL SYSTEMS;06/09/2017 00:00:00;06/09/2017 00:00:00;APPROVAL;21 WEST END AVE;0;21;WEST END AVE;;;;;;;;;
353;AA;37180635;DASNY;06/14/2017 00:00:00;06/14/2017 00:00:00;NOT APPROVAL(W/REASON);29-10 THOMPSON AVE;0;29-10;THOMPSON AVE;;;;;;;;;
354;AA;37186855;KINGSBRIDGE ASSO LLC;06/21/2017 00:00:00;06/21/2017 00:00:00;NOT APPROVAL(W/REASON);90 W 225 ST;0;90;W 225 ST;;;;;;;;;
355;N;37187622;NYC SCA;08/03/2017 00:00:00;08/03/2017 00:00:00;APPROVAL;21 WEST END AVE;0;21;WEST END AVE;;;;;;;;;
356;N;37187630;RIVERSIDE CNTR PARCEL 2;07/12/2017 00:00:00;07/12/2017 00:00:00;APPROVAL;21 WEST END AVE;0;21;WEST END AVE;;;;;;;;;
357;T;37199783;RIVERSIDE CENTER SITE 5;12/21/2017 00:00:00;12/21/2017 00:00:00;APPROVAL;627 W 59 ST;0;627;W 59 ST;;;;;;;;;
358;AA;37202611;RESTAURANT;07/03/2017 00:00:00;07/03/2017 00:00:00;NOT APPROVAL(W/REASON);21 WEST END AVE;0;21;WEST END AVE;;;;;;;;;
359;B;37208261;NBC UNIVERSAL;06/30/2017 00:00:00;06/30/2017 00:00:00;APPROVAL;52-10 CENTER BLVD;0;52-10;CENTER BLVD;;;;;;;;;
360;B;37210614;MACY'S BRANDED;07/05/2017 00:00:00;07/05/2017 00:00:00;APPROVAL;52-10 CENTER BLVD;0;52-10;CENTER BLVD;;;;;;;;;
361;G;37227402;PS/IS 342;07/26/2017 00:00:00;07/26/2017 00:00:00;APPROVAL;21 WEST END AVE;0;21;WEST END AVE;;;;;;;;;
362;AA;37239027;RIVERSIDE CENTER PARCEL;08/02/2017 00:00:00;08/02/2017 00:00:00;NOT APPROVAL(W/REASON);21 WEST END AVE;0;21;WEST END AVE;;;;;;;;;
363;AA;37303443;166 W 129TH REALTY LLC;10/04/2017 00:00:00;10/04/2017 00:00:00;NOT APPROVAL(W/REASON);2175 ADAM CLAYTON BLVD;0;2175;ADAM CLAYTON BLVD;;;;;;;;;
364;G;37329331;RIVERSIDE CENTER PARCEL;11/06/2017 00:00:00;10/23/2017 00:00:00;NOT APPROVAL(W/REASON);21 WEST END AVE;0;21;WEST END AVE;;;;;;;;;
365;G;37329349;RIVERSIDE CENTER PARCEL;10/16/2017 00:00:00;10/30/2010 00:00:00;NOT APPROVAL(W/REASON);21 WEST END AVE;0;21;WEST END AVE;;;;;;;;;
367;AA;37356375;GTJ REIT, INC;11/22/2017 00:00:00;11/22/2017 00:00:00;NOT APPROVAL(W/REASON);114-15 GUY BREWER BLVD;0;114-15;GUY BREWER BLVD;;;;;;;;;
368;AA;37380334;NYC TRANSIT;12/14/2017 00:00:00;12/14/2017 00:00:00;NOT APPROVAL(W/REASON);114-15 GUY BREWER BLVD;0;114-15;GUY BREWER BLVD;;;;;;;;;
369;AA;38001368;DASNY;01/03/2018 00:00:00;01/03/2018 00:00:00;NOT APPROVAL(W/REASON);29-10 THOMPSON AVE;0;29-10;THOMPSON AVE;;;;;;;;;
370;A;38043014;PS/IS 342;02/12/2018 00:00:00;02/12/2018 00:00:00;NOT APPROVAL(W/REASON);21 WEST END AVE;0;21;WEST END AVE;;;;;;;;;
371;F;38085635;23 SO 10 ST CONDO;06/26/2018 00:00:00;06/26/2018 00:00:00;APPROVAL;23 S 10 ST;0;23;S 10 ST;;;;;;;;;
372;DV;38085676;23 SO 10 ST CONDO;02/28/2018 00:00:00;08/11/2015 00:00:00;NOT APPROVAL(W/REASON);23 S 10 ST;0;23;S 10 ST;;;;;;;;;
373;G;38085692;23 SO 10 ST CONDO;02/28/2018 00:00:00;12/29/2014 00:00:00;NOT APPROVAL(W/REASON);23 S 10 ST;0;23;S 10 ST;;;;;;;;;
374;A;38128153;RIVERSIDE 2(-1);04/18/2018 00:00:00;04/18/2018 00:00:00;NOT APPROVAL(W/REASON);21 WEST END AVE;0;21;WEST END AVE;;;;;;;;;
375;N;38152336;RIVERSIDE CTR PARCEL2BIT;11/16/2018 00:00:00;11/16/2018 00:00:00;NOT APPROVAL(W/REASON);21 WEST END AVE;0;21;WEST END AVE;;;;;;;;;
376;A;38168407;AVENUE CONTRACTING, INC.;05/14/2018 00:00:00;05/14/2018 00:00:00;APPROVAL;108-41 GUY BREWER BLVD;0;108-41;GUY BREWER BLVD;;;;;;;;;
377;B;38192829;YORK COLLEGE CUNY;05/10/2018 00:00:00;05/10/2018 00:00:00;APPROVAL;94-45 GUY BREWER BLVD;0;94-45;GUY BREWER BLVD;;;;;;;;;
378;AA;38230983;NYC DEPT OF PARKS & RECR;07/09/2018 00:00:00;07/09/2018 00:00:00;NOT APPROVAL(W/REASON);301 SHORE RD;0;301;SHORE RD;;;;;;;;;
379;AA;38324547;RIVERSIDE CNTR PARCEL 2;10/01/2018 00:00:00;10/01/2018 00:00:00;NOT APPROVAL(W/REASON);21 WEST END AVE;0;21;WEST END AVE;;;;;;;;;
380;P;38333571;ESSEX MANAGEMENT;10/05/2018 00:00:00;10/05/2018 00:00:00;APPROVAL;248-04 UNION TNPK;0;248-04;UNION TNPK;;;;;;;;;
381;AA;38356051;SONG YI'S KITCHEN;10/29/2018 00:00:00;10/29/2018 00:00:00;NOT APPROVAL(W/REASON);150-29 CROSSBAY BLVD;0;150-29;CROSSBAY BLVD;;;;;;;;;
382;N;38359154;DASNY;11/27/2018 00:00:00;11/27/2018 00:00:00;APPROVAL;29-10 THOMPSON AVE;0;29-10;THOMPSON AVE;;;;;;;;;
383;B;38373478;NYC DEPT OF EDUCATION;11/07/2018 00:00:00;11/07/2018 00:00:00;NOT APPROVAL(VIO);21 WEST END AVE;0;21;WEST END AVE;;;;;;;;;
384;N;38394870;RIVERSIDE CENTER PARCEL;11/13/2018 00:00:00;11/13/2018 00:00:00;NOT APPROVAL(VIO);21 WEST END AVE;0;21;WEST END AVE;;;;;;;;;
385;AA;38410221;COFFEED OF LANDING;12/19/2018 00:00:00;12/19/2018 00:00:00;NOT APPROVAL(W/REASON);52-10 CENTER BLVD;0;52-10;CENTER BLVD;;;;;;;;;
386;AA;39001979;NYC DEPT OF PARKS;01/04/2019 00:00:00;01/04/2019 00:00:00;NOT APPROVAL(W/REASON);301 SHORE RD;0;301;SHORE RD;;;;;;;;;
387;E;39003249;BROOKLYN NAVY YARD DEV.;12/19/2018 00:00:00;12/19/2018 00:00:00;APPROVAL;63 FLUSHING AVE;0;63;FLUSHING AVE;;;;;;;;;
388;B;87008421;CHURCH OF JESUS CHRIST;10/26/2018 00:00:00;10/26/2018 00:00:00;NOT APPROVAL(W/REASON);343 COURT ST;0;343;COURT ST;;;;;;;;;
389;B;87020152;ELM MGMT;01/09/2018 00:00:00;01/09/2018 00:00:00;APPROVAL;1 FAIRVIEW AVE;0;1;FAIRVIEW AVE;;;;;;;;;
390;RR;89004030;COST CUTTER FUEL CORP;02/25/2016 00:00:00;02/25/2016 00:00:00;NOT APPROVAL(VIO);1103 E GUNHILL RD;0;1103;E GUNHILL RD;;;;;;;;;
391;P;91045310;THAN CHAG;03/19/2018 00:00:00;03/19/2018 00:00:00;APPROVAL;167-20 UNION TNPK;0;167-20;UNION TNPK;;;;;;;;;
392;G;93040426;510 MANHATTAN LLC;08/06/2014 00:00:00;05/22/2014 00:00:00;NOT APPROVAL(W/REASON);96-20 94 AVE;0;96-20;94 AVE;;;;;;;;;
393;G;95015327;MTA NYC TRANSIT;07/20/2016 00:00:00;07/20/2016 00:00:00;APPROVAL;1 53 ST & 7 AVE STAT;0;1;53 ST & 7 AVE STAT;;;;;;;;;
394;G;97012272;RITE AID PHARMACY;07/06/2016 00:00:00;07/06/2016 00:00:00;APPROVAL;186-16 UNION TNPK;0;186-16;UNION TNPK;;;;;;;;;
395;N;28065001;NYC ECONOM.DEVEL. CORP;09/28/2018 00:00:00;09/28/2018 00:00:00;NOT APPROVAL(W/REASON);10 SOUTH ST;1000003;10;SOUTH ST;101;1;1000020002;40.701047;-74.011672;10004;MN;9;Battery Park City-Lower Manhattan
416;S;33050782;BEDFORD CONSTRUCTION;07/21/2014 00:00:00;07/21/2014 00:00:00;APPROVAL;10 SOUTH ST;1000003;10;SOUTH ST;101;1;1000020002;40.701047;-74.011672;10004;MN;9;Battery Park City-Lower Manhattan
422;S;33225426;GMC CONTRACTING SERV;08/26/2014 00:00:00;08/26/2014 00:00:00;APPROVAL;10 SOUTH ST;1000003;10;SOUTH ST;101;1;1000020002;40.701047;-74.011672;10004;MN;9;Battery Park City-Lower Manhattan
424;A;34063842;D7 CONSTRUCTION LLC;05/09/2016 00:00:00;05/09/2016 00:00:00;APPROVAL;10 SOUTH ST;1000003;10;SOUTH ST;101;1;1000020002;40.701047;-74.011672;10004;MN;9;Battery Park City-Lower Manhattan
425;A;34106500;MSWALK 2014;04/30/2014 00:00:00;04/30/2014 00:00:00;NOT APPROVAL(W/REASON);10 SOUTH ST;1000003;10;SOUTH ST;101;1;1000020002;40.701047;-74.011672;10004;MN;9;Battery Park City-Lower Manhattan
426;AA;34156844;NYC ECONOMIC DEVELOP COR;12/23/2014 00:00:00;12/23/2014 00:00:00;NOT APPROVAL(W/REASON);10 SOUTH ST;1000003;10;SOUTH ST;101;1;1000020002;40.701047;-74.011672;10004;MN;9;Battery Park City-Lower Manhattan
427;A;34230839;MARK & SON METAL PRODUCT;09/02/2014 00:00:00;09/02/2014 00:00:00;APPROVAL;10 SOUTH ST;1000003;10;SOUTH ST;101;1;1000020002;40.701047;-74.011672;10004;MN;9;Battery Park City-Lower Manhattan
428;AA;34318352;NYC ECONOMIC DEVEP CORP;12/11/2014 00:00:00;12/11/2014 00:00:00;NOT APPROVAL(W/REASON);10 SOUTH ST;1000003;10;SOUTH ST;101;1;1000020002;40.701047;-74.011672;10004;MN;9;Battery Park City-Lower Manhattan
429;A;34334987;DIAMOND TECH PROPERTY;12/29/2014 00:00:00;12/29/2014 00:00:00;APPROVAL;10 SOUTH ST;1000003;10;SOUTH ST;101;1;1000020002;40.701047;-74.011672;10004;MN;9;Battery Park City-Lower Manhattan
430;AA;35111616;NYC ECONOMIC DEV CORP;04/27/2015 00:00:00;04/27/2015 00:00:00;NOT APPROVAL(W/REASON);10 SOUTH ST;1000003;10;SOUTH ST;101;1;1000020002;40.701047;-74.011672;10004;MN;9;Battery Park City-Lower Manhattan
431;A;35169192;LEADDOG MARKETING GROUP;06/24/2015 00:00:00;06/24/2015 00:00:00;APPROVAL;10 SOUTH ST;1000003;10;SOUTH ST;101;1;1000020002;40.701047;-74.011672;10004;MN;9;Battery Park City-Lower Manhattan
432;R;35304666;IDEKO PRODUCTIONS;10/22/2015 00:00:00;10/22/2015 00:00:00;APPROVAL;10 SOUTH ST;1000003;10;SOUTH ST;101;1;1000020002;40.701047;-74.011672;10004;MN;9;Battery Park City-Lower Manhattan
433;B;36184893;GOVERNOR'S GARDEN;06/03/2016 00:00:00;06/03/2016 00:00:00;APPROVAL;10 SOUTH ST;1000003;10;SOUTH ST;101;1;1000020002;40.701047;-74.011672;10004;MN;9;Battery Park City-Lower Manhattan
434;B;36205557;GOVERNORS ISLAND;05/31/2016 00:00:00;05/31/2016 00:00:00;APPROVAL;10 SOUTH ST;1000003;10;SOUTH ST;101;1;1000020002;40.701047;-74.011672;10004;MN;9;Battery Park City-Lower Manhattan
435;B;36226868;PINKNIC FESTIVAL LLC;07/09/2016 00:00:00;07/09/2016 00:00:00;APPROVAL;10 SOUTH ST;1000003;10;SOUTH ST;101;1;1000020002;40.701047;-74.011672;10004;MN;9;Battery Park City-Lower Manhattan
436;B;36235992;GOVERNORS ISLAND FERRY;06/28/2016 00:00:00;06/28/2016 00:00:00;APPROVAL;10 SOUTH ST;1000003;10;SOUTH ST;101;1;1000020002;40.701047;-74.011672;10004;MN;9;Battery Park City-Lower Manhattan
437;S;36250736;TIME OUT'S BATTLE OF THE;08/10/2017 00:00:00;08/10/2017 00:00:00;APPROVAL;233 WEST ST;1000003;233;WEST ST;;;;;;;MN;39;SoHo-TriBeCa-Civic Center-Little Italy
438;B;36271088;CALCIE COOPER MEDIA;08/06/2016 00:00:00;08/06/2016 00:00:00;APPROVAL;10 SOUTH ST;1000003;10;SOUTH ST;101;1;1000020002;40.701047;-74.011672;10004;MN;9;Battery Park City-Lower Manhattan
439;B;36276772;ARENELLA PRODUCTION LLC;08/13/2016 00:00:00;08/13/2016 00:00:00;APPROVAL;10 SOUTH ST;1000003;10;SOUTH ST;101;1;1000020002;40.701047;-74.011672;10004;MN;9;Battery Park City-Lower Manhattan
440;A;36279792;GOVERNORS GARDEN MGMT;08/25/2016 00:00:00;08/25/2016 00:00:00;APPROVAL;10 SOUTH ST;1000003;10;SOUTH ST;101;1;1000020002;40.701047;-74.011672;10004;MN;9;Battery Park City-Lower Manhattan
441;B;36280816;GOVERNORS GARDEN MNGT;08/25/2016 00:00:00;08/25/2016 00:00:00;APPROVAL;10 SOUTH ST;1000003;10;SOUTH ST;101;1;1000020002;40.701047;-74.011672;10004;MN;9;Battery Park City-Lower Manhattan
442;B;36332609;THURST FOR GOVERNORS ISL;09/25/2016 00:00:00;09/25/2016 00:00:00;APPROVAL;10 SOUTH ST;1000003;10;SOUTH ST;101;1;1000020002;40.701047;-74.011672;10004;MN;9;Battery Park City-Lower Manhattan
443;B;37152196;PLAY GROUND NYC IN;08/20/2018 00:00:00;08/20/2018 00:00:00;APPROVAL;10 SOUTH ST;1000003;10;SOUTH ST;101;1;1000020002;40.701047;-74.011672;10004;MN;9;Battery Park City-Lower Manhattan
444;B;37173945;NYC BHANGRA;05/06/2017 00:00:00;05/06/2017 00:00:00;APPROVAL;10 SOUTH ST;1000003;10;SOUTH ST;101;1;1000020002;40.701047;-74.011672;10004;MN;9;Battery Park City-Lower Manhattan
445;B;37186277;ARENELLA PRODUCTION LLC;06/10/2017 00:00:00;06/10/2017 00:00:00;APPROVAL;10 SOUTH ST;1000003;10;SOUTH ST;101;1;1000020002;40.701047;-74.011672;10004;MN;9;Battery Park City-Lower Manhattan
446;B;37193950;GOVERNORS ISLAND FERRY;05/31/2017 00:00:00;05/31/2017 00:00:00;APPROVAL;10 SOUTH ST;1000003;10;SOUTH ST;101;1;1000020002;40.701047;-74.011672;10004;MN;9;Battery Park City-Lower Manhattan
447;B;37198298;EPDJR NYC LLC;06/17/2017 00:00:00;06/17/2017 00:00:00;APPROVAL;10 SOUTH ST;1000003;10;SOUTH ST;101;1;1000020002;40.701047;-74.011672;10004;MN;9;Battery Park City-Lower Manhattan
448;B;37206992;ISLAND OYSTER LLC;07/01/2017 00:00:00;07/01/2017 00:00:00;APPROVAL;10 SOUTH ST;1000003;10;SOUTH ST;101;1;1000020002;40.701047;-74.011672;10004;MN;9;Battery Park City-Lower Manhattan
449;B;37214152;FULL MOON FEST LLC;07/08/2017 00:00:00;07/08/2017 00:00:00;APPROVAL;10 SOUTH ST;1000003;10;SOUTH ST;101;1;1000020002;40.701047;-74.011672;10004;MN;9;Battery Park City-Lower Manhattan
450;B;37236239;CALCTE COOPER MEDIA INT;07/22/2017 00:00:00;07/22/2017 00:00:00;APPROVAL;10 SOUTH ST;1000003;10;SOUTH ST;101;1;1000020002;40.701047;-74.011672;10004;MN;9;Battery Park City-Lower Manhattan
451;B;37242153;ISLAND OYSTERS LLC;08/01/2017 00:00:00;08/01/2017 00:00:00;APPROVAL;10 SOUTH ST;1000003;10;SOUTH ST;101;1;1000020002;40.701047;-74.011672;10004;MN;9;Battery Park City-Lower Manhattan
452;B;37267127;ARENELLA PRODUCTION LLC;08/26/2017 00:00:00;08/26/2017 00:00:00;APPROVAL;10 SOUTH ST;1000003;10;SOUTH ST;101;1;1000020002;40.701047;-74.011672;10004;MN;9;Battery Park City-Lower Manhattan
453;B;37286564;HAND MADE EVENTS LLC;09/09/2017 00:00:00;09/09/2017 00:00:00;APPROVAL;10 SOUTH ST;1000003;10;SOUTH ST;101;1;1000020002;40.701047;-74.011672;10004;MN;9;Battery Park City-Lower Manhattan
454;B;37290848;GOVERNOR'S ISLAND BEER;08/29/2017 00:00:00;08/29/2017 00:00:00;APPROVAL;10 SOUTH ST;1000003;10;SOUTH ST;101;1;1000020002;40.701047;-74.011672;10004;MN;9;Battery Park City-Lower Manhattan
455;B;37291044;GOVERNOR'S ISLAND BEER;08/24/2017 00:00:00;08/24/2017 00:00:00;APPROVAL;10 SOUTH ST;1000003;10;SOUTH ST;101;1;1000020002;40.701047;-74.011672;10004;MN;9;Battery Park City-Lower Manhattan
456;B;37313806;PRODJECT LLC;10/11/2017 00:00:00;10/11/2017 00:00:00;APPROVAL;10 SOUTH ST;1000003;10;SOUTH ST;101;1;1000020002;40.701047;-74.011672;10004;MN;9;Battery Park City-Lower Manhattan
457;B;38188843;TRUST FOR GOVERNORS;05/12/2018 00:00:00;05/12/2018 00:00:00;APPROVAL;10 SOUTH ST;1000003;10;SOUTH ST;101;1;1000020002;40.701047;-74.011672;10004;MN;9;Battery Park City-Lower Manhattan
458;B;38189221;SUMMER OPS;05/12/2018 00:00:00;05/12/2018 00:00:00;APPROVAL;10 SOUTH ST;1000003;10;SOUTH ST;101;1;1000020002;40.701047;-74.011672;10004;MN;9;Battery Park City-Lower Manhattan
459;B;38199733;GOVERNORS ISLAND WAITING;05/31/2018 00:00:00;05/31/2018 00:00:00;APPROVAL;10 SOUTH ST;1000003;10;SOUTH ST;101;1;1000020002;40.701047;-74.011672;10004;MN;9;Battery Park City-Lower Manhattan
460;B;38292140;BLACKSTONE USA;08/04/2018 00:00:00;08/04/2018 00:00:00;APPROVAL;10 SOUTH ST;1000003;10;SOUTH ST;101;1;1000020002;40.701047;-74.011672;10004;MN;9;Battery Park City-Lower Manhattan
461;S;38297834;REGAL RECONSTRUCTION;09/04/2018 00:00:00;09/04/2018 00:00:00;APPROVAL;10 SOUTH ST;1000003;10;SOUTH ST;101;1;1000020002;40.701047;-74.011672;10004;MN;9;Battery Park City-Lower Manhattan
462;B;38300455;GOVERNOR ISLAND TRUST;09/01/2018 00:00:00;09/01/2018 00:00:00;APPROVAL;10 SOUTH ST;1000003;10;SOUTH ST;101;1;1000020002;40.701047;-74.011672;10004;MN;9;Battery Park City-Lower Manhattan
463;B;38312229;JAZZ AGE LAWN PARTY LLC;08/25/2018 00:00:00;08/25/2018 00:00:00;APPROVAL;10 SOUTH ST;1000003;10;SOUTH ST;101;1;1000020002;40.701047;-74.011672;10004;MN;9;Battery Park City-Lower Manhattan
464;R;38352076;MJM ASSOC CONSTRUCTION;10/24/2018 00:00:00;10/24/2018 00:00:00;APPROVAL;10 SOUTH ST;1000003;10;SOUTH ST;101;1;1000020002;40.701047;-74.011672;10004;MN;9;Battery Park City-Lower Manhattan
465;B;38372058;THE HOWARD HUGHES CORP;11/01/2018 00:00:00;11/01/2018 00:00:00;APPROVAL;10 SOUTH ST;1000003;10;SOUTH ST;101;1;1000020002;40.701047;-74.011672;10004;MN;9;Battery Park City-Lower Manhattan
466;B;38375531;OCTOBER ENTERTAINMENT;10/26/2018 00:00:00;10/26/2018 00:00:00;APPROVAL;10 SOUTH ST;1000003;10;SOUTH ST;101;1;1000020002;40.701047;-74.011672;10004;MN;9;Battery Park City-Lower Manhattan
467;S;38385704;B&B IRON WORKS CORP;11/27/2018 00:00:00;11/27/2018 00:00:00;APPROVAL;10 SOUTH ST;1000003;10;SOUTH ST;101;1;1000020002;40.701047;-74.011672;10004;MN;9;Battery Park City-Lower Manhattan
470;B;20046694;SHRIEVER & JACOBSON LLP;09/07/2018 00:00:00;09/07/2018 00:00:00;APPROVAL;1 NEW YORK PLZ;1000005;1;NEW YORK PLZ;101;1;1000047501;40.702091;-74.012045;10004;MN;9;Battery Park City-Lower Manhattan
481;P;24114506;HINES AAF MORGAN STANLEY;11/07/2018 00:00:00;11/07/2018 00:00:00;APPROVAL;1 NEW YORK PLZ;1000005;1;NEW YORK PLZ;101;1;1000047501;40.702091;-74.012045;10004;MN;9;Battery Park City-Lower Manhattan
484;P;24186637;MORGAN STANLEY;11/30/2018 00:00:00;11/30/2018 00:00:00;APPROVAL;1 NEW YORK PLZ;1000005;1;NEW YORK PLZ;101;1;1000047501;40.702091;-74.012045;10004;MN;9;Battery Park City-Lower Manhattan
510;G;27031699;THOMSON REUTERS(34FL);05/13/2014 00:00:00;11/07/2013 00:00:00;APPROVAL;1 NEW YORK PLZ;1000005;1;NEW YORK PLZ;101;1;1000047501;40.702091;-74.012045;10004;MN;9;Battery Park City-Lower Manhattan
516;AA;27057637;BROOKFIELD PROPERTIES;11/16/2016 00:00:00;11/16/2016 00:00:00;NOT APPROVAL(W/REASON);1 NEW YORK PLZ;1000005;1;NEW YORK PLZ;101;1;1000047501;40.702091;-74.012045;10004;MN;9;Battery Park City-Lower Manhattan
518;N;27170752;TRIZEC HAHN 1 NY PLZ LLC;05/20/2015 00:00:00;05/20/2015 00:00:00;NOT APPROVAL(VIO);1 NEW YORK PLZ;1000005;1;NEW YORK PLZ;101;1;1000047501;40.702091;-74.012045;10004;MN;9;Battery Park City-Lower Manhattan
528;R;28048296;BROOKFIELD PROPERTIES;08/11/2017 00:00:00;08/11/2017 00:00:00;APPROVAL;1 NEW YORK PLZ;1000005;1;NEW YORK PLZ;101;1;1000047501;40.702091;-74.012045;10004;MN;9;Battery Park City-Lower Manhattan
530;T;28051837;BROOKFIELD PROPERTIES;07/28/2017 00:00:00;07/28/2017 00:00:00;APPROVAL;1 NEW YORK PLZ;1000005;1;NEW YORK PLZ;101;1;1000047501;40.702091;-74.012045;10004;MN;9;Battery Park City-Lower Manhattan
531;N;28062982;ONE NY PLAZA CO LLC;04/05/2017 00:00:00;04/05/2017 00:00:00;APPROVAL;1 NEW YORK PLZ;1000005;1;NEW YORK PLZ;101;1;1000047501;40.702091;-74.012045;10004;MN;9;Battery Park City-Lower Manhattan
537;N;28094837;BROOKFIELD PROPERTIES;06/02/2016 00:00:00;06/02/2016 00:00:00;APPROVAL;1 NEW YORK PLZ;1000005;1;NEW YORK PLZ;101;1;1000047501;40.702091;-74.012045;10004;MN;9;Battery Park City-Lower Manhattan
541;S;28130110;MORGAN STANLEY;11/30/2018 00:00:00;11/30/2018 00:00:00;APPROVAL;1 NEW YORK PLZ;1000005;1;NEW YORK PLZ;101;1;1000047501;40.702091;-74.012045;10004;MN;9;Battery Park City-Lower Manhattan
542;B;28194181;MORGAN STANLEY /  HINES;08/27/2018 00:00:00;08/27/2018 00:00:00;APPROVAL;13 SOUTH ST;1000005;13;SOUTH ST;101;1;1000047501;40.702091;-74.012045;10004;MN;9;Battery Park City-Lower Manhattan
543;P;28225993;1 NEW YORK PLAZA;11/07/2018 00:00:00;11/07/2018 00:00:00;APPROVAL;1 NEW YORK PLZ;1000005;1;NEW YORK PLZ;101;1;1000047501;40.702091;-74.012045;10004;MN;9;Battery Park City-Lower Manhattan
544;DV;29003399;ONE NEW YORK PLZ LL;05/19/2018 00:00:00;05/19/2018 00:00:00;APPROVAL;1 NEW YORK PLZ;1000005;1;NEW YORK PLZ;101;1;1000047501;40.702091;-74.012045;10004;MN;9;Battery Park City-Lower Manhattan
546;E;29044989;BROOKFIELD PROPERTIES;12/16/2017 00:00:00;12/16/2017 00:00:00;APPROVAL;1 NEW YORK PLZ;1000005;1;NEW YORK PLZ;101;1;1000047501;40.702091;-74.012045;10004;MN;9;Battery Park City-Lower Manhattan
550;A;29147683;MORGAN STANLEY(3FL);08/26/2016 00:00:00;08/26/2016 00:00:00;APPROVAL;1 NEW YORK PLZ;1000005;1;NEW YORK PLZ;101;1;1000047501;40.702091;-74.012045;10004;MN;9;Battery Park City-Lower Manhattan
583;N;31188451;BROOKFIELD PROPERTIES;11/24/2015 00:00:00;11/24/2015 00:00:00;APPROVAL;1 NEW YORK PLZ;1000005;1;NEW YORK PLZ;101;1;1000047501;40.702091;-74.012045;10004;MN;9;Battery Park City-Lower Manhattan
592;R;32156408;HINES/MORGAN STANLEY;08/11/2017 00:00:00;08/11/2017 00:00:00;APPROVAL;1 NEW YORK PLZ;1000005;1;NEW YORK PLZ;101;1;1000047501;40.702091;-74.012045;10004;MN;9;Battery Park City-Lower Manhattan
593;P;32161770;FRIED FRANK;09/07/2018 00:00:00;09/07/2018 00:00:00;APPROVAL;1 NEW YORK PLZ;1000005;1;NEW YORK PLZ;101;1;1000047501;40.702091;-74.012045;10004;MN;9;Battery Park City-Lower Manhattan
598;B;32245276;JANE STREET CAPITAL;04/09/2018 00:00:00;04/09/2018 00:00:00;NOT APPROVAL(W/REASON);1 NEW YORK PLZ;1000005;1;NEW YORK PLZ;101;1;1000047501;40.702091;-74.012045;10004;MN;9;Battery Park City-Lower Manhattan
601;N;32289407;BROOKFIELD PROPERTIES;01/24/2017 00:00:00;01/24/2017 00:00:00;NOT APPROVAL(VIO);1 NEW YORK PLZ;1000005;1;NEW YORK PLZ;101;1;1000047501;40.702091;-74.012045;10004;MN;9;Battery Park City-Lower Manhattan
602;T;32292740;BROOKFIELD PROPERTIES;11/15/2016 00:00:00;11/15/2016 00:00:00;APPROVAL;1 NEW YORK PLZ;1000005;1;NEW YORK PLZ;101;1;1000047501;40.702091;-74.012045;10004;MN;9;Battery Park City-Lower Manhattan
606;T;33052895;BROOKFIELD PROPERTIES;09/09/2015 00:00:00;09/09/2015 00:00:00;APPROVAL;1 NEW YORK PLZ;1000005;1;NEW YORK PLZ;101;1;1000047501;40.702091;-74.012045;10004;MN;9;Battery Park City-Lower Manhattan
625;N;33298571;SR PROP MANAGER;06/20/2014 00:00:00;06/20/2014 00:00:00;APPROVAL;1 NEW YORK PLZ;1000005;1;NEW YORK PLZ;101;1;1000047501;40.702091;-74.012045;10004;MN;9;Battery Park City-Lower Manhattan
630;AA;34001578;BROOKFIELD;01/06/2014 00:00:00;01/06/2014 00:00:00;NOT APPROVAL(W/REASON);1 NEW YORK PLZ;1000005;1;NEW YORK PLZ;101;1;1000047501;40.702091;-74.012045;10004;MN;9;Battery Park City-Lower Manhattan
631;N;34008722;BROOKFIELD PROPERTIES;03/10/2014 00:00:00;03/10/2014 00:00:00;APPROVAL;1 NEW YORK PLZ;1000005;1;NEW YORK PLZ;101;1;1000047501;40.702091;-74.012045;10004;MN;9;Battery Park City-Lower Manhattan
632;AA;34029942;1 NEW YORK PLAZA;02/06/2014 00:00:00;02/06/2014 00:00:00;NOT APPROVAL(W/REASON);1 NEW YORK PLZ;1000005;1;NEW YORK PLZ;101;1;1000047501;40.702091;-74.012045;10004;MN;9;Battery Park City-Lower Manhattan
633;AA;34029959;BROOKFIELD;02/06/2014 00:00:00;02/06/2014 00:00:00;NOT APPROVAL(W/REASON);1 NEW YORK PLZ;1000005;1;NEW YORK PLZ;101;1;1000047501;40.702091;-74.012045;10004;MN;9;Battery Park City-Lower Manhattan
634;N;34039917;BROOKFIELD PROPERTIES;08/04/2014 00:00:00;08/04/2014 00:00:00;APPROVAL;1 NEW YORK PLZ;1000005;1;NEW YORK PLZ;101;1;1000047501;40.702091;-74.012045;10004;MN;9;Battery Park City-Lower Manhattan
635;S;34066142;TRI STATE DISMANTLING CO;03/17/2014 00:00:00;03/17/2014 00:00:00;APPROVAL;1 NEW YORK PLZ;1000005;1;NEW YORK PLZ;101;1;1000047501;40.702091;-74.012045;10004;MN;9;Battery Park City-Lower Manhattan
636;N;34067892;BROOKFIELD PROPERTIES;03/22/2014 00:00:00;03/22/2014 00:00:00;APPROVAL;1 NEW YORK PLZ;1000005;1;NEW YORK PLZ;101;1;1000047501;40.702091;-74.012045;10004;MN;9;Battery Park City-Lower Manhattan
637;N;34067900;BROOKFIELD PROPERTIES;03/22/2014 00:00:00;03/22/2014 00:00:00;APPROVAL;1 NEW YORK PLZ;1000005;1;NEW YORK PLZ;101;1;1000047501;40.702091;-74.012045;10004;MN;9;Battery Park City-Lower Manhattan
638;AA;34085506;BROOKFIELD;04/09/2014 00:00:00;04/09/2014 00:00:00;NOT APPROVAL(W/REASON);1 NEW YORK PLZ;1000005;1;NEW YORK PLZ;101;1;1000047501;40.702091;-74.012045;10004;MN;9;Battery Park City-Lower Manhattan
639;AA;34098467;ROBERT DERECTOR ASSOC;04/22/2014 00:00:00;04/22/2014 00:00:00;NOT APPROVAL(W/REASON);1 NEW YORK PLZ;1000005;1;NEW YORK PLZ;101;1;1000047501;40.702091;-74.012045;10004;MN;9;Battery Park City-Lower Manhattan
640;A;34106435;ALL STATE INTERIOR DEMO;04/24/2014 00:00:00;04/24/2014 00:00:00;APPROVAL;1 NEW YORK PLZ;1000005;1;NEW YORK PLZ;101;1;1000047501;40.702091;-74.012045;10004;MN;9;Battery Park City-Lower Manhattan
641;AA;34115147;BROOKFIELD;05/09/2014 00:00:00;05/09/2014 00:00:00;NOT APPROVAL(W/REASON);1 NEW YORK PLZ;1000005;1;NEW YORK PLZ;101;1;1000047501;40.702091;-74.012045;10004;MN;9;Battery Park City-Lower Manhattan
642;N;34116566;BROOKFIELD PROPERTIES;03/02/2016 00:00:00;03/02/2016 00:00:00;APPROVAL;1 NEW YORK PLZ;1000005;1;NEW YORK PLZ;101;1;1000047501;40.702091;-74.012045;10004;MN;9;Battery Park City-Lower Manhattan
643;AA;34116681;BROOKFIELD;05/12/2014 00:00:00;05/12/2014 00:00:00;NOT APPROVAL(W/REASON);1 NEW YORK PLZ;1000005;1;NEW YORK PLZ;101;1;1000047501;40.702091;-74.012045;10004;MN;9;Battery Park City-Lower Manhattan
644;AA;34129155;BROOKFIELD;05/23/2014 00:00:00;05/23/2014 00:00:00;NOT APPROVAL(W/REASON);1 NEW YORK PLZ;1000005;1;NEW YORK PLZ;101;1;1000047501;40.702091;-74.012045;10004;MN;9;Battery Park City-Lower Manhattan
645;N;34140020;BROOKFIELD PROPERTIES;07/26/2014 00:00:00;07/26/2014 00:00:00;APPROVAL;1 NEW YORK PLZ;1000005;1;NEW YORK PLZ;101;1;1000047501;40.702091;-74.012045;10004;MN;9;Battery Park City-Lower Manhattan
646;N;34146316;BROOKFIELD PROPERTIES;08/04/2014 00:00:00;08/04/2014 00:00:00;APPROVAL;1 NEW YORK PLZ;1000005;1;NEW YORK PLZ;101;1;1000047501;40.702091;-74.012045;10004;MN;9;Battery Park City-Lower Manhattan
647;G;34149229;MORGAN STANLEY(3FL);02/19/2015 00:00:00;06/03/2014 00:00:00;APPROVAL;1 NEW YORK PLZ;1000005;1;NEW YORK PLZ;101;1;1000047501;40.702091;-74.012045;10004;MN;9;Battery Park City-Lower Manhattan
648;T;34150813;BROOKFIELD PROPERTIES;09/09/2015 00:00:00;09/09/2015 00:00:00;APPROVAL;1 NEW YORK PLZ;1000005;1;NEW YORK PLZ;101;1;1000047501;40.702091;-74.012045;10004;MN;9;Battery Park City-Lower Manhattan
649;N;34151407;BROOKFIELD PROPERTIES;06/30/2014 00:00:00;06/30/2014 00:00:00;APPROVAL;1 NEW YORK PLZ;1000005;1;NEW YORK PLZ;101;1;1000047501;40.702091;-74.012045;10004;MN;9;Battery Park City-Lower Manhattan
650;N;34171447;BROOKFIELD PROPERTIES;11/18/2015 00:00:00;11/18/2015 00:00:00;APPROVAL;1 NEW YORK PLZ;1000005;1;NEW YORK PLZ;101;1;1000047501;40.702091;-74.012045;10004;MN;9;Battery Park City-Lower Manhattan
651;AA;34182204;BROOKFIELD;07/17/2014 00:00:00;07/17/2014 00:00:00;NOT APPROVAL(W/REASON);1 NEW YORK PLZ;1000005;1;NEW YORK PLZ;101;1;1000047501;40.702091;-74.012045;10004;MN;9;Battery Park City-Lower Manhattan
652;N;34187575;BROOKFIELD PROPERTIES;09/17/2014 00:00:00;09/17/2014 00:00:00;APPROVAL;1 NEW YORK PLZ;1000005;1;NEW YORK PLZ;101;1;1000047501;40.702091;-74.012045;10004;MN;9;Battery Park City-Lower Manhattan
653;AA;34189753;MORGAN STANLEY;07/25/2014 00:00:00;07/25/2014 00:00:00;NOT APPROVAL(W/REASON);1 NEW YORK PLZ;1000005;1;NEW YORK PLZ;101;1;1000047501;40.702091;-74.012045;10004;MN;9;Battery Park City-Lower Manhattan
654;AA;34201822;BROOKFIELD PROPERTIES;08/07/2014 00:00:00;08/07/2014 00:00:00;NOT APPROVAL(W/REASON);1 NEW YORK PLZ;1000005;1;NEW YORK PLZ;101;1;1000047501;40.702091;-74.012045;10004;MN;9;Battery Park City-Lower Manhattan
655;N;34242537;BROOKFIELD PROPERTIES;01/10/2015 00:00:00;01/10/2015 00:00:00;APPROVAL;1 NEW YORK PLZ;1000005;1;NEW YORK PLZ;101;1;1000047501;40.702091;-74.012045;10004;MN;9;Battery Park City-Lower Manhattan
656;T;34250514;BROOKFIELD PROPERTIES;09/09/2015 00:00:00;09/09/2015 00:00:00;APPROVAL;1 NEW YORK PLZ;1000005;1;NEW YORK PLZ;101;1;1000047501;40.702091;-74.012045;10004;MN;9;Battery Park City-Lower Manhattan
657;T;34250522;BROOKFIELD PROPERTIES;09/09/2015 00:00:00;09/09/2015 00:00:00;APPROVAL;1 NEW YORK PLZ;1000005;1;NEW YORK PLZ;101;1;1000047501;40.702091;-74.012045;10004;MN;9;Battery Park City-Lower Manhattan
658;AA;34253500;BROOKFIELD PROPERTIES;12/11/2014 00:00:00;12/11/2014 00:00:00;NOT APPROVAL(W/REASON);1 NEW YORK PLZ;1000005;1;NEW YORK PLZ;101;1;1000047501;40.702091;-74.012045;10004;MN;9;Battery Park City-Lower Manhattan
659;AA;34259325;ONE NY PLAZA CO LLC;10/06/2014 00:00:00;10/06/2014 00:00:00;NOT APPROVAL(W/REASON);1 WATER ST;1000005;1;WATER ST;101;1;1000047501;40.702091;-74.012045;10004;MN;9;Battery Park City-Lower Manhattan
660;N;34276493;BROOKFIELD PROPERTIES;11/20/2014 00:00:00;11/20/2014 00:00:00;APPROVAL;1 NEW YORK PLZ;1000005;1;NEW YORK PLZ;101;1;1000047501;40.702091;-74.012045;10004;MN;9;Battery Park City-Lower Manhattan
661;AA;34285775;CHIPOTLE;11/03/2014 00:00:00;11/03/2014 00:00:00;NOT APPROVAL(W/REASON);1 NEW YORK PLZ;1000005;1;NEW YORK PLZ;101;1;1000047501;40.702091;-74.012045;10004;MN;9;Battery Park City-Lower Manhattan
662;T;34286112;BROOKFIELD PROPERTIES;10/25/2014 00:00:00;10/25/2014 00:00:00;APPROVAL;1 NEW YORK PLZ;1000005;1;NEW YORK PLZ;101;1;1000047501;40.702091;-74.012045;10004;MN;9;Battery Park City-Lower Manhattan
663;N;34289678;BROOKFIELD PROPERTIES;12/13/2014 00:00:00;12/13/2014 00:00:00;APPROVAL;1 NEW YORK PLZ;1000005;1;NEW YORK PLZ;101;1;1000047501;40.702091;-74.012045;10004;MN;9;Battery Park City-Lower Manhattan
664;AA;34296327;BROOKFIELD PROPERTIES;11/17/2014 00:00:00;11/17/2014 00:00:00;NOT APPROVAL(W/REASON);1 NEW YORK PLZ;1000005;1;NEW YORK PLZ;101;1;1000047501;40.702091;-74.012045;10004;MN;9;Battery Park City-Lower Manhattan
665;N;34298851;BROOKFIELD PROPERTIES;01/30/2015 00:00:00;01/30/2015 00:00:00;APPROVAL;1 NEW YORK PLZ;1000005;1;NEW YORK PLZ;101;1;1000047501;40.702091;-74.012045;10004;MN;9;Battery Park City-Lower Manhattan
666;N;34301440;BROOKFIELD PROPERTIES;12/13/2014 00:00:00;12/13/2014 00:00:00;APPROVAL;1 NEW YORK PLZ;1000005;1;NEW YORK PLZ;101;1;1000047501;40.702091;-74.012045;10004;MN;9;Battery Park City-Lower Manhattan
667;N;34309955;BROOKFIELD PROPERTIES;07/11/2015 00:00:00;07/11/2015 00:00:00;APPROVAL;1 NEW YORK PLZ;1000005;1;NEW YORK PLZ;101;1;1000047501;40.702091;-74.012045;10004;MN;9;Battery Park City-Lower Manhattan
668;AA;34334524;BROOKFIELD OFFICE PROD;12/30/2014 00:00:00;12/30/2014 00:00:00;NOT APPROVAL(W/REASON);1 NEW YORK PLZ;1000005;1;NEW YORK PLZ;101;1;1000047501;40.702091;-74.012045;10004;MN;9;Battery Park City-Lower Manhattan
669;G;34335323;MORGAN STANLEY(SYS#1);10/04/2014 00:00:00;10/04/2014 00:00:00;APPROVAL;1 NEW YORK PLZ;1000005;1;NEW YORK PLZ;101;1;1000047501;40.702091;-74.012045;10004;MN;9;Battery Park City-Lower Manhattan
670;G;34335331;MORGAN STANLEY (SYS#2);10/04/2014 00:00:00;10/04/2014 00:00:00;APPROVAL;1 NEW YORK PLZ;1000005;1;NEW YORK PLZ;101;1;1000047501;40.702091;-74.012045;10004;MN;9;Battery Park City-Lower Manhattan
671;G;34335349;MORGAN STANLEY (SYS#3);10/04/2014 00:00:00;10/04/2014 00:00:00;APPROVAL;1 NEW YORK PLZ;1000005;1;NEW YORK PLZ;101;1;1000047501;40.702091;-74.012045;10004;MN;9;Battery Park City-Lower Manhattan
672;AA;35000934;BROOKFIELD;01/06/2015 00:00:00;01/06/2015 00:00:00;NOT APPROVAL(W/REASON);1 NEW YORK PLZ;1000005;1;NEW YORK PLZ;101;1;1000047501;40.702091;-74.012045;10004;MN;9;Battery Park City-Lower Manhattan
673;AA;35019496;BROOKFIELD;01/23/2015 00:00:00;01/23/2015 00:00:00;NOT APPROVAL(W/REASON);1 NEW YORK PLZ;1000005;1;NEW YORK PLZ;101;1;1000047501;40.702091;-74.012045;10004;MN;9;Battery Park City-Lower Manhattan
674;AA;35019520;BROOKFIELD;01/23/2015 00:00:00;01/23/2015 00:00:00;NOT APPROVAL(W/REASON);1 NEW YORK PLZ;1000005;1;NEW YORK PLZ;101;1;1000047501;40.702091;-74.012045;10004;MN;9;Battery Park City-Lower Manhattan
675;AA;35019678;BROOKFIELD;01/23/2015 00:00:00;01/23/2015 00:00:00;NOT APPROVAL(W/REASON);1 NEW YORK PLZ;1000005;1;NEW YORK PLZ;101;1;1000047501;40.702091;-74.012045;10004;MN;9;Battery Park City-Lower Manhattan
676;AA;35024058;BROOKFIELD;02/02/2015 00:00:00;02/02/2015 00:00:00;NOT APPROVAL(W/REASON);1 NEW YORK PLZ;1000005;1;NEW YORK PLZ;101;1;1000047501;40.702091;-74.012045;10004;MN;9;Battery Park City-Lower Manhattan
677;G;35033356;CHIPOTLE #2291;12/10/2014 00:00:00;12/10/2014 00:00:00;APPROVAL;1 NEW YORK PLZ;1000005;1;NEW YORK PLZ;101;1;1000047501;40.702091;-74.012045;10004;MN;9;Battery Park City-Lower Manhattan
678;N;35038777;BROOKFIELD OFFICE PROP;03/07/2015 00:00:00;03/07/2015 00:00:00;APPROVAL;1 NEW YORK PLZ;1000005;1;NEW YORK PLZ;101;1;1000047501;40.702091;-74.012045;10004;MN;9;Battery Park City-Lower Manhattan
679;N;35042027;BROOKFIELD PROPERTIES;11/17/2017 00:00:00;11/17/2017 00:00:00;NOT APPROVAL(VIO);1 NEW YORK PLZ;1000005;1;NEW YORK PLZ;101;1;1000047501;40.702091;-74.012045;10004;MN;9;Battery Park City-Lower Manhattan
680;AA;35045970;BROOKFIELD PROERTIES;02/24/2015 00:00:00;02/24/2015 00:00:00;NOT APPROVAL(W/REASON);1 NEW YORK PLZ;1000005;1;NEW YORK PLZ;101;1;1000047501;40.702091;-74.012045;10004;MN;9;Battery Park City-Lower Manhattan
681;AA;35060508;BROOKFIELD;03/10/2015 00:00:00;03/10/2015 00:00:00;NOT APPROVAL(W/REASON);1 NEW YORK PLZ;1000005;1;NEW YORK PLZ;101;1;1000047501;40.702091;-74.012045;10004;MN;9;Battery Park City-Lower Manhattan
682;R;35085463;JUDLAU CONTRACTING INC.;03/31/2015 00:00:00;03/31/2015 00:00:00;APPROVAL;1 NEW YORK PLZ;1000005;1;NEW YORK PLZ;101;1;1000047501;40.702091;-74.012045;10004;MN;9;Battery Park City-Lower Manhattan
683;AA;35094572;BROOKFIELD OFFICE PROPER;04/10/2015 00:00:00;04/10/2015 00:00:00;NOT APPROVAL(W/REASON);1 NEW YORK PLZ;1000005;1;NEW YORK PLZ;101;1;1000047501;40.702091;-74.012045;10004;MN;9;Battery Park City-Lower Manhattan
684;AA;35098284;BROOKFIELD;04/14/2015 00:00:00;04/14/2015 00:00:00;NOT APPROVAL(W/REASON);1 NEW YORK PLZ;1000005;1;NEW YORK PLZ;101;1;1000047501;40.702091;-74.012045;10004;MN;9;Battery Park City-Lower Manhattan
685;AA;35102565;ONE NY PLAZA LLC;04/20/2015 00:00:00;04/20/2015 00:00:00;NOT APPROVAL(W/REASON);1 NEW YORK PLZ;1000005;1;NEW YORK PLZ;101;1;1000047501;40.702091;-74.012045;10004;MN;9;Battery Park City-Lower Manhattan
686;AA;35119312;ONE NEW YORK PLZ CO LLC;06/22/2015 00:00:00;06/22/2015 00:00:00;NOT APPROVAL(W/REASON);1 NEW YORK PLZ;1000005;1;NEW YORK PLZ;101;1;1000047501;40.702091;-74.012045;10004;MN;9;Battery Park City-Lower Manhattan
687;AA;35120898;BROOKFIELD;05/06/2015 00:00:00;05/06/2015 00:00:00;NOT APPROVAL(W/REASON);1 NEW YORK PLZ;1000005;1;NEW YORK PLZ;101;1;1000047501;40.702091;-74.012045;10004;MN;9;Battery Park City-Lower Manhattan
688;AA;35127190;RESTAURANT;05/12/2015 00:00:00;05/12/2015 00:00:00;NOT APPROVAL(W/REASON);1 NEW YORK PLZ;1000005;1;NEW YORK PLZ;101;1;1000047501;40.702091;-74.012045;10004;MN;9;Battery Park City-Lower Manhattan
689;AA;35127232;SCHNIPPERS CONCOURSE LVL;05/12/2015 00:00:00;05/12/2015 00:00:00;NOT APPROVAL(W/REASON);1 NEW YORK PLZ;1000005;1;NEW YORK PLZ;101;1;1000047501;40.702091;-74.012045;10004;MN;9;Battery Park City-Lower Manhattan
690;AA;35130699;ONE NY PLAZA CO LLC;05/18/2015 00:00:00;05/18/2015 00:00:00;NOT APPROVAL(W/REASON);1 NEW YORK PLZ;1000005;1;NEW YORK PLZ;101;1;1000047501;40.702091;-74.012045;10004;MN;9;Battery Park City-Lower Manhattan
691;AA;35130806;ONE NY PLAZA CO LLC;05/18/2015 00:00:00;05/18/2015 00:00:00;NOT APPROVAL(W/REASON);1 NEW YORK PLZ;1000005;1;NEW YORK PLZ;101;1;1000047501;40.702091;-74.012045;10004;MN;9;Battery Park City-Lower Manhattan
692;T;35138205;BROOKFIELD PROPERTIES;11/24/2015 00:00:00;11/24/2015 00:00:00;NOT APPROVAL(VIO);1 NEW YORK PLZ;1000005;1;NEW YORK PLZ;101;1;1000047501;40.702091;-74.012045;10004;MN;9;Battery Park City-Lower Manhattan
693;G;35149400;SCHNIPPERS;05/27/2015 00:00:00;05/27/2015 00:00:00;APPROVAL;1 NEW YORK PLZ;1000005;1;NEW YORK PLZ;101;1;1000047501;40.702091;-74.012045;10004;MN;9;Battery Park City-Lower Manhattan
694;G;35149418;BROOKFIELD-(PCP);05/27/2015 00:00:00;05/27/2015 00:00:00;APPROVAL;1 NEW YORK PLZ;1000005;1;NEW YORK PLZ;101;1;1000047501;40.702091;-74.012045;10004;MN;9;Battery Park City-Lower Manhattan
695;G;35149426;BROOKFIELD-(DUCT SYS);05/27/2015 00:00:00;05/27/2015 00:00:00;APPROVAL;1 NEW YORK PLZ;1000005;1;NEW YORK PLZ;101;1;1000047501;40.702091;-74.012045;10004;MN;9;Battery Park City-Lower Manhattan
696;AA;35169796;ONE NY PLAZA CON LLC;06/25/2015 00:00:00;06/25/2015 00:00:00;NOT APPROVAL(W/REASON);1 NEW YORK PLZ;1000005;1;NEW YORK PLZ;101;1;1000047501;40.702091;-74.012045;10004;MN;9;Battery Park City-Lower Manhattan
697;AA;35169812;ONE NY PLAZA CO LLC;06/25/2015 00:00:00;06/25/2015 00:00:00;NOT APPROVAL(W/REASON);1 NEW YORK PLZ;1000005;1;NEW YORK PLZ;101;1;1000047501;40.702091;-74.012045;10004;MN;9;Battery Park City-Lower Manhattan
698;T;35188283;BROOKFIELD PROPERTIES;07/11/2015 00:00:00;07/11/2015 00:00:00;NOT APPROVAL(VIO);1 NEW YORK PLZ;1000005;1;NEW YORK PLZ;101;1;1000047501;40.702091;-74.012045;10004;MN;9;Battery Park City-Lower Manhattan
699;AA;35189448;ONE NY PLAZA CO LLC;07/21/2015 00:00:00;07/21/2015 00:00:00;NOT APPROVAL(W/REASON);1 WATER ST;1000005;1;WATER ST;101;1;1000047501;40.702091;-74.012045;10004;MN;9;Battery Park City-Lower Manhattan
700;AA;35190248;BROOKFIELD;07/22/2015 00:00:00;07/22/2015 00:00:00;NOT APPROVAL(W/REASON);1 NEW YORK PLZ;1000005;1;NEW YORK PLZ;101;1;1000047501;40.702091;-74.012045;10004;MN;9;Battery Park City-Lower Manhattan
701;N;35190727;BROOKFIELD PROPERTIES;05/25/2016 00:00:00;05/25/2016 00:00:00;APPROVAL;1 NEW YORK PLZ;1000005;1;NEW YORK PLZ;101;1;1000047501;40.702091;-74.012045;10004;MN;9;Battery Park City-Lower Manhattan
702;N;35191519;BROOKFIELD;07/22/2015 00:00:00;07/22/2015 00:00:00;APPROVAL;1 NEW YORK PLZ;1000005;1;NEW YORK PLZ;101;1;1000047501;40.702091;-74.012045;10004;MN;9;Battery Park City-Lower Manhattan
703;N;35202860;BROOKFIELD PROPERTIES;09/09/2015 00:00:00;09/09/2015 00:00:00;APPROVAL;1 NEW YORK PLZ;1000005;1;NEW YORK PLZ;101;1;1000047501;40.702091;-74.012045;10004;MN;9;Battery Park City-Lower Manhattan
704;AA;35206184;ONE NY PLAZA CO. LLC C/O;08/06/2015 00:00:00;08/06/2015 00:00:00;NOT APPROVAL(W/REASON);1 NY PLZ;1000005;1;NY PLZ;101;1;1000047501;40.702091;-74.012045;10004;MN;9;Battery Park City-Lower Manhattan
705;AA;35232024;BROOKFIELD;08/31/2015 00:00:00;08/31/2015 00:00:00;NOT APPROVAL(W/REASON);1 NEW YORK PLZ;1000005;1;NEW YORK PLZ;101;1;1000047501;40.702091;-74.012045;10004;MN;9;Battery Park City-Lower Manhattan
706;AA;35241330;MORGAN STANLEY;09/11/2015 00:00:00;09/11/2015 00:00:00;NOT APPROVAL(W/REASON);1 NEW YORK PLZ;1000005;1;NEW YORK PLZ;101;1;1000047501;40.702091;-74.012045;10004;MN;9;Battery Park City-Lower Manhattan
707;AA;35258318;BROOKFIELD PROPERTIES;09/22/2015 00:00:00;09/22/2015 00:00:00;NOT APPROVAL(W/REASON);1 NEW YORK PLZ;1000005;1;NEW YORK PLZ;101;1;1000047501;40.702091;-74.012045;10004;MN;9;Battery Park City-Lower Manhattan
708;B;35260413;FULL BEAUTY BRANDS;11/24/2015 00:00:00;11/24/2015 00:00:00;APPROVAL;1 NEW YORK PLZ;1000005;1;NEW YORK PLZ;101;1;1000047501;40.702091;-74.012045;10004;MN;9;Battery Park City-Lower Manhattan
709;N;35273218;BROOKFIELD;01/09/2016 00:00:00;01/09/2016 00:00:00;APPROVAL;1 NEW YORK PLZ;1000005;1;NEW YORK PLZ;101;1;1000047501;40.702091;-74.012045;10004;MN;9;Battery Park City-Lower Manhattan
710;T;35278712;BROOKFIELD PROPERTIES;10/05/2015 00:00:00;10/05/2015 00:00:00;NOT APPROVAL(VIO);1 NEW YORK PLZ;1000005;1;NEW YORK PLZ;101;1;1000047501;40.702091;-74.012045;10004;MN;9;Battery Park City-Lower Manhattan
711;S;35281849;RITE-WAY;10/05/2015 00:00:00;10/05/2015 00:00:00;APPROVAL;1 NEW YORK PLZ;1000005;1;NEW YORK PLZ;101;1;1000047501;40.702091;-74.012045;10004;MN;9;Battery Park City-Lower Manhattan
712;N;35289867;BROOKFIELD PROPERTIES;09/21/2015 00:00:00;09/21/2015 00:00:00;APPROVAL;1 NEW YORK PLZ;1000005;1;NEW YORK PLZ;101;1;1000047501;40.702091;-74.012045;10004;MN;9;Battery Park City-Lower Manhattan
713;AA;35296136;BROOKFIELD PROPERTIES;10/16/2015 00:00:00;10/16/2015 00:00:00;NOT APPROVAL(W/REASON);1 NEW YORK PLZ;1000005;1;NEW YORK PLZ;101;1;1000047501;40.702091;-74.012045;10004;MN;9;Battery Park City-Lower Manhattan
714;AA;35300037;NAYA;10/20/2015 00:00:00;10/20/2015 00:00:00;NOT APPROVAL(W/REASON);1 NEW YORK PLZ;1000005;1;NEW YORK PLZ;101;1;1000047501;40.702091;-74.012045;10004;MN;9;Battery Park City-Lower Manhattan
715;B;35306778;FULL BEAUTY BRANDS;10/21/2015 00:00:00;10/21/2015 00:00:00;APPROVAL;1 NEW YORK PLZ;1000005;1;NEW YORK PLZ;101;1;1000047501;40.702091;-74.012045;10004;MN;9;Battery Park City-Lower Manhattan
716;N;35312636;BROOKFIELD PROPERTIES;11/24/2015 00:00:00;11/24/2015 00:00:00;APPROVAL;1 NEW YORK PLZ;1000005;1;NEW YORK PLZ;101;1;1000047501;40.702091;-74.012045;10004;MN;9;Battery Park City-Lower Manhattan
717;AA;35321546;ONE NY PLAZA CO LLC;11/02/2015 00:00:00;11/02/2015 00:00:00;NOT APPROVAL(W/REASON);1 NEW YORK PLZ;1000005;1;NEW YORK PLZ;101;1;1000047501;40.702091;-74.012045;10004;MN;9;Battery Park City-Lower Manhattan
718;N;35328756;ONE NY PLAZA CO. LLC;01/06/2016 00:00:00;01/06/2016 00:00:00;APPROVAL;1 NEW YORK PLZ;1000005;1;NEW YORK PLZ;101;1;1000047501;40.702091;-74.012045;10004;MN;9;Battery Park City-Lower Manhattan
719;N;35330604;BROOKFIELD;03/25/2016 00:00:00;03/25/2016 00:00:00;APPROVAL;1 NEW YORK PLZ;1000005;1;NEW YORK PLZ;101;1;1000047501;40.702091;-74.012045;10004;MN;9;Battery Park City-Lower Manhattan
720;N;35330737;BROOKFIELD;03/30/2016 00:00:00;03/30/2016 00:00:00;APPROVAL;1 NEW YORK PLZ;1000005;1;NEW YORK PLZ;101;1;1000047501;40.702091;-74.012045;10004;MN;9;Battery Park City-Lower Manhattan
721;N;35370097;ONE NY PLAZA CO LLC;03/30/2016 00:00:00;03/30/2016 00:00:00;APPROVAL;1 NEW YORK PLZ;1000005;1;NEW YORK PLZ;101;1;1000047501;40.702091;-74.012045;10004;MN;9;Battery Park City-Lower Manhattan
722;G;35387851;NAYA EXPRESS;11/14/2015 00:00:00;11/14/2015 00:00:00;APPROVAL;1 NEW YORK PLZ;1000005;1;NEW YORK PLZ;101;1;1000047501;40.702091;-74.012045;10004;MN;9;Battery Park City-Lower Manhattan
723;S;36005361;KOENIG IRON WORKS INC.;01/07/2016 00:00:00;01/07/2016 00:00:00;APPROVAL;1 NEW YORK PLZ;1000005;1;NEW YORK PLZ;101;1;1000047501;40.702091;-74.012045;10004;MN;9;Battery Park City-Lower Manhattan
724;B;36037877;GEAR FITNESS ONE NY;09/07/2018 00:00:00;09/07/2018 00:00:00;APPROVAL;1 NEW YORK PLZ;1000005;1;NEW YORK PLZ;101;1;1000047501;40.702091;-74.012045;10004;MN;9;Battery Park City-Lower Manhattan
725;N;36062578;BROOKFIELD PROPERTIES;06/27/2016 00:00:00;06/27/2016 00:00:00;APPROVAL;1 NEW YORK PLZ;1000005;1;NEW YORK PLZ;101;1;1000047501;40.702091;-74.012045;10004;MN;9;Battery Park City-Lower Manhattan
726;N;36075075;ONE NY PLAZA CO LLC;06/30/2016 00:00:00;06/30/2016 00:00:00;APPROVAL;1 NEW YORK PLZ;1000005;1;NEW YORK PLZ;101;1;1000047501;40.702091;-74.012045;10004;MN;9;Battery Park City-Lower Manhattan
727;N;36088961;BROOKFIELD PLAZA;08/10/2016 00:00:00;08/10/2016 00:00:00;APPROVAL;1 NEW YORK PLZ;1000005;1;NEW YORK PLZ;101;1;1000047501;40.702091;-74.012045;10004;MN;9;Battery Park City-Lower Manhattan
728;N;36089035;BROOKFIELD PROPERTIES;06/21/2016 00:00:00;06/21/2016 00:00:00;APPROVAL;1 NEW YORK PLZ;1000005;1;NEW YORK PLZ;101;1;1000047501;40.702091;-74.012045;10004;MN;9;Battery Park City-Lower Manhattan
729;N;36107613;BROOKFIELD;06/30/2016 00:00:00;06/30/2016 00:00:00;APPROVAL;1 NEW YORK PLZ;1000005;1;NEW YORK PLZ;101;1;1000047501;40.702091;-74.012045;10004;MN;9;Battery Park City-Lower Manhattan
730;AA;36129716;ONE NY PLAZA CO LLC;05/02/2016 00:00:00;05/02/2016 00:00:00;NOT APPROVAL(W/REASON);1 NEW YORK PLZ;1000005;1;NEW YORK PLZ;101;1;1000047501;40.702091;-74.012045;10004;MN;9;Battery Park City-Lower Manhattan
731;AA;36175107;BROOKFIELD;06/03/2016 00:00:00;06/03/2016 00:00:00;NOT APPROVAL(W/REASON);1 NEW YORK PLZ;1000005;1;NEW YORK PLZ;101;1;1000047501;40.702091;-74.012045;10004;MN;9;Battery Park City-Lower Manhattan
732;AA;36212769;ONE NY PLAZA CO LLC;07/01/2016 00:00:00;07/01/2016 00:00:00;NOT APPROVAL(W/REASON);1 NY PLZ;1000005;1;NY PLZ;101;1;1000047501;40.702091;-74.012045;10004;MN;9;Battery Park City-Lower Manhattan
733;N;36226736;BROOKFIELD PROPERTIES;11/15/2016 00:00:00;11/15/2016 00:00:00;APPROVAL;1 NEW YORK PLZ;1000005;1;NEW YORK PLZ;101;1;1000047501;40.702091;-74.012045;10004;MN;9;Battery Park City-Lower Manhattan
734;B;36299014;BROOKFIELD PROPERTIES;08/16/2018 00:00:00;08/16/2018 00:00:00;APPROVAL;1 NEW YORK PLZ;1000005;1;NEW YORK PLZ;101;1;1000047501;40.702091;-74.012045;10004;MN;9;Battery Park City-Lower Manhattan
735;B;36299071;NATIONAL FUTURES;04/09/2018 00:00:00;04/09/2018 00:00:00;APPROVAL;1 NEW YORK PLZ;1000005;1;NEW YORK PLZ;101;1;1000047501;40.702091;-74.012045;10004;MN;9;Battery Park City-Lower Manhattan
736;B;36335131;MACMILLAN HOLDINGS LLC;09/29/2016 00:00:00;09/29/2016 00:00:00;APPROVAL;1 NEW YORK PLZ;1000005;1;NEW YORK PLZ;101;1;1000047501;40.702091;-74.012045;10004;MN;9;Battery Park City-Lower Manhattan
737;N;36382497;BROOKFIELD;02/27/2018 00:00:00;02/27/2018 00:00:00;APPROVAL;1 NEW YORK PLZ;1000005;1;NEW YORK PLZ;101;1;1000047501;40.702091;-74.012045;10004;MN;9;Battery Park City-Lower Manhattan
738;AA;36397818;BROOKFIELD PROPERTIES;12/09/2016 00:00:00;12/09/2016 00:00:00;NOT APPROVAL(W/REASON);1 NEW YORK PLZ;1000005;1;NEW YORK PLZ;101;1;1000047501;40.702091;-74.012045;10004;MN;9;Battery Park City-Lower Manhattan
739;N;36414472;BROOKFIELD;01/25/2017 00:00:00;01/25/2017 00:00:00;APPROVAL;1 NEW YORK PLZ;1000005;1;NEW YORK PLZ;101;1;1000047501;40.702091;-74.012045;10004;MN;9;Battery Park City-Lower Manhattan
740;N;37027182;1 NY PLAZA CO LLC;05/22/2017 00:00:00;05/22/2017 00:00:00;APPROVAL;1 NEW YORK PLZ;1000005;1;NEW YORK PLZ;101;1;1000047501;40.702091;-74.012045;10004;MN;9;Battery Park City-Lower Manhattan
741;N;37027208;BROOKFIELD OFFICE PROP;05/04/2017 00:00:00;05/04/2017 00:00:00;APPROVAL;1 NEW YORK PLZ;1000005;1;NEW YORK PLZ;101;1;1000047501;40.702091;-74.012045;10004;MN;9;Battery Park City-Lower Manhattan
742;N;37027240;1 NY PLAZA CO;05/27/2017 00:00:00;05/27/2017 00:00:00;APPROVAL;1 WATER ST;1000005;1;WATER ST;101;1;1000047501;40.702091;-74.012045;10004;MN;9;Battery Park City-Lower Manhattan
743;AA;37030137;BROOKFIELD PROPERTIES;01/30/2017 00:00:00;01/30/2017 00:00:00;NOT APPROVAL(W/REASON);1 NEW YORK PLZ;1000005;1;NEW YORK PLZ;101;1;1000047501;40.702091;-74.012045;10004;MN;9;Battery Park City-Lower Manhattan
744;B;37061371;FULL BEAUTY BRAND CAFE;04/09/2018 00:00:00;04/09/2018 00:00:00;APPROVAL;1 NEW YORK PLZ;1000005;1;NEW YORK PLZ;101;1;1000047501;40.702091;-74.012045;10004;MN;9;Battery Park City-Lower Manhattan
745;AA;37063393;BROOKFIELD PROPERTIES;03/02/2017 00:00:00;03/02/2017 00:00:00;NOT APPROVAL(W/REASON);1 NEW YORK PLZ;1000005;1;NEW YORK PLZ;101;1;1000047501;40.702091;-74.012045;10004;MN;9;Battery Park City-Lower Manhattan
746;B;37073335;BROOKFIELD;03/17/2017 00:00:00;02/24/2017 00:00:00;APPROVAL;1 NEW YORK PLZ;1000005;1;NEW YORK PLZ;101;1;1000047501;40.702091;-74.012045;10004;MN;9;Battery Park City-Lower Manhattan
747;AA;37083466;BROOKFIELD PROPERTIES;03/20/2017 00:00:00;03/20/2017 00:00:00;NOT APPROVAL(W/REASON);1 NEW YORK PLZ;1000005;1;NEW YORK PLZ;101;1;1000047501;40.702091;-74.012045;10004;MN;9;Battery Park City-Lower Manhattan
748;B;37166725;SPRINGER NATURE;04/27/2017 00:00:00;04/27/2017 00:00:00;APPROVAL;1 NEW YORK PLZ;1000005;1;NEW YORK PLZ;101;1;1000047501;40.702091;-74.012045;10004;MN;9;Battery Park City-Lower Manhattan
749;AA;37225943;BROOKFIELD PRPERTY PATNE;07/14/2017 00:00:00;07/24/2017 00:00:00;NOT APPROVAL(W/REASON);1 NEW YORK PLZ;1000005;1;NEW YORK PLZ;101;1;1000047501;40.702091;-74.012045;10004;MN;9;Battery Park City-Lower Manhattan
750;AA;37225950;BROOKFIELD PROPERTIES;07/20/2017 00:00:00;07/20/2017 00:00:00;NOT APPROVAL(W/REASON);1 NEW YORK PLZ;1000005;1;NEW YORK PLZ;101;1;1000047501;40.702091;-74.012045;10004;MN;9;Battery Park City-Lower Manhattan
751;S;37238789;FINANCIAL COMMUNITY FAIR;08/04/2017 00:00:00;08/04/2017 00:00:00;APPROVAL;136 BROAD ST;1000005;136;BROAD ST;101;1;1000047501;40.702091;-74.012045;10004;MN;9;Battery Park City-Lower Manhattan
752;A;37259538;RITE-WAY INTERNAL REMOVA;08/19/2017 00:00:00;08/19/2017 00:00:00;APPROVAL;1 NEW YORK PLZ;1000005;1;NEW YORK PLZ;101;1;1000047501;40.702091;-74.012045;10004;MN;9;Battery Park City-Lower Manhattan
753;S;37263084;RITE-WAY INTERNAL REMOVA;08/19/2017 00:00:00;08/19/2017 00:00:00;APPROVAL;1 NEW YORK PLZ;1000005;1;NEW YORK PLZ;101;1;1000047501;40.702091;-74.012045;10004;MN;9;Battery Park City-Lower Manhattan
754;N;37296399;BROOKFIELD PROPERTIES;02/27/2018 00:00:00;02/27/2018 00:00:00;APPROVAL;1 NEW YORK PLZ;1000005;1;NEW YORK PLZ;101;1;1000047501;40.702091;-74.012045;10004;MN;9;Battery Park City-Lower Manhattan
755;N;37307493;BROOKFIELD PROPERTIES;04/17/2018 00:00:00;04/17/2018 00:00:00;APPROVAL;1 NEW YORK PLZ;1000005;1;NEW YORK PLZ;101;1;1000047501;40.702091;-74.012045;10004;MN;9;Battery Park City-Lower Manhattan
756;N;37309556;BROOKFIELD;11/27/2018 00:00:00;11/27/2018 00:00:00;APPROVAL;1 NEW YORK PLZ;1000005;1;NEW YORK PLZ;101;1;1000047501;40.702091;-74.012045;10004;MN;9;Battery Park City-Lower Manhattan
757;AA;37333044;BROOKFIELD PROPERTY;11/03/2017 00:00:00;11/03/2017 00:00:00;NOT APPROVAL(W/REASON);1 NEW YORK PLZ;1000005;1;NEW YORK PLZ;101;1;1000047501;40.702091;-74.012045;10004;MN;9;Battery Park City-Lower Manhattan
758;AA;37345543;BROOKFIELD PROPERTY PART;11/15/2017 00:00:00;11/15/2017 00:00:00;NOT APPROVAL(W/REASON);1 NEW YORK PLZ;1000005;1;NEW YORK PLZ;101;1;1000047501;40.702091;-74.012045;10004;MN;9;Battery Park City-Lower Manhattan
759;AA;37349198;BROOKFIELD PROPERTY PART;11/16/2017 00:00:00;11/16/2017 00:00:00;NOT APPROVAL(W/REASON);1 NEW YORK PLZ;1000005;1;NEW YORK PLZ;101;1;1000047501;40.702091;-74.012045;10004;MN;9;Battery Park City-Lower Manhattan
760;AA;37387313;BROOKFIELD PROPERTY PART;12/21/2017 00:00:00;12/21/2017 00:00:00;NOT APPROVAL(W/REASON);1 NEW YORK PLZ;1000005;1;NEW YORK PLZ;101;1;1000047501;40.702091;-74.012045;10004;MN;9;Battery Park City-Lower Manhattan
761;AA;37389939;BROOKFIELD PROPERTY PART;12/26/2017 00:00:00;12/26/2017 00:00:00;NOT APPROVAL(W/REASON);1 NEW YORK PLZ;1000005;1;NEW YORK PLZ;101;1;1000047501;40.702091;-74.012045;10004;MN;9;Battery Park City-Lower Manhattan
762;AA;38071312;ONE NY PLAZA CO. LLC;03/05/2018 00:00:00;03/05/2018 00:00:00;NOT APPROVAL(W/REASON);1 NEW YORK PLZ;1000005;1;NEW YORK PLZ;101;1;1000047501;40.702091;-74.012045;10004;MN;9;Battery Park City-Lower Manhattan
763;AA;38092094;ONE NY PLAZA CO LLC;03/20/2018 00:00:00;03/20/2018 00:00:00;NOT APPROVAL(W/REASON);1 NEW YORK PLZ;1000005;1;NEW YORK PLZ;101;1;1000047501;40.702091;-74.012045;10004;MN;9;Battery Park City-Lower Manhattan
764;AA;38112785;BROOKFIELD PROPERTY PART;04/06/2018 00:00:00;04/06/2018 00:00:00;NOT APPROVAL(W/REASON);1 NEW YORK PLZ;1000005;1;NEW YORK PLZ;101;1;1000047501;40.702091;-74.012045;10004;MN;9;Battery Park City-Lower Manhattan
765;AA;38130993;BROOKFIELD PROPERTY PART;04/20/2018 00:00:00;04/20/2018 00:00:00;NOT APPROVAL(W/REASON);1 NEW YORK PLZ;1000005;1;NEW YORK PLZ;101;1;1000047501;40.702091;-74.012045;10004;MN;9;Battery Park City-Lower Manhattan
766;AA;38180246;BROOKFIELD PROPERTY PART;05/29/2018 00:00:00;05/29/2018 00:00:00;NOT APPROVAL(W/REASON);1 NEW YORK PLZ;1000005;1;NEW YORK PLZ;101;1;1000047501;40.702091;-74.012045;10004;MN;9;Battery Park City-Lower Manhattan
767;N;38195426;BROOKFIELD;05/31/2018 00:00:00;05/31/2018 00:00:00;APPROVAL;1 NEW YORK PLZ;1000005;1;NEW YORK PLZ;101;1;1000047501;40.702091;-74.012045;10004;MN;9;Battery Park City-Lower Manhattan
768;N;38199279;BROOKFIELD PROP PARTNER;06/11/2018 00:00:00;06/11/2018 00:00:00;NOT APPROVAL(VIO);1 NEW YORK PLZ;1000005;1;NEW YORK PLZ;101;1;1000047501;40.702091;-74.012045;10004;MN;9;Battery Park City-Lower Manhattan
769;AA;38303129;BROOKFIELD PROPERTY PART;09/10/2018 00:00:00;09/10/2018 00:00:00;NOT APPROVAL(W/REASON);1 NEW YORK PLZ;1000005;1;NEW YORK PLZ;101;1;1000047501;40.702091;-74.012045;10004;MN;9;Battery Park City-Lower Manhattan
770;AA;38338570;BROOKFIELD PROPERTY PART;10/12/2018 00:00:00;10/12/2018 00:00:00;NOT APPROVAL(W/REASON);1 NEW YORK PLZ;1000005;1;NEW YORK PLZ;101;1;1000047501;40.702091;-74.012045;10004;MN;9;Battery Park City-Lower Manhattan
771;AA;38394243;BROOKFIELD;12/07/2018 00:00:00;12/07/2018 00:00:00;NOT APPROVAL(W/REASON);1 NEW YORK PLZ;1000005;1;NEW YORK PLZ;101;1;1000047501;40.702091;-74.012045;10004;MN;9;Battery Park City-Lower Manhattan
772;AA;38398061;ROBERT DERECTOR;12/10/2018 00:00:00;12/10/2018 00:00:00;NOT APPROVAL(W/REASON);1 NEW YORK PLZ;1000005;1;NEW YORK PLZ;101;1;1000047501;40.702091;-74.012045;10004;MN;9;Battery Park City-Lower Manhattan
773;AA;38398087;BROOKFEILD;12/10/2018 00:00:00;12/10/2018 00:00:00;NOT APPROVAL(W/REASON);1 NEW YORK PLZ;1000005;1;NEW YORK PLZ;101;1;1000047501;40.702091;-74.012045;10004;MN;9;Battery Park City-Lower Manhattan
774;R;38405619;BROOKFIELD PROPERTIES;12/12/2018 00:00:00;12/12/2018 00:00:00;APPROVAL;1 NEW YORK PLZ;1000005;1;NEW YORK PLZ;101;1;1000047501;40.702091;-74.012045;10004;MN;9;Battery Park City-Lower Manhattan
775;AA;38409777;ONE NY;12/20/2018 00:00:00;12/20/2018 00:00:00;NOT APPROVAL(W/REASON);1 NEW YORK PLZ;1000005;1;NEW YORK PLZ;101;1;1000047501;40.702091;-74.012045;10004;MN;9;Battery Park City-Lower Manhattan
776;N;39002522;BROOKFIELD PROPERTIES;12/17/2018 00:00:00;12/17/2018 00:00:00;NOT APPROVAL(VIO);1 NEW YORK PLZ;1000005;1;NEW YORK PLZ;101;1;1000047501;40.702091;-74.012045;10004;MN;9;Battery Park City-Lower Manhattan
777;R;86057247;BROOKFIELD PROPERTIES;11/07/2018 00:00:00;11/07/2018 00:00:00;APPROVAL;1 NEW YORK PLZ;1000005;1;NEW YORK PLZ;101;1;1000047501;40.702091;-74.012045;10004;MN;9;Battery Park City-Lower Manhattan
778;S;88096300;HINES AAF MORGAN STANLEY;11/07/2018 00:00:00;11/07/2018 00:00:00;APPROVAL;1 NEW YORK PLZ;1000005;1;NEW YORK PLZ;101;1;1000047501;40.702091;-74.012045;10004;MN;9;Battery Park City-Lower Manhattan
779;B;89035026;BROOKFIELD PROPERTIES;05/17/2018 00:00:00;05/17/2018 00:00:00;NOT APPROVAL(VIO);1 NEW YORK PLZ;1000005;1;NEW YORK PLZ;101;1;1000047501;40.702091;-74.012045;10004;MN;9;Battery Park City-Lower Manhattan
780;P;90051780;BROOKFIELD PROPERTIES;12/26/2018 00:00:00;12/26/2018 00:00:00;APPROVAL;1 NY PLZ;1000005;1;NY PLZ;101;1;1000047501;40.702091;-74.012045;10004;MN;9;Battery Park City-Lower Manhattan
782;A;91088377;FRIED FRANK HARRIS(25FL);06/30/2016 00:00:00;06/30/2016 00:00:00;APPROVAL;1 NEW YORK PLZ;1000005;1;NEW YORK PLZ;101;1;1000047501;40.702091;-74.012045;10004;MN;9;Battery Park City-Lower Manhattan
783;G;94001617;BROOKFIELD PROPERTIES;05/19/2018 00:00:00;11/18/2017 00:00:00;APPROVAL;1 NEW YORK PLZ;1000005;1;NEW YORK PLZ;101;1;1000047501;40.702091;-74.012045;10004;MN;9;Battery Park City-Lower Manhattan
784;G;94001625;ONE NY PLAZA CO LLC;05/19/2018 00:00:00;03/31/2018 00:00:00;APPROVAL;1 NEW YORK PLZ;1000005;1;NEW YORK PLZ;101;1;1000047501;40.702091;-74.012045;10004;MN;9;Battery Park City-Lower Manhattan
785;R;96023072;BROOKFIELD OFFICE PROPTS;08/11/2017 00:00:00;08/11/2017 00:00:00;APPROVAL;1 NEW YORK PLZ;1000005;1;NEW YORK PLZ;101;1;1000047501;40.702091;-74.012045;10004;MN;9;Battery Park City-Lower Manhattan
786;R;96059845;BROOKFIELD PROPERTIES;11/07/2018 00:00:00;11/07/2018 00:00:00;APPROVAL;1 NEW YORK PLZ;1000005;1;NEW YORK PLZ;101;1;1000047501;40.702091;-74.012045;10004;MN;9;Battery Park City-Lower Manhattan
787;P;20069076;SULLIVAN CROMWELL;12/04/2018 00:00:00;12/04/2018 00:00:00;APPROVAL;125 BROAD ST;1000006;125;BROAD ST;101;1;1000057501;40.702339;-74.010517;10004;MN;9;Battery Park City-Lower Manhattan
788;P;20069084;SULLIVAN & CROMWELL LLP;09/11/2015 00:00:00;09/11/2015 00:00:00;APPROVAL;125 BROAD ST;1000006;125;BROAD ST;101;1;1000057501;40.702339;-74.010517;10004;MN;9;Battery Park City-Lower Manhattan
794;A;23086838;SULLIVAN CROMWELL(26FL);06/30/2016 00:00:00;06/30/2016 00:00:00;APPROVAL;125 BROAD ST;1000006;125;BROAD ST;101;1;1000057501;40.702339;-74.010517;10004;MN;9;Battery Park City-Lower Manhattan
807;AA;26138164;CUSMAN AND WAKEFIELD;11/02/2018 00:00:00;11/02/2018 00:00:00;NOT APPROVAL(W/REASON);125 BROAD ST;1000006;125;BROAD ST;101;1;1000057501;40.702339;-74.010517;10004;MN;9;Battery Park City-Lower Manhattan
816;E;28167997;125 BROAD CONDOMINUM;03/03/2018 00:00:00;03/03/2018 00:00:00;APPROVAL;125 BROAD ST;1000006;125;BROAD ST;101;1;1000057501;40.702339;-74.010517;10004;MN;9;Battery Park City-Lower Manhattan
858;N;33220591;MACK CALI REALTY;02/20/2014 00:00:00;02/20/2014 00:00:00;APPROVAL;125 BROAD ST;1000006;125;BROAD ST;101;1;1000057501;40.702339;-74.010517;10004;MN;9;Battery Park City-Lower Manhattan
859;N;34011957;SULLIVAN & CROMWELL LLP;07/08/2014 00:00:00;07/08/2014 00:00:00;APPROVAL;125 BROAD ST;1000006;125;BROAD ST;101;1;1000057501;40.702339;-74.010517;10004;MN;9;Battery Park City-Lower Manhattan
860;AA;34032169;CUSHMAN & WAKEFIELD INC;02/10/2014 00:00:00;02/10/2014 00:00:00;NOT APPROVAL(W/REASON);125 BROAD ST;1000006;125;BROAD ST;101;1;1000057501;40.702339;-74.010517;10004;MN;9;Battery Park City-Lower Manhattan
861;AA;34095711;ABCO PEERLESS SPRINKLER;04/17/2014 00:00:00;04/17/2014 00:00:00;NOT APPROVAL(W/REASON);125 BROAD ST;1000006;125;BROAD ST;101;1;1000057501;40.702339;-74.010517;10004;MN;9;Battery Park City-Lower Manhattan
862;N;34112888;125 BROAD CONDOS;07/29/2014 00:00:00;07/29/2014 00:00:00;APPROVAL;125 BROAD ST;1000006;125;BROAD ST;101;1;1000057501;40.702339;-74.010517;10004;MN;9;Battery Park City-Lower Manhattan
863;AA;34116657;CUSHMAN & WAKEFIELD INC;05/12/2014 00:00:00;05/12/2014 00:00:00;NOT APPROVAL(W/REASON);125 BROAD ST;1000006;125;BROAD ST;101;1;1000057501;40.702339;-74.010517;10004;MN;9;Battery Park City-Lower Manhattan
864;AA;34209205;MACK-CALI REALTY CORPORA;08/15/2014 00:00:00;08/15/2014 00:00:00;NOT APPROVAL(W/REASON);125 BROAD ST;1000006;125;BROAD ST;101;1;1000057501;40.702339;-74.010517;10004;MN;9;Battery Park City-Lower Manhattan
865;AA;34253450;MACK CALI;09/30/2014 00:00:00;09/30/2014 00:00:00;NOT APPROVAL(W/REASON);125 BROAD ST;1000006;125;BROAD ST;101;1;1000057501;40.702339;-74.010517;10004;MN;9;Battery Park City-Lower Manhattan
866;N;35055466;MACK-CALI REALTY;06/06/2015 00:00:00;06/06/2015 00:00:00;APPROVAL;125 BROAD ST;1000006;125;BROAD ST;101;1;1000057501;40.702339;-74.010517;10004;MN;9;Battery Park City-Lower Manhattan
867;N;35112804;MACK-CALI REALTY CORP;11/21/2015 00:00:00;11/21/2015 00:00:00;APPROVAL;125 BROAD ST;1000006;125;BROAD ST;101;1;1000057501;40.702339;-74.010517;10004;MN;9;Battery Park City-Lower Manhattan
868;AA;35155605;HOKA RCHITECTURE;06/11/2015 00:00:00;06/11/2015 00:00:00;NOT APPROVAL(W/REASON);125 BROAD ST;1000006;125;BROAD ST;101;1;1000057501;40.702339;-74.010517;10004;MN;9;Battery Park City-Lower Manhattan
869;AA;35157411;MACK CALI REALTY GROUP;06/15/2015 00:00:00;06/15/2015 00:00:00;NOT APPROVAL(W/REASON);125 BROAD ST;1000006;125;BROAD ST;101;1;1000057501;40.702339;-74.010517;10004;MN;9;Battery Park City-Lower Manhattan
870;N;35159706;MACK-CALI REALTY CORP;11/16/2015 00:00:00;11/16/2015 00:00:00;APPROVAL;125 BROAD ST;1000006;125;BROAD ST;101;1;1000057501;40.702339;-74.010517;10004;MN;9;Battery Park City-Lower Manhattan
871;T;35211713;MACK-CALI REALTY CORP;06/06/2015 00:00:00;06/06/2015 00:00:00;NOT APPROVAL(VIO);125 BROAD ST;1000006;125;BROAD ST;101;1;1000057501;40.702339;-74.010517;10004;MN;9;Battery Park City-Lower Manhattan
872;B;35214360;CHILDREN FIRST, LLC;04/18/2018 00:00:00;04/18/2018 00:00:00;APPROVAL;125 BROAD ST;1000006;125;BROAD ST;101;1;1000057501;40.702339;-74.010517;10004;MN;9;Battery Park City-Lower Manhattan
873;N;35303213;SULLIVAN & CROMWELL LLP;11/27/2015 00:00:00;11/27/2015 00:00:00;APPROVAL;125 BROAD ST;1000006;125;BROAD ST;101;1;1000057501;40.702339;-74.010517;10004;MN;9;Battery Park City-Lower Manhattan
874;N;35306448;CUSHMAN & WAKEFIELD INC;02/10/2016 00:00:00;02/10/2016 00:00:00;APPROVAL;125 BROAD ST;1000006;125;BROAD ST;101;1;1000057501;40.702339;-74.010517;10004;MN;9;Battery Park City-Lower Manhattan
875;AA;35315217;MACK CALI REALTY;10/28/2015 00:00:00;10/28/2015 00:00:00;NOT APPROVAL(W/REASON);125 BROAD ST;1000006;125;BROAD ST;101;1;1000057501;40.702339;-74.010517;10004;MN;9;Battery Park City-Lower Manhattan
876;AA;35345784;CUSHMAN & WAKEFIELD INC;01/11/2016 00:00:00;01/11/2016 00:00:00;NOT APPROVAL(W/REASON);125 BROAD ST;1000006;125;BROAD ST;101;1;1000057501;40.702339;-74.010517;10004;MN;9;Battery Park City-Lower Manhattan
877;N;35352210;MACK CALI REALTY CORP;10/31/2015 00:00:00;10/31/2015 00:00:00;APPROVAL;125 BROAD ST;1000006;125;BROAD ST;101;1;1000057501;40.702339;-74.010517;10004;MN;9;Battery Park City-Lower Manhattan
878;N;36000156;CUSHMAN & WAKEFIELD;05/24/2016 00:00:00;05/24/2016 00:00:00;APPROVAL;125 BROAD ST;1000006;125;BROAD ST;101;1;1000057501;40.702339;-74.010517;10004;MN;9;Battery Park City-Lower Manhattan
879;N;36058923;SULLIVAN & CROMWELL LLP;11/08/2018 00:00:00;11/08/2018 00:00:00;APPROVAL;125 BROAD ST;1000006;125;BROAD ST;101;1;1000057501;40.702339;-74.010517;10004;MN;9;Battery Park City-Lower Manhattan
880;AA;36062073;MACK CALI REALTY;03/02/2016 00:00:00;03/02/2016 00:00:00;NOT APPROVAL(W/REASON);125 BROAD ST;1000006;125;BROAD ST;101;1;1000057501;40.702339;-74.010517;10004;MN;9;Battery Park City-Lower Manhattan
881;AA;36140226;SULLIVAN & CROMWELL, LLP;05/10/2016 00:00:00;05/10/2016 00:00:00;NOT APPROVAL(W/REASON);125 BROAD ST;1000006;125;BROAD ST;101;1;1000057501;40.702339;-74.010517;10004;MN;9;Battery Park City-Lower Manhattan
882;B;36231363;BRIGHT HORIZONS CHILDREN;12/26/2018 00:00:00;12/26/2018 00:00:00;APPROVAL;125 BROAD ST;1000006;125;BROAD ST;101;1;1000057501;40.702339;-74.010517;10004;MN;9;Battery Park City-Lower Manhattan
883;AA;36313286;MACK-CALI REALTY CORPORA;09/26/2016 00:00:00;09/26/2016 00:00:00;NOT APPROVAL(W/REASON);125 BROAD ST;1000006;125;BROAD ST;101;1;1000057501;40.702339;-74.010517;10004;MN;9;Battery Park City-Lower Manhattan
884;B;36405199;SULLIVAN & CROMWELL;11/15/2016 00:00:00;11/15/2016 00:00:00;APPROVAL;125 BROAD ST;1000006;125;BROAD ST;101;1;1000057501;40.702339;-74.010517;10004;MN;9;Battery Park City-Lower Manhattan
885;B;36412492;SULLIVAN & COMWELL LLP;12/01/2016 00:00:00;12/01/2016 00:00:00;APPROVAL;125 BROAD ST;1000006;125;BROAD ST;101;1;1000057501;40.702339;-74.010517;10004;MN;9;Battery Park City-Lower Manhattan
886;AA;37067816;CUSHMAN & WAKEFIELD, INC;03/06/2017 00:00:00;03/06/2017 00:00:00;NOT APPROVAL(W/REASON);125 BROAD ST;1000006;125;BROAD ST;101;1;1000057501;40.702339;-74.010517;10004;MN;9;Battery Park City-Lower Manhattan
887;B;37076213;CHILDREN FIRST BRIGH HOR;11/21/2018 00:00:00;11/21/2018 00:00:00;APPROVAL;125 BROAD ST;1000006;125;BROAD ST;101;1;1000057501;40.702339;-74.010517;10004;MN;9;Battery Park City-Lower Manhattan
888;N;37184249;SULLIVAN & CROMWELL LP;07/22/2017 00:00:00;07/22/2017 00:00:00;APPROVAL;125 BROAD ST;1000006;125;BROAD ST;101;1;1000057501;40.702339;-74.010517;10004;MN;9;Battery Park City-Lower Manhattan
889;B;37221538;SULLIVAN & CROMELL LLP;07/13/2017 00:00:00;07/13/2017 00:00:00;APPROVAL;125 BROAD ST;1000006;125;BROAD ST;101;1;1000057501;40.702339;-74.010517;10004;MN;9;Battery Park City-Lower Manhattan
890;T;37237930;SULLIVAN & CROMWELL LLP;07/22/2017 00:00:00;07/22/2017 00:00:00;NOT APPROVAL(VIO);125 BROAD ST;1000006;125;BROAD ST;101;1;1000057501;40.702339;-74.010517;10004;MN;9;Battery Park City-Lower Manhattan
891;N;37273612;CUSHMAN & WAKEFIELD INC;12/22/2017 00:00:00;12/22/2017 00:00:00;APPROVAL;125 BROAD ST;1000006;125;BROAD ST;101;1;1000057501;40.702339;-74.010517;10004;MN;9;Battery Park City-Lower Manhattan
892;AA;38015988;CUSHMAN & WAKEFIELD;01/19/2018 00:00:00;01/19/2018 00:00:00;NOT APPROVAL(W/REASON);125 BROAD ST;1000006;125;BROAD ST;101;1;1000057501;40.702339;-74.010517;10004;MN;9;Battery Park City-Lower Manhattan
893;B;38023008;SULLIVAN CROWNWELL LLC;01/16/2018 00:00:00;01/16/2018 00:00:00;APPROVAL;125 BROAD ST;1000006;125;BROAD ST;101;1;1000057501;40.702339;-74.010517;10004;MN;9;Battery Park City-Lower Manhattan
894;B;38053047;SULLIVAN & CROMWELL LLP;01/30/2018 00:00:00;01/30/2018 00:00:00;APPROVAL;125 BROAD ST;1000006;125;BROAD ST;101;1;1000057501;40.702339;-74.010517;10004;MN;9;Battery Park City-Lower Manhattan
895;AA;38215265;SULLIVAN & CROMWELL;06/22/2018 00:00:00;06/22/2018 00:00:00;NOT APPROVAL(W/REASON);125 BROAD ST;1000006;125;BROAD ST;101;1;1000057501;40.702339;-74.010517;10004;MN;9;Battery Park City-Lower Manhattan
896;AA;38215273;SULLIVAN & CROMWELL;06/22/2018 00:00:00;06/22/2018 00:00:00;NOT APPROVAL(W/REASON);125 BROAD ST;1000006;125;BROAD ST;101;1;1000057501;40.702339;-74.010517;10004;MN;9;Battery Park City-Lower Manhattan
897;N;38250288;CUSHION & WAKEFIELD INC;07/25/2018 00:00:00;07/25/2018 00:00:00;APPROVAL;125 BROAD ST;1000006;125;BROAD ST;101;1;1000057501;40.702339;-74.010517;10004;MN;9;Battery Park City-Lower Manhattan
898;AA;38337333;CUSHMAN & WAKEFIELD;10/12/2018 00:00:00;10/12/2018 00:00:00;NOT APPROVAL(W/REASON);125 BROAD ST;1000006;125;BROAD ST;101;1;1000057501;40.702339;-74.010517;10004;MN;9;Battery Park City-Lower Manhattan
899;G;70016084;125 BROAD CONDOMINIUM;08/14/2017 00:00:00;08/05/2017 00:00:00;NOT APPROVAL(W/REASON);125 BROAD ST;1000006;125;BROAD ST;101;1;1000057501;40.702339;-74.010517;10004;MN;9;Battery Park City-Lower Manhattan
900;G;70052873;125 BROAD CONDOMINIUM;08/05/2017 00:00:00;08/05/2017 00:00:00;NOT APPROVAL(W/REASON);125 BROAD ST;1000006;125;BROAD ST;101;1;1000057501;40.702339;-74.010517;10004;MN;9;Battery Park City-Lower Manhattan
901;B;86067576;SULLIVAN & CROMWELL LLP;08/27/2018 00:00:00;08/27/2018 00:00:00;APPROVAL;125 BROAD ST;1000006;125;BROAD ST;101;1;1000057501;40.702339;-74.010517;10004;MN;9;Battery Park City-Lower Manhattan
902;S;89049043;CUSHMAN & WAKEFIELD;11/26/2014 00:00:00;11/26/2014 00:00:00;APPROVAL;125 BROAD ST;1000006;125;BROAD ST;101;1;1000057501;40.702339;-74.010517;10004;MN;9;Battery Park City-Lower Manhattan
903;R;89049050;CUSHMAN & WAKEFIELD;09/11/2015 00:00:00;09/11/2015 00:00:00;APPROVAL;125 BROAD ST;1000006;125;BROAD ST;101;1;1000057501;40.702339;-74.010517;10004;MN;9;Battery Park City-Lower Manhattan
904;B;89049191;125 BROAD CONDOMINIUM;10/11/2018 00:00:00;10/11/2018 00:00:00;APPROVAL;125 BROAD ST;1000006;125;BROAD ST;101;1;1000057501;40.702339;-74.010517;10004;MN;9;Battery Park City-Lower Manhattan
905;P;89054696;SULLIVAN & CROMWELL;11/27/2018 00:00:00;11/27/2018 00:00:00;APPROVAL;125 BROAD ST;1000006;125;BROAD ST;101;1;1000057501;40.702339;-74.010517;10004;MN;9;Battery Park City-Lower Manhattan
907;P;95040580;A C L U;11/27/2018 00:00:00;11/27/2018 00:00:00;APPROVAL;125 BROAD ST;1000006;125;BROAD ST;101;1;1000057501;40.702339;-74.010517;10004;MN;9;Battery Park City-Lower Manhattan
908;P;97000715;SULLIVAN AND CROMWELL;11/27/2018 00:00:00;11/27/2018 00:00:00;APPROVAL;125 BROAD ST;1000006;125;BROAD ST;101;1;1000057501;40.702339;-74.010517;10004;MN;9;Battery Park City-Lower Manhattan
909;G;1589845;4 NYP VENTURED LLC;07/01/2016 00:00:00;07/01/2016 00:00:00;NOT APPROVAL(W/REASON);4 NEW YORK PLZ;1000007;4;NEW YORK PLZ;101;1;1000050010;40.702717;-74.010716;10004;MN;9;Battery Park City-Lower Manhattan
910;P;5360094;4 NYP VENTURES LLC;11/07/2018 00:00:00;11/07/2018 00:00:00;APPROVAL;4 NEW YORK PLZ;1000007;4;NEW YORK PLZ;101;1;1000050010;40.702717;-74.010716;10004;MN;9;Battery Park City-Lower Manhattan
911;A;22083299;4 NY PLAZA RESTAURANT GR;06/30/2016 00:00:00;06/30/2016 00:00:00;APPROVAL;4 NEW YORK PLZ;1000007;4;NEW YORK PLZ;101;1;1000050010;40.702717;-74.010716;10004;MN;9;Battery Park City-Lower Manhattan
931;AA;28140754;4NYP VENTURES LLC.;04/21/2016 00:00:00;04/21/2016 00:00:00;NOT APPROVAL(W/REASON);4 NEW YORK PLZ;1000007;4;NEW YORK PLZ;101;1;1000050010;40.702717;-74.010716;10004;MN;9;Battery Park City-Lower Manhattan
936;AA;29212958;JP MORGAN CHASE;05/05/2014 00:00:00;05/05/2014 00:00:00;NOT APPROVAL(W/REASON);4 NEW YORK PLZ;1000007;4;NEW YORK PLZ;101;1;1000050010;40.702717;-74.010716;10004;MN;9;Battery Park City-Lower Manhattan
948;DV;31047905;4 NYP VENTURE LLC;07/01/2016 00:00:00;07/01/2016 00:00:00;APPROVAL;4 NEW YORK PLZ;1000007;4;NEW YORK PLZ;101;1;1000050010;40.702717;-74.010716;10004;MN;9;Battery Park City-Lower Manhattan
991;R;33077538;4 NYP VENTURES LLC;10/23/2017 00:00:00;10/23/2017 00:00:00;APPROVAL;4 NEW YORK PLZ;1000007;4;NEW YORK PLZ;101;1;1000050010;40.702717;-74.010716;10004;MN;9;Battery Park City-Lower Manhattan
996;E;33228149;4 NYP VENTURE LLC.;12/04/2018 00:00:00;12/04/2018 00:00:00;APPROVAL;4 NEW YORK PLZ;1000007;4;NEW YORK PLZ;101;1;1000050010;40.702717;-74.010716;10004;MN;9;Battery Park City-Lower Manhattan
1007;AA;33325317;HINES;01/02/2014 00:00:00;01/02/2014 00:00:00;NOT APPROVAL(W/REASON);4 NEW YORK PLZ;1000007;4;NEW YORK PLZ;101;1;1000050010;40.702717;-74.010716;10004;MN;9;Battery Park City-Lower Manhattan
1008;AA;33325325;HINES;01/02/2014 00:00:00;01/02/2014 00:00:00;NOT APPROVAL(W/REASON);4 NEW YORK PLZ;1000007;4;NEW YORK PLZ;101;1;1000050010;40.702717;-74.010716;10004;MN;9;Battery Park City-Lower Manhattan
1010;N;34106229;EDGE FUND ADVISOR;03/24/2015 00:00:00;03/24/2015 00:00:00;APPROVAL;4 NEW YORK PLZ;1000007;4;NEW YORK PLZ;101;1;1000050010;40.702717;-74.010716;10004;MN;9;Battery Park City-Lower Manhattan
1011;AA;34133298;EDGE FUND ADVISORS;05/29/2014 00:00:00;05/29/2014 00:00:00;NOT APPROVAL(W/REASON);4 NEW YORK PLZ;1000007;4;NEW YORK PLZ;101;1;1000050010;40.702717;-74.010716;10004;MN;9;Battery Park City-Lower Manhattan
1012;AA;34155093;JP MORGAN CHASE BANK;06/20/2014 00:00:00;06/20/2014 00:00:00;NOT APPROVAL(W/REASON);4 NEW YORK PLZ;1000007;4;NEW YORK PLZ;101;1;1000050010;40.702717;-74.010716;10004;MN;9;Battery Park City-Lower Manhattan
1013;AA;34194571;HINES INTEREST;08/01/2014 00:00:00;08/01/2014 00:00:00;NOT APPROVAL(W/REASON);4 NEW YORK PLZ;1000007;4;NEW YORK PLZ;101;1;1000050010;40.702717;-74.010716;10004;MN;9;Battery Park City-Lower Manhattan
1014;AA;34207290;HINES INTERESTS;08/14/2014 00:00:00;08/14/2014 00:00:00;NOT APPROVAL(W/REASON);4 NEW YORK PLZ;1000007;4;NEW YORK PLZ;101;1;1000050010;40.702717;-74.010716;10004;MN;9;Battery Park City-Lower Manhattan
1015;N;34210054;EDGE FUND ADVISOR;09/09/2014 00:00:00;09/09/2014 00:00:00;APPROVAL;4 NEW YORK PLZ;1000007;4;NEW YORK PLZ;101;1;1000050010;40.702717;-74.010716;10004;MN;9;Battery Park City-Lower Manhattan
1016;AA;34225383;HINES INTERESTS;09/02/2014 00:00:00;09/02/2014 00:00:00;NOT APPROVAL(W/REASON);4 NEW YORK PLZ;1000007;4;NEW YORK PLZ;101;1;1000050010;40.702717;-74.010716;10004;MN;9;Battery Park City-Lower Manhattan
1017;AA;34272765;19 W 44TH ST;10/21/2014 00:00:00;10/21/2014 00:00:00;NOT APPROVAL(W/REASON);4 NEW YORK PLZ;1000007;4;NEW YORK PLZ;101;1;1000050010;40.702717;-74.010716;10004;MN;9;Battery Park City-Lower Manhattan
1018;AA;35001163;CBRE ASSET SERVICES;01/06/2015 00:00:00;01/06/2015 00:00:00;NOT APPROVAL(W/REASON);4 NEW YORK PLZ;1000007;4;NEW YORK PLZ;101;1;1000050010;40.702717;-74.010716;10004;MN;9;Battery Park City-Lower Manhattan
1019;AA;35032424;CBRE ASSET SERVICES;02/10/2015 00:00:00;02/10/2015 00:00:00;NOT APPROVAL(W/REASON);4 NEW YORK PLZ;1000007;4;NEW YORK PLZ;101;1;1000050010;40.702717;-74.010716;10004;MN;9;Battery Park City-Lower Manhattan
1020;N;35108638;HINES;11/15/2016 00:00:00;11/15/2016 00:00:00;APPROVAL;4 NEW YORK PLZ;1000007;4;NEW YORK PLZ;101;1;1000050010;40.702717;-74.010716;10004;MN;9;Battery Park City-Lower Manhattan
1021;N;35108794;HINES INTERESTS;11/25/2015 00:00:00;11/25/2015 00:00:00;APPROVAL;4 NEW YORK PLZ;1000007;4;NEW YORK PLZ;101;1;1000050010;40.702717;-74.010716;10004;MN;9;Battery Park City-Lower Manhattan
1022;AA;35112283;4 NYP VENTURES LLC;04/28/2015 00:00:00;04/28/2015 00:00:00;NOT APPROVAL(W/REASON);4 NEW YORK PLZ;1000007;4;NEW YORK PLZ;101;1;1000050010;40.702717;-74.010716;10004;MN;9;Battery Park City-Lower Manhattan
1023;AA;35168541;4 NYP VENTURES LLC;06/24/2015 00:00:00;06/24/2015 00:00:00;NOT APPROVAL(W/REASON);4 NEW YORK PLZ;1000007;4;NEW YORK PLZ;101;1;1000050010;40.702717;-74.010716;10004;MN;9;Battery Park City-Lower Manhattan
1024;N;35172121;HINES INTEREST;07/07/2015 00:00:00;07/07/2015 00:00:00;APPROVAL;4 NEW YORK PLZ;1000007;4;NEW YORK PLZ;101;1;1000050010;40.702717;-74.010716;10004;MN;9;Battery Park City-Lower Manhattan
1025;AA;35223031;4NYP VENTURES LLP;08/20/2015 00:00:00;08/20/2015 00:00:00;NOT APPROVAL(W/REASON);4 NEW YORK PLZ;1000007;4;NEW YORK PLZ;101;1;1000050010;40.702717;-74.010716;10004;MN;9;Battery Park City-Lower Manhattan
1026;N;35237866;CBRE ASSET SERVICES;11/09/2015 00:00:00;11/09/2015 00:00:00;APPROVAL;4 NEW YORK PLZ;1000007;4;NEW YORK PLZ;101;1;1000050010;40.702717;-74.010716;10004;MN;9;Battery Park City-Lower Manhattan
1027;N;35267160;4 NYP VENTURES LLC;11/30/2015 00:00:00;11/30/2015 00:00:00;APPROVAL;4 NEW YORK PLZ;1000007;4;NEW YORK PLZ;101;1;1000050010;40.702717;-74.010716;10004;MN;9;Battery Park City-Lower Manhattan
1028;B;35281732;KINDERCARE EDUCATION AT;12/26/2018 00:00:00;12/26/2018 00:00:00;APPROVAL;4 NEW YORK PLZ;1000007;4;NEW YORK PLZ;101;1;1000050010;40.702717;-74.010716;10004;MN;9;Battery Park City-Lower Manhattan
1029;B;35320787;CREATIVE;04/06/2018 00:00:00;04/06/2018 00:00:00;APPROVAL;4 NEW YORK PLZ;1000007;4;NEW YORK PLZ;101;1;1000050010;40.702717;-74.010716;10004;MN;9;Battery Park City-Lower Manhattan
1030;AA;35330158;CBRE;11/09/2015 00:00:00;11/09/2015 00:00:00;NOT APPROVAL(W/REASON);4 NEW YORK PLZ;1000007;4;NEW YORK PLZ;101;1;1000050010;40.702717;-74.010716;10004;MN;9;Battery Park City-Lower Manhattan
1031;N;35332451;HINES INTERESTS;06/08/2016 00:00:00;06/08/2016 00:00:00;APPROVAL;4 NEW YORK PLZ;1000007;4;NEW YORK PLZ;101;1;1000050010;40.702717;-74.010716;10004;MN;9;Battery Park City-Lower Manhattan
1032;T;35374362;HINES INTERESTS;04/30/2016 00:00:00;04/30/2016 00:00:00;APPROVAL;4 NEW YORK PLZ;1000007;4;NEW YORK PLZ;101;1;1000050010;40.702717;-74.010716;10004;MN;9;Battery Park City-Lower Manhattan
1033;AA;35381649;HINES INTERESTS;12/22/2015 00:00:00;12/22/2015 00:00:00;NOT APPROVAL(W/REASON);4 NEW YORK PLZ;1000007;4;NEW YORK PLZ;101;1;1000050010;40.702717;-74.010716;10004;MN;9;Battery Park City-Lower Manhattan
1034;N;36087997;JP MORGAN CHASE;04/26/2018 00:00:00;04/26/2018 00:00:00;APPROVAL;4 NEW YORK PLZ;1000007;4;NEW YORK PLZ;101;1;1000050010;40.702717;-74.010716;10004;MN;9;Battery Park City-Lower Manhattan
1035;AA;36105294;CBRE;04/12/2016 00:00:00;04/12/2016 00:00:00;NOT APPROVAL(W/REASON);4 NEW YORK PLZ;1000007;4;NEW YORK PLZ;101;1;1000050010;40.702717;-74.010716;10004;MN;9;Battery Park City-Lower Manhattan
1036;AA;36118909;CBRE;04/21/2016 00:00:00;04/21/2016 00:00:00;NOT APPROVAL(W/REASON);4 NEW YORK PLZ;1000007;4;NEW YORK PLZ;101;1;1000050010;40.702717;-74.010716;10004;MN;9;Battery Park City-Lower Manhattan
1037;N;36159689;4 NYP VENTURES LLC;06/22/2016 00:00:00;06/22/2016 00:00:00;APPROVAL;4 NEW YORK PLZ;1000007;4;NEW YORK PLZ;101;1;1000050010;40.702717;-74.010716;10004;MN;9;Battery Park City-Lower Manhattan
1038;AA;36191625;CBRE;06/16/2016 00:00:00;06/16/2016 00:00:00;NOT APPROVAL(W/REASON);4 NEW YORK PLZ;1000007;4;NEW YORK PLZ;101;1;1000050010;40.702717;-74.010716;10004;MN;9;Battery Park City-Lower Manhattan
1039;N;36205854;HINES INTERESTS;08/03/2016 00:00:00;08/03/2016 00:00:00;APPROVAL;4 NEW YORK PLZ;1000007;4;NEW YORK PLZ;101;1;1000050010;40.702717;-74.010716;10004;MN;9;Battery Park City-Lower Manhattan
1040;AA;36229284;CBRE;07/18/2016 00:00:00;07/18/2016 00:00:00;NOT APPROVAL(W/REASON);4 NEW YORK PLZ;1000007;4;NEW YORK PLZ;101;1;1000050010;40.702717;-74.010716;10004;MN;9;Battery Park City-Lower Manhattan
1041;AA;36240497;EDGE FUNDS ADVISORS;07/26/2016 00:00:00;07/26/2016 00:00:00;NOT APPROVAL(W/REASON);4 NEW YORK PLZ;1000007;4;NEW YORK PLZ;101;1;1000050010;40.702717;-74.010716;10004;MN;9;Battery Park City-Lower Manhattan
1042;AA;36277119;EDGE FUNDS ADVISORS;08/24/2016 00:00:00;08/24/2016 00:00:00;NOT APPROVAL(W/REASON);4 NEW YORK PLZ;1000007;4;NEW YORK PLZ;101;1;1000050010;40.702717;-74.010716;10004;MN;9;Battery Park City-Lower Manhattan
1043;AA;36278950;CB RICHARD ELLIS;08/25/2016 00:00:00;08/25/2016 00:00:00;NOT APPROVAL(W/REASON);4 NEW YORK PLZ;1000007;4;NEW YORK PLZ;101;1;1000050010;40.702717;-74.010716;10004;MN;9;Battery Park City-Lower Manhattan
1044;AA;36302008;EDGE FUND ADVISORS;09/16/2016 00:00:00;09/16/2016 00:00:00;NOT APPROVAL(W/REASON);4 NEW YORK PLZ;1000007;4;NEW YORK PLZ;101;1;1000050010;40.702717;-74.010716;10004;MN;9;Battery Park City-Lower Manhattan
1045;N;36308526;CBRE;09/05/2018 00:00:00;09/05/2018 00:00:00;NOT APPROVAL(VIO);4 NEW YORK PLZ;1000007;4;NEW YORK PLZ;101;1;1000050010;40.702717;-74.010716;10004;MN;9;Battery Park City-Lower Manhattan
1046;N;36342210;EDGE FUND ADVISORS;01/31/2017 00:00:00;01/31/2017 00:00:00;APPROVAL;4 NEW YORK PLZ;1000007;4;NEW YORK PLZ;101;1;1000050010;40.702717;-74.010716;10004;MN;9;Battery Park City-Lower Manhattan
1047;N;36378297;EDGE FUNDS ADVISORS;02/15/2017 00:00:00;02/15/2017 00:00:00;APPROVAL;4 NEW YORK PLZ;1000007;4;NEW YORK PLZ;101;1;1000050010;40.702717;-74.010716;10004;MN;9;Battery Park City-Lower Manhattan
1048;N;36378313;EDGE FUND ADVISOR;02/28/2017 00:00:00;02/28/2017 00:00:00;APPROVAL;4 NEW YORK PLZ;1000007;4;NEW YORK PLZ;101;1;1000050010;40.702717;-74.010716;10004;MN;9;Battery Park City-Lower Manhattan
1049;AA;37076270;EDGE FUND ADVISORS;03/16/2017 00:00:00;03/16/2017 00:00:00;NOT APPROVAL(W/REASON);4 NEW YORK PLZ;1000007;4;NEW YORK PLZ;101;1;1000050010;40.702717;-74.010716;10004;MN;9;Battery Park City-Lower Manhattan
1050;AA;37079647;FINANCIER PATISSEERIE;03/17/2017 00:00:00;03/17/2017 00:00:00;NOT APPROVAL(W/REASON);4 NEW YORK PLZ;1000007;4;NEW YORK PLZ;101;1;1000050010;40.702717;-74.010716;10004;MN;9;Battery Park City-Lower Manhattan
1051;N;37107190;EDGE FUND ADVISORS;05/11/2017 00:00:00;05/11/2017 00:00:00;APPROVAL;4 NEW YORK PLZ;1000007;4;NEW YORK PLZ;101;1;1000050010;40.702717;-74.010716;10004;MN;9;Battery Park City-Lower Manhattan
1052;N;37183647;EDGE FUNDS ADVISORS;10/12/2017 00:00:00;10/12/2017 00:00:00;APPROVAL;4 NEW YORK PLZ;1000007;4;NEW YORK PLZ;101;1;1000050010;40.702717;-74.010716;10004;MN;9;Battery Park City-Lower Manhattan
1053;AA;37248119;EDGE FUND ADVISORS;08/10/2017 00:00:00;08/10/2017 00:00:00;NOT APPROVAL(W/REASON);4 NEW YORK PLZ;1000007;4;NEW YORK PLZ;101;1;1000050010;40.702717;-74.010716;10004;MN;9;Battery Park City-Lower Manhattan
1054;N;37331642;EDGE FUND ADVISORS;02/06/2018 00:00:00;02/06/2018 00:00:00;APPROVAL;4 NEW YORK PLZ;1000007;4;NEW YORK PLZ;101;1;1000050010;40.702717;-74.010716;10004;MN;9;Battery Park City-Lower Manhattan
1055;N;37377751;EDGE FUNDS ADVISORS;01/25/2018 00:00:00;01/25/2018 00:00:00;APPROVAL;4 NEW YORK PLZ;1000007;4;NEW YORK PLZ;101;1;1000050010;40.702717;-74.010716;10004;MN;9;Battery Park City-Lower Manhattan
1056;AA;38215182;EDGE FUND ADVISORS LLC;06/22/2018 00:00:00;06/22/2018 00:00:00;NOT APPROVAL(W/REASON);4 NEW YORK PLZ;1000007;4;NEW YORK PLZ;101;1;1000050010;40.702717;-74.010716;10004;MN;9;Battery Park City-Lower Manhattan
1057;AA;38253910;EDGE FUNDS ADVISORS;07/26/2018 00:00:00;07/26/2018 00:00:00;NOT APPROVAL(W/REASON);4 NEW YORK PLZ;1000007;4;NEW YORK PLZ;101;1;1000050010;40.702717;-74.010716;10004;MN;9;Battery Park City-Lower Manhattan
1058;AA;38345807;EDGE FUND ADVISORS LLC;10/19/2018 00:00:00;10/19/2018 00:00:00;NOT APPROVAL(W/REASON);4 NEW YORK PLZ;1000007;4;NEW YORK PLZ;101;1;1000050010;40.702717;-74.010716;10004;MN;9;Battery Park City-Lower Manhattan
1059;G;70054168;4 NYP VENTURES LLC;06/30/2016 00:00:00;06/30/2016 00:00:00;APPROVAL;4 NEW YORK PLZ;1000007;4;NEW YORK PLZ;101;1;1000050010;40.702717;-74.010716;10004;MN;9;Battery Park City-Lower Manhattan
1060;S;86057197;4 NYP VENTURES LLC;11/07/2018 00:00:00;11/07/2018 00:00:00;APPROVAL;4 NEW YORK PLZ;1000007;4;NEW YORK PLZ;101;1;1000050010;40.702717;-74.010716;10004;MN;9;Battery Park City-Lower Manhattan
1061;B;86067584;4 NYP VENTURES, LLC;08/02/2018 00:00:00;08/02/2018 00:00:00;APPROVAL;4 NEW YORK PLZ;1000007;4;NEW YORK PLZ;101;1;1000050010;40.702717;-74.010716;10004;MN;9;Battery Park City-Lower Manhattan
1062;B;89006142;4 NYP VENTURE LLC;09/10/2018 00:00:00;01/25/2018 00:00:00;APPROVAL;4 NEW YORK PLZ;1000007;4;NEW YORK PLZ;101;1;1000050010;40.702717;-74.010716;10004;MN;9;Battery Park City-Lower Manhattan
1063;R;94051786;4 NYP VENTURES LLC;11/07/2018 00:00:00;11/07/2018 00:00:00;APPROVAL;4 NEW YORK PLZ;1000007;4;NEW YORK PLZ;101;1;1000050010;40.702717;-74.010716;10004;MN;9;Battery Park City-Lower Manhattan
1064;G;1324284;DEAD RABBIT TAVERN;10/16/2018 00:00:00;10/16/2018 00:00:00;NOV(NO HOLD);30 WATER ST;1000008;30;WATER ST;101;1;1000070027;40.703295;-74.011023;10004;MN;9;Battery Park City-Lower Manhattan
1068;B;36210748;DRT GROUP LLC;08/24/2018 00:00:00;08/24/2018 00:00:00;APPROVAL;30 WATER ST;1000008;30;WATER ST;101;1;1000070027;40.703295;-74.011023;10004;MN;9;Battery Park City-Lower Manhattan
1069;P;97012165;D R T GROUP LLC.;09/23/2015 00:00:00;09/23/2015 00:00:00;APPROVAL;30 WATER ST;1000008;30;WATER ST;101;1;1000070027;40.703295;-74.011023;10004;MN;9;Battery Park City-Lower Manhattan
1070;A;98004500;THE DEAD RABBIT;09/19/2018 00:00:00;07/02/2018 00:00:00;NOT APPROVAL(W/REASON);30 WATER ST;1000008;30;WATER ST;101;1;1000070027;40.703295;-74.011023;10004;MN;9;Battery Park City-Lower Manhattan
1071;A;32048696;ROCKWELLS(1FL&2ND-PREP);09/17/2014 00:00:00;09/17/2014 00:00:00;APPROVAL;105 BROAD ST;1000012;105;BROAD ST;101;1;1000070031;40.703185;-74.011344;10004;MN;9;Battery Park City-Lower Manhattan
1074;P;96085576;ROCKWELLS;02/14/2018 00:00:00;02/14/2018 00:00:00;APPROVAL;105 BROAD ST;1000012;105;BROAD ST;101;1;1000070031;40.703185;-74.011344;10004;MN;9;Battery Park City-Lower Manhattan
1076;G;1148519;PEARL 60 LLC;09/08/2016 00:00:00;09/08/2016 00:00:00;NOT APPROVAL(W/REASON);60 PEARL ST;1000014;60;PEARL ST;101;1;1000070038;40.70344;-74.011084;10004;MN;9;Battery Park City-Lower Manhattan
1078;G;27148592;BOMBAY INDIA CUISINE/1FL;02/20/2014 00:00:00;02/20/2014 00:00:00;APPROVAL;60 PEARL ST;1000014;60;PEARL ST;101;1;1000070038;40.70344;-74.011084;10004;MN;9;Battery Park City-Lower Manhattan
1079;P;28003200;VIDHAN FOODS INC.;12/26/2017 00:00:00;12/26/2017 00:00:00;APPROVAL;60 PEARL ST;1000014;60;PEARL ST;101;1;1000070038;40.70344;-74.011084;10004;MN;9;Battery Park City-Lower Manhattan
1081;G;34029561;MOHAMAR MATOS AMARANTE;02/06/2014 00:00:00;01/02/2014 00:00:00;APPROVAL;60 PEARL ST;1000014;60;PEARL ST;101;1;1000070038;40.70344;-74.011084;10004;MN;9;Battery Park City-Lower Manhattan
1082;A;34153411;BOMBAY INDIAN REST;07/24/2018 00:00:00;07/24/2018 00:00:00;APPROVAL;60 PEARL ST;1000014;60;PEARL ST;101;1;1000070038;40.70344;-74.011084;10004;MN;9;Battery Park City-Lower Manhattan
1083;F;36298677;PEARL 60,LLP;09/18/2017 00:00:00;11/15/2016 00:00:00;NOT APPROVAL(W/REASON);60 PEARL ST;1000014;60;PEARL ST;101;1;1000070038;40.70344;-74.011084;10004;MN;9;Battery Park City-Lower Manhattan
1084;G;1373687;VERIZON;10/14/2015 00:00:00;09/24/2015 00:00:00;NOT APPROVAL(W/REASON);104 BROAD ST;1000016;104;BROAD ST;101;1;1000080044;40.703147;-74.011936;10004;MN;9;Battery Park City-Lower Manhattan
1091;AA;26209288;VERIZON;01/12/2015 00:00:00;01/12/2015 00:00:00;NOT APPROVAL(W/REASON);104 BROAD ST;1000016;104;BROAD ST;101;1;1000080044;40.703147;-74.011936;10004;MN;9;Battery Park City-Lower Manhattan
1094;E;30181515;VERIZON;03/19/2015 00:00:00;03/19/2015 00:00:00;APPROVAL;104 BROAD ST;1000016;104;BROAD ST;101;1;1000080044;40.703147;-74.011936;10004;MN;9;Battery Park City-Lower Manhattan
1098;N;33134610;VERIZON;01/17/2014 00:00:00;01/17/2014 00:00:00;APPROVAL;104 BROAD ST;1000016;104;BROAD ST;101;1;1000080044;40.703147;-74.011936;10004;MN;9;Battery Park City-Lower Manhattan
1105;AA;34005942;KM ASSOC OF NY INC;06/10/2014 00:00:00;06/10/2014 00:00:00;NOT APPROVAL(W/REASON);104 BROAD ST;1000016;104;BROAD ST;101;1;1000080044;40.703147;-74.011936;10004;MN;9;Battery Park City-Lower Manhattan
1106;AA;34022004;VERIZON;01/29/2014 00:00:00;01/29/2014 00:00:00;NOT APPROVAL(W/REASON);104 BROAD ST;1000016;104;BROAD ST;101;1;1000080044;40.703147;-74.011936;10004;MN;9;Battery Park City-Lower Manhattan
1107;AA;34071175;VERIZON NEW YORK INC;05/26/2015 00:00:00;05/26/2015 00:00:00;NOT APPROVAL(W/REASON);104 BROAD ST;1000016;104;BROAD ST;101;1;1000080044;40.703147;-74.011936;10004;MN;9;Battery Park City-Lower Manhattan
1108;R;34202614;VERIZON;11/28/2017 00:00:00;11/28/2017 00:00:00;APPROVAL;104 BROAD ST;1000016;104;BROAD ST;101;1;1000080044;40.703147;-74.011936;10004;MN;9;Battery Park City-Lower Manhattan
1109;AA;34223719;VERIZON;10/29/2014 00:00:00;10/29/2014 00:00:00;NOT APPROVAL(W/REASON);104 BROAD ST;1000016;104;BROAD ST;101;1;1000080044;40.703147;-74.011936;10004;MN;9;Battery Park City-Lower Manhattan
1110;AA;34223727;VERIZON;10/28/2014 00:00:00;10/28/2014 00:00:00;NOT APPROVAL(W/REASON);104 BROAD ST;1000016;104;BROAD ST;101;1;1000080044;40.703147;-74.011936;10004;MN;9;Battery Park City-Lower Manhattan
1111;AA;34223735;VERIZON;10/28/2014 00:00:00;10/28/2014 00:00:00;NOT APPROVAL(W/REASON);104 BROAD ST;1000016;104;BROAD ST;101;1;1000080044;40.703147;-74.011936;10004;MN;9;Battery Park City-Lower Manhattan
1112;AA;34232595;VERIZON;09/08/2014 00:00:00;09/08/2014 00:00:00;NOT APPROVAL(W/REASON);104 BROAD ST;1000016;104;BROAD ST;101;1;1000080044;40.703147;-74.011936;10004;MN;9;Battery Park City-Lower Manhattan
1113;AA;34232603;VERIZON;09/08/2014 00:00:00;09/08/2014 00:00:00;NOT APPROVAL(W/REASON);104 BROAD ST;1000016;104;BROAD ST;101;1;1000080044;40.703147;-74.011936;10004;MN;9;Battery Park City-Lower Manhattan
1114;AA;34232611;VERIZON;09/08/2014 00:00:00;09/08/2014 00:00:00;NOT APPROVAL(W/REASON);104 BROAD ST;1000016;104;BROAD ST;101;1;1000080044;40.703147;-74.011936;10004;MN;9;Battery Park City-Lower Manhattan
1115;S;34247049;BRADSHAW MECHANICAL CO.;09/15/2014 00:00:00;09/15/2014 00:00:00;APPROVAL;104 BROAD ST;1000016;104;BROAD ST;101;1;1000080044;40.703147;-74.011936;10004;MN;9;Battery Park City-Lower Manhattan
1116;AA;34254433;VERIZON;10/01/2014 00:00:00;10/01/2014 00:00:00;NOT APPROVAL(W/REASON);104 BROAD ST;1000016;104;BROAD ST;101;1;1000080044;40.703147;-74.011936;10004;MN;9;Battery Park City-Lower Manhattan
1117;AA;34269027;VERIZON;10/16/2014 00:00:00;10/16/2014 00:00:00;NOT APPROVAL(W/REASON);104 BROAD ST;1000016;104;BROAD ST;101;1;1000080044;40.703147;-74.011936;10004;MN;9;Battery Park City-Lower Manhattan
1118;AA;35009653;VERIZON;04/03/2015 00:00:00;04/03/2015 00:00:00;NOT APPROVAL(W/REASON);104 BROAD ST;1000016;104;BROAD ST;101;1;1000080044;40.703147;-74.011936;10004;MN;9;Battery Park City-Lower Manhattan
1119;S;35122993;TITAN INDUSTRIAL SERVICE;04/29/2015 00:00:00;04/29/2015 00:00:00;APPROVAL;104 BROAD ST;1000016;104;BROAD ST;101;1;1000080044;40.703147;-74.011936;10004;MN;9;Battery Park City-Lower Manhattan
1120;N;35292457;VERIZON;01/18/2016 00:00:00;01/18/2016 00:00:00;APPROVAL;104 BROAD ST;1000016;104;BROAD ST;101;1;1000080044;40.703147;-74.011936;10004;MN;9;Battery Park City-Lower Manhattan
1121;N;35292465;VERIZON;11/09/2015 00:00:00;11/09/2015 00:00:00;APPROVAL;104 BROAD ST;1000016;104;BROAD ST;101;1;1000080044;40.703147;-74.011936;10004;MN;9;Battery Park City-Lower Manhattan
1122;N;35292473;VERIZON;10/12/2016 00:00:00;10/12/2016 00:00:00;NOT APPROVAL(VIO);104 BROAD ST;1000016;104;BROAD ST;101;1;1000080044;40.703147;-74.011936;10004;MN;9;Battery Park City-Lower Manhattan
1123;N;35318880;VERIZON;03/16/2016 00:00:00;03/16/2016 00:00:00;APPROVAL;104 BROAD ST;1000016;104;BROAD ST;101;1;1000080044;40.703147;-74.011936;10004;MN;9;Battery Park City-Lower Manhattan
1124;N;35350701;VERIZON;04/26/2016 00:00:00;04/26/2016 00:00:00;APPROVAL;104 BROAD ST;1000016;104;BROAD ST;101;1;1000080044;40.703147;-74.011936;10004;MN;9;Battery Park City-Lower Manhattan
1125;A;35364934;PAR PLUMBING;12/02/2015 00:00:00;12/02/2015 00:00:00;APPROVAL;104 BROAD ST;1000016;104;BROAD ST;101;1;1000080044;40.703147;-74.011936;10004;MN;9;Battery Park City-Lower Manhattan
1126;T;36023414;VERIZON;04/05/2016 00:00:00;04/05/2016 00:00:00;NOT APPROVAL(W/REASON);104 BROAD ST;1000016;104;BROAD ST;101;1;1000080044;40.703147;-74.011936;10004;MN;9;Battery Park City-Lower Manhattan
1127;AA;36025609;VERIZON;01/28/2016 00:00:00;01/28/2016 00:00:00;NOT APPROVAL(W/REASON);104 BROAD ST;1000016;104;BROAD ST;101;1;1000080044;40.703147;-74.011936;10004;MN;9;Battery Park City-Lower Manhattan
1128;AA;36048460;VERIZON;02/18/2016 00:00:00;02/18/2016 00:00:00;NOT APPROVAL(W/REASON);104 BROAD ST;1000016;104;BROAD ST;101;1;1000080044;40.703147;-74.011936;10004;MN;9;Battery Park City-Lower Manhattan
1129;T;36073732;VERIZON;03/17/2016 00:00:00;03/17/2016 00:00:00;APPROVAL;104 BROAD ST;1000016;104;BROAD ST;101;1;1000080044;40.703147;-74.011936;10004;MN;9;Battery Park City-Lower Manhattan
1130;AA;36191310;VERIZON;06/16/2016 00:00:00;06/16/2016 00:00:00;NOT APPROVAL(W/REASON);104 BROAD ST;1000016;104;BROAD ST;101;1;1000080044;40.703147;-74.011936;10004;MN;9;Battery Park City-Lower Manhattan
1131;T;36243350;VERIZON;01/26/2018 00:00:00;01/26/2018 00:00:00;NOT APPROVAL(VIO);104 BROAD ST;1000016;104;BROAD ST;101;1;1000080044;40.703147;-74.011936;10004;MN;9;Battery Park City-Lower Manhattan
1132;AA;36321693;VERIZON NEIL BANACH;10/04/2016 00:00:00;10/04/2016 00:00:00;NOT APPROVAL(W/REASON);104 BROAD ST;1000016;104;BROAD ST;101;1;1000080044;40.703147;-74.011936;10004;MN;9;Battery Park City-Lower Manhattan
1133;AA;36340537;VERIZON;10/20/2016 00:00:00;10/20/2016 00:00:00;NOT APPROVAL(W/REASON);104 BROAD ST;1000016;104;BROAD ST;101;1;1000080044;40.703147;-74.011936;10004;MN;9;Battery Park City-Lower Manhattan
1134;AA;37098860;VERIZON;04/03/2017 00:00:00;04/03/2017 00:00:00;NOT APPROVAL(W/REASON);104 BROAD ST;1000016;104;BROAD ST;101;1;1000080044;40.703147;-74.011936;10004;MN;9;Battery Park City-Lower Manhattan
1135;N;37141140;VERIZON;05/24/2017 00:00:00;05/24/2017 00:00:00;APPROVAL;104 BROAD ST;1000016;104;BROAD ST;101;1;1000080044;40.703147;-74.011936;10004;MN;9;Battery Park City-Lower Manhattan
1136;N;37221934;VERIZON;12/29/2017 00:00:00;12/29/2017 00:00:00;APPROVAL;104 BROAD ST;1000016;104;BROAD ST;101;1;1000080044;40.703147;-74.011936;10004;MN;9;Battery Park City-Lower Manhattan
1137;AA;37245750;VERIZON;08/09/2017 00:00:00;08/09/2017 00:00:00;NOT APPROVAL(W/REASON);104 BROAD ST;1000016;104;BROAD ST;101;1;1000080044;40.703147;-74.011936;10004;MN;9;Battery Park City-Lower Manhattan
1138;N;37283082;VERIZON;09/10/2018 00:00:00;09/10/2018 00:00:00;APPROVAL;104 BROAD ST;1000016;104;BROAD ST;101;1;1000080044;40.703147;-74.011936;10004;MN;9;Battery Park City-Lower Manhattan
1139;N;37283108;VERIZON;11/28/2018 00:00:00;11/28/2018 00:00:00;APPROVAL;104 BROAD ST;1000016;104;BROAD ST;101;1;1000080044;40.703147;-74.011936;10004;MN;9;Battery Park City-Lower Manhattan
1140;AA;38059044;VERIZON;02/22/2018 00:00:00;02/22/2018 00:00:00;NOT APPROVAL(W/REASON);104 BROAD ST;1000016;104;BROAD ST;101;1;1000080044;40.703147;-74.011936;10004;MN;9;Battery Park City-Lower Manhattan
1141;AA;38059069;VERIZON;02/22/2018 00:00:00;02/22/2018 00:00:00;NOT APPROVAL(W/REASON);104 BROAD ST;1000016;104;BROAD ST;101;1;1000080044;40.703147;-74.011936;10004;MN;9;Battery Park City-Lower Manhattan
1142;P;38077210;VERIZON;03/05/2018 00:00:00;03/05/2018 00:00:00;APPROVAL;104 BROAD ST;1000016;104;BROAD ST;101;1;1000080044;40.703147;-74.011936;10004;MN;9;Battery Park City-Lower Manhattan
1143;B;88114640;VERIZON NEW YORK INC.;10/30/2018 00:00:00;10/30/2018 00:00:00;NOV AND VIO(NOV HOLD);104 BROAD ST;1000016;104;BROAD ST;101;1;1000080044;40.703147;-74.011936;10004;MN;9;Battery Park City-Lower Manhattan
1147;AA;33310632;NORTHEAST;01/14/2014 00:00:00;01/14/2014 00:00:00;NOT APPROVAL(W/REASON);6 WATER ST;1000017;6;WATER ST;;;;;;;MN;9;Battery Park City-Lower Manhattan
1149;A;34106260;NORTHEAST INTERIOR SPEC;04/29/2014 00:00:00;04/29/2014 00:00:00;APPROVAL;6 WATER ST;1000017;6;WATER ST;;;;;;;MN;9;Battery Park City-Lower Manhattan
1150;S;34204974;PARKSIDE CONSTRUCTION;07/28/2015 00:00:00;07/28/2015 00:00:00;APPROVAL;6 WATER ST;1000017;6;WATER ST;;;;;;;MN;9;Battery Park City-Lower Manhattan
1151;AA;35060854;MCSAM HOTEL GROUP LLC;03/10/2015 00:00:00;03/10/2015 00:00:00;NOT APPROVAL(W/REASON);6 WATER ST;1000017;6;WATER ST;;;;;;;MN;9;Battery Park City-Lower Manhattan
1152;A;35250455;PARK SIDE CONSTRUCTION B;09/16/2016 00:00:00;09/16/2016 00:00:00;APPROVAL;6 WATER ST;1000017;6;WATER ST;;;;;;;MN;9;Battery Park City-Lower Manhattan
1153;AA;35329127;MCSAM HOTEL GROUP LLC;11/09/2015 00:00:00;11/09/2015 00:00:00;NOT APPROVAL(W/REASON);6 WATER ST;1000017;6;WATER ST;;;;;;;MN;9;Battery Park City-Lower Manhattan
1154;S;35363241;PARK SIDE CONSTRUCTION;12/01/2015 00:00:00;12/01/2015 00:00:00;APPROVAL;6 WATER ST;1000017;6;WATER ST;;;;;;;MN;9;Battery Park City-Lower Manhattan
1155;S;36034809;IMPERIEX CONSTRUCTION;06/26/2017 00:00:00;06/26/2017 00:00:00;APPROVAL;6 WATER ST;1000017;6;WATER ST;;;;;;;MN;9;Battery Park City-Lower Manhattan
1156;S;36384022;AGL INDUSTRIES INC;03/07/2017 00:00:00;03/07/2017 00:00:00;APPROVAL;6 WATER ST;1000017;6;WATER ST;;;;;;;MN;9;Battery Park City-Lower Manhattan
1157;AA;36397099;6 WATER ST-HGI;12/08/2016 00:00:00;12/08/2016 00:00:00;NOT APPROVAL(W/REASON);6 WATER ST;1000017;6;WATER ST;;;;;;;MN;9;Battery Park City-Lower Manhattan
1158;N;37046208;AI IV LLC;11/16/2018 00:00:00;11/16/2018 00:00:00;APPROVAL;6 WATER ST;1000017;6;WATER ST;;;;;;;MN;9;Battery Park City-Lower Manhattan
1159;G;37170313;HILTON GARDEN INN;06/01/2017 00:00:00;06/01/2017 00:00:00;APPROVAL;6 WATER ST;1000017;6;WATER ST;;;;;;;MN;9;Battery Park City-Lower Manhattan
1160;N;37195914;AI IV LLC;06/14/2017 00:00:00;06/14/2017 00:00:00;APPROVAL;6 WATER ST;1000017;6;WATER ST;;;;;;;MN;9;Battery Park City-Lower Manhattan
1161;AA;37200037;HILTON GARDEN INN;12/24/2018 00:00:00;12/24/2018 00:00:00;NOT APPROVAL(W/REASON);6 WATER ST;1000017;6;WATER ST;;;;;;;MN;9;Battery Park City-Lower Manhattan
1162;AA;37234283;AI IV LLC;07/27/2017 00:00:00;07/27/2017 00:00:00;NOT APPROVAL(W/REASON);6 WATER ST;1000017;6;WATER ST;;;;;;;MN;9;Battery Park City-Lower Manhattan
1163;B;37373362;HILTON GARDEN INN;11/27/2018 00:00:00;11/27/2018 00:00:00;NOV AND VIO(NOV HOLD);6 WATER ST;1000017;6;WATER ST;;;;;;;MN;9;Battery Park City-Lower Manhattan
1164;G;37375243;HILTON GARDEN INN;07/24/2018 00:00:00;07/24/2018 00:00:00;APPROVAL;6 WATER ST;1000017;6;WATER ST;;;;;;;MN;9;Battery Park City-Lower Manhattan
1165;P;38072880;HILTON GARDEN INN.;12/12/2018 00:00:00;12/12/2018 00:00:00;APPROVAL;6 WATER ST;1000017;6;WATER ST;;;;;;;MN;9;Battery Park City-Lower Manhattan
1166;P;38072880;HILTON GARDEN INN.;12/12/2018 00:00:00;12/12/2018 00:00:00;NOV(HOLD);6 WATER ST;1000017;6;WATER ST;;;;;;;MN;9;Battery Park City-Lower Manhattan
1167;R;38072955;HILTON GARDEN INN.;12/12/2018 00:00:00;12/12/2018 00:00:00;NOV(HOLD);6 WATER ST;1000017;6;WATER ST;;;;;;;MN;9;Battery Park City-Lower Manhattan
1168;E;38227963;HILTON GARDEN INN;09/24/2018 00:00:00;09/24/2018 00:00:00;APPROVAL;6 WATER ST;1000017;6;WATER ST;;;;;;;MN;9;Battery Park City-Lower Manhattan
1169;S;92052562;6 WATER INC.;10/30/2017 00:00:00;10/30/2017 00:00:00;NOT APPROVAL(W/REASON);6 WATER ST;1000017;6;WATER ST;;;;;;;MN;9;Battery Park City-Lower Manhattan
1179;P;24079824;AMBAC;12/14/2017 00:00:00;12/14/2017 00:00:00;APPROVAL;1 STATE ST;1000018;1;STATE ST;101;1;1000090001;40.702765;-74.013349;10004;MN;9;Battery Park City-Lower Manhattan
1180;P;24079865;AMBAC;12/15/2017 00:00:00;12/15/2017 00:00:00;APPROVAL;1 STATE ST;1000018;1;STATE ST;101;1;1000090001;40.702765;-74.013349;10004;MN;9;Battery Park City-Lower Manhattan
1181;P;24079881;AMBAC;12/15/2017 00:00:00;12/15/2017 00:00:00;APPROVAL;1 STATE ST;1000018;1;STATE ST;101;1;1000090001;40.702765;-74.013349;10004;MN;9;Battery Park City-Lower Manhattan
1182;P;24079907;AMBAC;12/15/2017 00:00:00;12/15/2017 00:00:00;APPROVAL;1 STATE ST;1000018;1;STATE ST;101;1;1000090001;40.702765;-74.013349;10004;MN;9;Battery Park City-Lower Manhattan
1183;P;24080442;NYS DEPT.OF FINANCE SERV;12/15/2017 00:00:00;12/15/2017 00:00:00;APPROVAL;1 STATE ST;1000018;1;STATE ST;101;1;1000090001;40.702765;-74.013349;10004;MN;9;Battery Park City-Lower Manhattan
1184;P;24080467;NYS DEPT.OF FINANCE SERV;12/15/2017 00:00:00;12/15/2017 00:00:00;APPROVAL;1 STATE ST;1000018;1;STATE ST;101;1;1000090001;40.702765;-74.013349;10004;MN;9;Battery Park City-Lower Manhattan
1214;P;32172975;NYS DEPT. OF FINANCE;12/15/2017 00:00:00;12/15/2017 00:00:00;APPROVAL;1 STATE ST;1000018;1;STATE ST;101;1;1000090001;40.702765;-74.013349;10004;MN;9;Battery Park City-Lower Manhattan
1224;T;33325861;1 STATE STREET LLC;05/28/2014 00:00:00;05/28/2014 00:00:00;APPROVAL;1 STATE ST;1000018;1;STATE ST;101;1;1000090001;40.702765;-74.013349;10004;MN;9;Battery Park City-Lower Manhattan
1225;AA;34043372;FIRE PROTECTION SERVICE;02/24/2014 00:00:00;02/24/2014 00:00:00;NOT APPROVAL(W/REASON);1 STATE ST;1000018;1;STATE ST;101;1;1000090001;40.702765;-74.013349;10004;MN;9;Battery Park City-Lower Manhattan
1226;N;34118760;1 STATE ST LLC;03/14/2016 00:00:00;03/14/2016 00:00:00;APPROVAL;1 STATE ST;1000018;1;STATE ST;101;1;1000090001;40.702765;-74.013349;10004;MN;9;Battery Park City-Lower Manhattan
1227;AA;34228767;ONE STATE ST LLC;09/05/2014 00:00:00;09/05/2014 00:00:00;NOT APPROVAL(W/REASON);1 STATE ST;1000018;1;STATE ST;101;1;1000090001;40.702765;-74.013349;10004;MN;9;Battery Park City-Lower Manhattan
1228;AA;34275800;1 STATE STREET;10/23/2014 00:00:00;10/23/2014 00:00:00;NOT APPROVAL(W/REASON);1 STATE ST;1000018;1;STATE ST;101;1;1000090001;40.702765;-74.013349;10004;MN;9;Battery Park City-Lower Manhattan
1229;AA;35024066;ONE STATE ST LLC;02/02/2015 00:00:00;02/02/2015 00:00:00;NOT APPROVAL(W/REASON);1 STATE ST;1000018;1;STATE ST;101;1;1000090001;40.702765;-74.013349;10004;MN;9;Battery Park City-Lower Manhattan
1230;N;35053891;ONE STATE ST LLC;04/08/2015 00:00:00;04/08/2015 00:00:00;APPROVAL;1 STATE ST;1000018;1;STATE ST;101;1;1000090001;40.702765;-74.013349;10004;MN;9;Battery Park City-Lower Manhattan
1231;N;35108612;1 STATE STREET, LLC;11/23/2015 00:00:00;11/23/2015 00:00:00;APPROVAL;1 STATE ST;1000018;1;STATE ST;101;1;1000090001;40.702765;-74.013349;10004;MN;9;Battery Park City-Lower Manhattan
1232;B;35121482;AMBAC ASSURANCE CORP;07/05/2018 00:00:00;07/05/2018 00:00:00;APPROVAL;1 STATE ST;1000018;1;STATE ST;101;1;1000090001;40.702765;-74.013349;10004;MN;9;Battery Park City-Lower Manhattan
1233;AA;35173533;1 STATE STREET LLC;06/30/2015 00:00:00;06/30/2015 00:00:00;NOT APPROVAL(W/REASON);1 STATE ST;1000018;1;STATE ST;101;1;1000090001;40.702765;-74.013349;10004;MN;9;Battery Park City-Lower Manhattan
1234;N;35306471;ONE STATE LLC;03/07/2016 00:00:00;03/07/2016 00:00:00;APPROVAL;1 STATE ST;1000018;1;STATE ST;101;1;1000090001;40.702765;-74.013349;10004;MN;9;Battery Park City-Lower Manhattan
1235;AA;35317759;ONE STATE ST LLC;10/29/2015 00:00:00;10/29/2015 00:00:00;NOT APPROVAL(W/REASON);1 STATE ST;1000018;1;STATE ST;101;1;1000090001;40.702765;-74.013349;10004;MN;9;Battery Park City-Lower Manhattan
1236;AA;35374115;1 STATE STEET LLC;12/16/2015 00:00:00;12/16/2015 00:00:00;NOT APPROVAL(W/REASON);1 STATE ST;1000018;1;STATE ST;101;1;1000090001;40.702765;-74.013349;10004;MN;9;Battery Park City-Lower Manhattan
1237;N;35390418;ONE STATE STREET LLC;07/05/2016 00:00:00;07/05/2016 00:00:00;APPROVAL;1 STATE ST;1000018;1;STATE ST;101;1;1000090001;40.702765;-74.013349;10004;MN;9;Battery Park City-Lower Manhattan
1238;T;36054369;ONE STATE STREET LLC;02/17/2016 00:00:00;02/17/2016 00:00:00;NOT APPROVAL(VIO);1 STATE ST;1000018;1;STATE ST;101;1;1000090001;40.702765;-74.013349;10004;MN;9;Battery Park City-Lower Manhattan
1239;AA;36274553;ONE STATE STREET, LLC;08/22/2016 00:00:00;08/22/2016 00:00:00;NOT APPROVAL(W/REASON);1 STATE ST;1000018;1;STATE ST;101;1;1000090001;40.702765;-74.013349;10004;MN;9;Battery Park City-Lower Manhattan
1240;P;36274801;T3 TRADING LLC;12/26/2017 00:00:00;12/26/2017 00:00:00;APPROVAL;1 STATE ST;1000018;1;STATE ST;101;1;1000090001;40.702765;-74.013349;10004;MN;9;Battery Park City-Lower Manhattan
1241;AA;36289049;ONE STATE STREET LLC;09/02/2016 00:00:00;09/02/2016 00:00:00;NOT APPROVAL(W/REASON);1 STATE ST;1000018;1;STATE ST;101;1;1000090001;40.702765;-74.013349;10004;MN;9;Battery Park City-Lower Manhattan
1242;AA;36307346;ONE STATE STREET LLC;09/20/2016 00:00:00;09/20/2016 00:00:00;NOT APPROVAL(W/REASON);1 STATE ST;1000018;1;STATE ST;101;1;1000090001;40.702765;-74.013349;10004;MN;9;Battery Park City-Lower Manhattan
1243;S;36312932;RITE-WAY INTERIOR DEMOLI;09/23/2016 00:00:00;09/23/2016 00:00:00;APPROVAL;1 STATE ST;1000018;1;STATE ST;101;1;1000090001;40.702765;-74.013349;10004;MN;9;Battery Park City-Lower Manhattan
1244;N;36371904;ONE STATE STREET LLC;04/14/2017 00:00:00;04/14/2017 00:00:00;APPROVAL;1 STATE ST;1000018;1;STATE ST;101;1;1000090001;40.702765;-74.013349;10004;MN;9;Battery Park City-Lower Manhattan
1245;AA;36397511;ONE STATE STREET LLC;12/09/2016 00:00:00;12/09/2016 00:00:00;NOT APPROVAL(W/REASON);1 STATE ST;1000018;1;STATE ST;101;1;1000090001;40.702765;-74.013349;10004;MN;9;Battery Park City-Lower Manhattan
1246;AA;37001757;ONE STATE STREET LLC;01/04/2017 00:00:00;01/04/2017 00:00:00;NOT APPROVAL(W/REASON);1 STATE ST;1000018;1;STATE ST;101;1;1000090001;40.702765;-74.013349;10004;MN;9;Battery Park City-Lower Manhattan
1247;AA;37012093;ONE STATE STREET LLC;01/13/2017 00:00:00;01/13/2017 00:00:00;NOT APPROVAL(W/REASON);1 STATE ST;1000018;1;STATE ST;101;1;1000090001;40.702765;-74.013349;10004;MN;9;Battery Park City-Lower Manhattan
1248;AA;37064623;ONE STATE STREET,LLC;02/27/2017 00:00:00;02/27/2017 00:00:00;NOT APPROVAL(W/REASON);1 STATE ST;1000018;1;STATE ST;101;1;1000090001;40.702765;-74.013349;10004;MN;9;Battery Park City-Lower Manhattan
1249;T;37070349;ONE STATE STREET LLC;02/25/2017 00:00:00;02/25/2017 00:00:00;NOT APPROVAL(VIO);1 STATE ST;1000018;1;STATE ST;101;1;1000090001;40.702765;-74.013349;10004;MN;9;Battery Park City-Lower Manhattan
1250;T;37070364;ONE STATE STREET LLC;02/25/2017 00:00:00;02/25/2017 00:00:00;NOT APPROVAL(VIO);1 STATE ST;1000018;1;STATE ST;101;1;1000090001;40.702765;-74.013349;10004;MN;9;Battery Park City-Lower Manhattan
1251;AA;37076890;ONE STATE STREET LLC;03/16/2017 00:00:00;03/16/2017 00:00:00;NOT APPROVAL(W/REASON);1 STATE ST;1000018;1;STATE ST;101;1;1000090001;40.702765;-74.013349;10004;MN;9;Battery Park City-Lower Manhattan
1252;AA;37076924;ONE STATE STREET LLC;03/16/2017 00:00:00;03/16/2017 00:00:00;NOT APPROVAL(W/REASON);1 STATE ST;1000018;1;STATE ST;101;1;1000090001;40.702765;-74.013349;10004;MN;9;Battery Park City-Lower Manhattan
1253;N;37096039;1 STATE ST, LLC;07/11/2017 00:00:00;07/11/2017 00:00:00;APPROVAL;1 STATE ST;1000018;1;STATE ST;101;1;1000090001;40.702765;-74.013349;10004;MN;9;Battery Park City-Lower Manhattan
1254;N;37096054;1 STATE ST, LLC;07/11/2017 00:00:00;07/11/2017 00:00:00;APPROVAL;1 STATE ST;1000018;1;STATE ST;101;1;1000090001;40.702765;-74.013349;10004;MN;9;Battery Park City-Lower Manhattan
1255;AA;37109022;ONE STATE STREET, LLC;04/12/2017 00:00:00;04/12/2017 00:00:00;NOT APPROVAL(W/REASON);1 STATE ST;1000018;1;STATE ST;101;1;1000090001;40.702765;-74.013349;10004;MN;9;Battery Park City-Lower Manhattan
1256;AA;37195427;ONE STATE STREET LLC;06/27/2017 00:00:00;06/27/2017 00:00:00;NOT APPROVAL(W/REASON);1 STATE ST;1000018;1;STATE ST;101;1;1000090001;40.702765;-74.013349;10004;MN;9;Battery Park City-Lower Manhattan
1257;N;37295599;ONE STATE STREET PLZ LLC;11/20/2017 00:00:00;11/20/2017 00:00:00;APPROVAL;1 STATE STREET PLAZA;1000018;1;STATE STREET PLAZA;101;1;1000090001;40.702765;-74.013349;10004;MN;9;Battery Park City-Lower Manhattan
1258;P;37387685;LIRO ENGINEER'S INC.;12/15/2017 00:00:00;12/15/2017 00:00:00;APPROVAL;1 STATE ST;1000018;1;STATE ST;101;1;1000090001;40.702765;-74.013349;10004;MN;9;Battery Park City-Lower Manhattan
1259;P;37388147;SIMCORP NORTH AMERICA;12/15/2017 00:00:00;12/15/2017 00:00:00;APPROVAL;1 STATE ST;1000018;1;STATE ST;101;1;1000090001;40.702765;-74.013349;10004;MN;9;Battery Park City-Lower Manhattan
1260;P;37388204;CONTINENTAL STOCK;12/15/2017 00:00:00;12/15/2017 00:00:00;APPROVAL;1 STATE ST;1000018;1;STATE ST;101;1;1000090001;40.702765;-74.013349;10004;MN;9;Battery Park City-Lower Manhattan
1261;AA;37389954;16 NORTH HENRY ST, LLC;12/26/2017 00:00:00;12/26/2017 00:00:00;NOT APPROVAL(W/REASON);1 STATE ST;1000018;1;STATE ST;101;1;1000090001;40.702765;-74.013349;10004;MN;9;Battery Park City-Lower Manhattan
1262;P;37390838;NY STATE DEPT. OF;12/26/2017 00:00:00;12/26/2017 00:00:00;APPROVAL;1 STATE ST;1000018;1;STATE ST;101;1;1000090001;40.702765;-74.013349;10004;MN;9;Battery Park City-Lower Manhattan
1263;AA;38079893;ONE STATE STREET LLC;03/12/2018 00:00:00;03/12/2018 00:00:00;NOT APPROVAL(W/REASON);1 STATE ST;1000018;1;STATE ST;101;1;1000090001;40.702765;-74.013349;10004;MN;9;Battery Park City-Lower Manhattan
1264;AA;38112769;ONE STATE STREET LLC;04/06/2018 00:00:00;04/06/2018 00:00:00;NOT APPROVAL(W/REASON);1 STATE ST;1000018;1;STATE ST;101;1;1000090001;40.702765;-74.013349;10004;MN;9;Battery Park City-Lower Manhattan
1265;N;38113650;ONE STATE STREET, LLC;10/10/2018 00:00:00;10/10/2018 00:00:00;NOT APPROVAL(VIO);1 STATE ST;1000018;1;STATE ST;101;1;1000090001;40.702765;-74.013349;10004;MN;9;Battery Park City-Lower Manhattan
1266;AA;38155610;ONE STATE STREET LLC;05/09/2018 00:00:00;05/09/2018 00:00:00;NOT APPROVAL(W/REASON);1 STATE ST;1000018;1;STATE ST;101;1;1000090001;40.702765;-74.013349;10004;MN;9;Battery Park City-Lower Manhattan
1267;AA;38180329;ONE STATE STREET LLC;05/29/2018 00:00:00;05/29/2018 00:00:00;NOT APPROVAL(W/REASON);1 STATE ST;1000018;1;STATE ST;101;1;1000090001;40.702765;-74.013349;10004;MN;9;Battery Park City-Lower Manhattan
1268;N;38238309;ONE STATE STREET LLC;10/31/2018 00:00:00;10/31/2018 00:00:00;APPROVAL;1 STATE ST;1000018;1;STATE ST;101;1;1000090001;40.702765;-74.013349;10004;MN;9;Battery Park City-Lower Manhattan
1269;AA;38248159;RESTAURANT;07/23/2018 00:00:00;07/23/2018 00:00:00;NOT APPROVAL(W/REASON);1 STATE ST;1000018;1;STATE ST;101;1;1000090001;40.702765;-74.013349;10004;MN;9;Battery Park City-Lower Manhattan
1270;AA;38296976;ONE STATE ST, LLC;09/04/2018 00:00:00;09/04/2018 00:00:00;NOT APPROVAL(W/REASON);1 STATE ST;1000018;1;STATE ST;101;1;1000090001;40.702765;-74.013349;10004;MN;9;Battery Park City-Lower Manhattan
1271;G;38333274;DOS TOROS TAQUERIA;09/19/2018 00:00:00;09/19/2018 00:00:00;APPROVAL;1 STATE ST;1000018;1;STATE ST;101;1;1000090001;40.702765;-74.013349;10004;MN;9;Battery Park City-Lower Manhattan
1272;A;38333308;DOS TOROS TAQUERIA;09/19/2018 00:00:00;10/09/2018 00:00:00;APPROVAL;1 STATE ST;1000018;1;STATE ST;101;1;1000090001;40.702765;-74.013349;10004;MN;9;Battery Park City-Lower Manhattan
1273;AA;38352704;25 BROADWAY OFFICE PROPE;10/25/2018 00:00:00;10/25/2018 00:00:00;NOT APPROVAL(W/REASON);1 STATE ST;1000018;1;STATE ST;101;1;1000090001;40.702765;-74.013349;10004;MN;9;Battery Park City-Lower Manhattan
1274;T;38391439;ONE STATE STREET LLC;10/10/2018 00:00:00;10/10/2018 00:00:00;NOT APPROVAL(VIO);1 STATE ST;1000018;1;STATE ST;101;1;1000090001;40.702765;-74.013349;10004;MN;9;Battery Park City-Lower Manhattan
1275;R;88082177;1 STATE STREET LLC;11/26/2018 00:00:00;11/26/2018 00:00:00;APPROVAL;1 STATE STREET PLAZA;1000018;1;STATE STREET PLAZA;101;1;1000090001;40.702765;-74.013349;10004;MN;9;Battery Park City-Lower Manhattan
1276;S;88082193;1 STATE STREET LLC;11/26/2018 00:00:00;11/26/2018 00:00:00;APPROVAL;1 STATE STREET PLAZA;1000018;1;STATE STREET PLAZA;101;1;1000090001;40.702765;-74.013349;10004;MN;9;Battery Park City-Lower Manhattan
1278;B;89061964;ONE STATE STREET LLC;10/23/2018 00:00:00;10/23/2018 00:00:00;NOT APPROVAL(VIO);1 STATE STREET PLAZA;1000018;1;STATE STREET PLAZA;101;1;1000090001;40.702765;-74.013349;10004;MN;9;Battery Park City-Lower Manhattan
1279;P;91005181;ONE STATE ST. LLC.;12/14/2017 00:00:00;12/14/2017 00:00:00;APPROVAL;1 STATE ST;1000018;1;STATE ST;101;1;1000090001;40.702765;-74.013349;10004;MN;9;Battery Park City-Lower Manhattan
1280;P;94053816;ONE STATE ST.LLC;12/14/2017 00:00:00;12/14/2017 00:00:00;NOT APPROVAL(W/REASON);1 STATE ST;1000018;1;STATE ST;101;1;1000090001;40.702765;-74.013349;10004;MN;9;Battery Park City-Lower Manhattan
1281;P;94054038;INTEGRO GROUP;12/27/2017 00:00:00;12/27/2017 00:00:00;APPROVAL;1 STATE ST;1000018;1;STATE ST;101;1;1000090001;40.702765;-74.013349;10004;MN;9;Battery Park City-Lower Manhattan
1283;G;1614031;RFR/SF 17 STATE ST LP;11/24/2014 00:00:00;08/27/2014 00:00:00;NOT APPROVAL(W/REASON);15 STATE ST;1000020;15;STATE ST;101;1;1000090014;40.702893;-74.013979;10004;MN;9;Battery Park City-Lower Manhattan
1287;N;26031898;AXA REINSURANCE;02/02/2018 00:00:00;02/02/2018 00:00:00;NOT APPROVAL(W/REASON);17 STATE ST;1000020;17;STATE ST;101;1;1000090014;40.702893;-74.013979;10004;MN;9;Battery Park City-Lower Manhattan
1293;AA;26138081;RFR REALTY;02/21/2017 00:00:00;02/21/2017 00:00:00;NOT APPROVAL(W/REASON);17 STATE ST;1000020;17;STATE ST;101;1;1000090014;40.702893;-74.013979;10004;MN;9;Battery Park City-Lower Manhattan
1307;N;29184835;RFR REALTY;12/19/2018 00:00:00;12/19/2018 00:00:00;APPROVAL;17 STATE ST;1000020;17;STATE ST;101;1;1000090014;40.702893;-74.013979;10004;MN;9;Battery Park City-Lower Manhattan
1308;N;30001242;17 STATE ST,LLC C/O RFR;08/11/2017 00:00:00;08/11/2017 00:00:00;NOT APPROVAL(W/REASON);17 STATE ST;1000020;17;STATE ST;101;1;1000090014;40.702893;-74.013979;10004;MN;9;Battery Park City-Lower Manhattan
1326;E;31158496;FRFSF 17 STATE ST LP;07/31/2017 00:00:00;07/31/2017 00:00:00;APPROVAL;17 STATE ST;1000020;17;STATE ST;101;1;1000090014;40.702893;-74.013979;10004;MN;9;Battery Park City-Lower Manhattan
1347;N;33034893;17 STATE STREET, LLC;08/24/2016 00:00:00;08/24/2016 00:00:00;APPROVAL;17 STATE ST;1000020;17;STATE ST;101;1;1000090014;40.702893;-74.013979;10004;MN;9;Battery Park City-Lower Manhattan
1352;N;33102500;17  STATE ST LLC/CO RFR;10/13/2015 00:00:00;10/13/2015 00:00:00;APPROVAL;17 STATE ST;1000020;17;STATE ST;101;1;1000090014;40.702893;-74.013979;10004;MN;9;Battery Park City-Lower Manhattan
1354;T;33138694;17 STATE STREET LLC;04/01/2014 00:00:00;04/01/2014 00:00:00;APPROVAL;17 STATE ST;1000020;17;STATE ST;101;1;1000090014;40.702893;-74.013979;10004;MN;9;Battery Park City-Lower Manhattan
1362;AA;34019323;17 STATE ST LLC;01/27/2014 00:00:00;01/27/2014 00:00:00;NOT APPROVAL(W/REASON);17 STATE ST;1000020;17;STATE ST;101;1;1000090014;40.702893;-74.013979;10004;MN;9;Battery Park City-Lower Manhattan
1363;N;34067314;17 STATE ST LLC;10/30/2014 00:00:00;10/30/2014 00:00:00;APPROVAL;17 STATE ST;1000020;17;STATE ST;101;1;1000090014;40.702893;-74.013979;10004;MN;9;Battery Park City-Lower Manhattan
1364;N;34068486;17 STATE ST LLC;06/03/2015 00:00:00;06/03/2015 00:00:00;APPROVAL;17 STATE ST;1000020;17;STATE ST;101;1;1000090014;40.702893;-74.013979;10004;MN;9;Battery Park City-Lower Manhattan
1365;AA;34082487;17 STATE STREET LLC;04/04/2014 00:00:00;04/04/2014 00:00:00;NOT APPROVAL(W/REASON);17 STATE ST;1000020;17;STATE ST;101;1;1000090014;40.702893;-74.013979;10004;MN;9;Battery Park City-Lower Manhattan
1366;AA;34082495;17 STATE STREET LLC;04/04/2014 00:00:00;04/04/2014 00:00:00;NOT APPROVAL(W/REASON);17 STATE ST;1000020;17;STATE ST;101;1;1000090014;40.702893;-74.013979;10004;MN;9;Battery Park City-Lower Manhattan
1367;N;34088815;17 STATE ST LLC;10/30/2014 00:00:00;10/30/2014 00:00:00;APPROVAL;17 STATE ST;1000020;17;STATE ST;101;1;1000090014;40.702893;-74.013979;10004;MN;9;Battery Park City-Lower Manhattan
1368;N;34089052;17 STATE ST LLC;10/30/2014 00:00:00;10/30/2014 00:00:00;APPROVAL;17 STATE ST;1000020;17;STATE ST;101;1;1000090014;40.702893;-74.013979;10004;MN;9;Battery Park City-Lower Manhattan
1369;N;34089078;REALTY LLC;10/30/2014 00:00:00;10/30/2014 00:00:00;APPROVAL;17 STATE ST;1000020;17;STATE ST;101;1;1000090014;40.702893;-74.013979;10004;MN;9;Battery Park City-Lower Manhattan
1370;N;34095042;17 STATE ST LLC;10/21/2014 00:00:00;10/21/2014 00:00:00;APPROVAL;17 STATE ST;1000020;17;STATE ST;101;1;1000090014;40.702893;-74.013979;10004;MN;9;Battery Park City-Lower Manhattan
1371;AA;34141440;17 STATE STREET LLC;06/06/2014 00:00:00;06/06/2014 00:00:00;NOT APPROVAL(W/REASON);17 STATE ST;1000020;17;STATE ST;101;1;1000090014;40.702893;-74.013979;10004;MN;9;Battery Park City-Lower Manhattan
1372;N;34198564;17 STATE ST LLC;02/26/2015 00:00:00;02/26/2015 00:00:00;APPROVAL;17 STATE ST;1000020;17;STATE ST;101;1;1000090014;40.702893;-74.013979;10004;MN;9;Battery Park City-Lower Manhattan
1373;AA;34204859;17 STATE STREET LLC;08/11/2014 00:00:00;08/11/2014 00:00:00;NOT APPROVAL(W/REASON);17 STATE ST;1000020;17;STATE ST;101;1;1000090014;40.702893;-74.013979;10004;MN;9;Battery Park City-Lower Manhattan
1374;AA;34253021;17 STATE STREET LLC;10/01/2014 00:00:00;10/01/2014 00:00:00;NOT APPROVAL(W/REASON);17 STATE ST;1000020;17;STATE ST;101;1;1000090014;40.702893;-74.013979;10004;MN;9;Battery Park City-Lower Manhattan
1375;AA;34255000;17 STATE ST LLC;10/01/2014 00:00:00;10/01/2014 00:00:00;NOT APPROVAL(W/REASON);17 STATE ST;1000020;17;STATE ST;101;1;1000090014;40.702893;-74.013979;10004;MN;9;Battery Park City-Lower Manhattan
1376;N;35015429;17 STATE STREET LLC;02/26/2015 00:00:00;02/26/2015 00:00:00;APPROVAL;17 STATE ST;1000020;17;STATE ST;101;1;1000090014;40.702893;-74.013979;10004;MN;9;Battery Park City-Lower Manhattan
1377;N;35015437;17 STATE ST LLC;06/28/2016 00:00:00;06/28/2016 00:00:00;APPROVAL;17 STATE ST;1000020;17;STATE ST;101;1;1000090014;40.702893;-74.013979;10004;MN;9;Battery Park City-Lower Manhattan
1378;AA;35067859;17 STATE STREET, LLC;03/17/2015 00:00:00;03/17/2015 00:00:00;NOT APPROVAL(W/REASON);17 STATE ST;1000020;17;STATE ST;101;1;1000090014;40.702893;-74.013979;10004;MN;9;Battery Park City-Lower Manhattan
1379;AA;35090794;17 STATE ST LLC;04/07/2015 00:00:00;04/07/2015 00:00:00;NOT APPROVAL(W/REASON);17 STATE ST;1000020;17;STATE ST;101;1;1000090014;40.702893;-74.013979;10004;MN;9;Battery Park City-Lower Manhattan
1380;AA;35134352;17 STATE STREET LLC;05/20/2015 00:00:00;05/20/2015 00:00:00;NOT APPROVAL(W/REASON);17 STATE ST;1000020;17;STATE ST;101;1;1000090014;40.702893;-74.013979;10004;MN;9;Battery Park City-Lower Manhattan
1381;AA;35186741;17 STATE ST LLC;07/16/2015 00:00:00;07/16/2015 00:00:00;NOT APPROVAL(W/REASON);17 STATE ST;1000020;17;STATE ST;101;1;1000090014;40.702893;-74.013979;10004;MN;9;Battery Park City-Lower Manhattan
1382;AA;35186766;17 STATE ST LLC;07/16/2015 00:00:00;07/16/2015 00:00:00;NOT APPROVAL(W/REASON);17 STATE ST;1000020;17;STATE ST;101;1;1000090014;40.702893;-74.013979;10004;MN;9;Battery Park City-Lower Manhattan
1383;A;35212885;PENAQUA MECHANICAL;08/10/2015 00:00:00;08/10/2015 00:00:00;APPROVAL;17 STATE ST;1000020;17;STATE ST;101;1;1000090014;40.702893;-74.013979;10004;MN;9;Battery Park City-Lower Manhattan
1384;N;35317346;SVP OF CONSTRUCTION;04/19/2016 00:00:00;04/19/2016 00:00:00;APPROVAL;17 STATE ST;1000020;17;STATE ST;101;1;1000090014;40.702893;-74.013979;10004;MN;9;Battery Park City-Lower Manhattan
1385;AA;35341395;17 STATE STREET LLC;11/18/2015 00:00:00;11/18/2015 00:00:00;NOT APPROVAL(W/REASON);17 STATE ST;1000020;17;STATE ST;101;1;1000090014;40.702893;-74.013979;10004;MN;9;Battery Park City-Lower Manhattan
1386;AA;35347343;SPADAFORA;11/20/2015 00:00:00;11/20/2015 00:00:00;NOT APPROVAL(W/REASON);17 STATE ST;1000020;17;STATE ST;101;1;1000090014;40.702893;-74.013979;10004;MN;9;Battery Park City-Lower Manhattan
1387;N;35350214;17 STATE STREET LLC;02/02/2018 00:00:00;02/02/2018 00:00:00;APPROVAL;17 STATE ST;1000020;17;STATE ST;101;1;1000090014;40.702893;-74.013979;10004;MN;9;Battery Park City-Lower Manhattan
1388;N;35350255;17 STATE STREET LLC;02/02/2018 00:00:00;02/02/2018 00:00:00;APPROVAL;17 STATE ST;1000020;17;STATE ST;101;1;1000090014;40.702893;-74.013979;10004;MN;9;Battery Park City-Lower Manhattan
1389;N;35358993;17 STSTE STREET LLC;01/06/2016 00:00:00;01/06/2016 00:00:00;APPROVAL;17 STATE ST;1000020;17;STATE ST;101;1;1000090014;40.702893;-74.013979;10004;MN;9;Battery Park City-Lower Manhattan
1390;AA;35391267;17 STATE STREET LLC;12/30/2015 00:00:00;12/30/2015 00:00:00;NOT APPROVAL(W/REASON);17 STATE ST;1000020;17;STATE ST;101;1;1000090014;40.702893;-74.013979;10004;MN;9;Battery Park City-Lower Manhattan
1391;AA;35393370;17 STATE STREET LLC;12/31/2015 00:00:00;12/31/2015 00:00:00;NOT APPROVAL(W/REASON);17 STATE ST;1000020;17;STATE ST;101;1;1000090014;40.702893;-74.013979;10004;MN;9;Battery Park City-Lower Manhattan
1392;AA;36030351;17 STATE STREET, LLC;02/03/2016 00:00:00;02/03/2016 00:00:00;NOT APPROVAL(W/REASON);17 STATE ST;1000020;17;STATE ST;101;1;1000090014;40.702893;-74.013979;10004;MN;9;Battery Park City-Lower Manhattan
1393;N;36067676;17 STATE STREET LLC;08/17/2016 00:00:00;08/17/2016 00:00:00;APPROVAL;17 STATE ST;1000020;17;STATE ST;101;1;1000090014;40.702893;-74.013979;10004;MN;9;Battery Park City-Lower Manhattan
1394;N;36088003;17 STATE ST LLC;01/18/2018 00:00:00;01/18/2018 00:00:00;APPROVAL;17 STATE ST;1000020;17;STATE ST;101;1;1000090014;40.702893;-74.013979;10004;MN;9;Battery Park City-Lower Manhattan
1395;AA;36139103;17 STATE OWNER, LLC;05/10/2016 00:00:00;05/10/2016 00:00:00;NOT APPROVAL(W/REASON);17 STATE ST;1000020;17;STATE ST;101;1;1000090014;40.702893;-74.013979;10004;MN;9;Battery Park City-Lower Manhattan
1396;AA;36175164;17 STATE OWNER LLC;06/03/2016 00:00:00;06/03/2016 00:00:00;NOT APPROVAL(W/REASON);17 STATE ST;1000020;17;STATE ST;101;1;1000090014;40.702893;-74.013979;10004;MN;9;Battery Park City-Lower Manhattan
1397;AA;36212637;17 STATE OWNER LLC;07/01/2016 00:00:00;07/01/2016 00:00:00;NOT APPROVAL(W/REASON);17 STATE ST;1000020;17;STATE ST;101;1;1000090014;40.702893;-74.013979;10004;MN;9;Battery Park City-Lower Manhattan
1398;AA;36347433;17 STATE OWNER, LLC;10/26/2016 00:00:00;10/26/2016 00:00:00;NOT APPROVAL(W/REASON);17 STATE ST;1000020;17;STATE ST;101;1;1000090014;40.702893;-74.013979;10004;MN;9;Battery Park City-Lower Manhattan
1399;N;37057429;17 STATE OWNER;07/26/2017 00:00:00;07/26/2017 00:00:00;APPROVAL;17 STATE ST;1000020;17;STATE ST;101;1;1000090014;40.702893;-74.013979;10004;MN;9;Battery Park City-Lower Manhattan
1400;AA;37075470;SPADAFORA;03/13/2017 00:00:00;03/13/2017 00:00:00;NOT APPROVAL(W/REASON);17 STATE ST;1000020;17;STATE ST;101;1;1000090014;40.702893;-74.013979;10004;MN;9;Battery Park City-Lower Manhattan
1401;N;37094448;17 STATE STREET LLC;06/20/2017 00:00:00;06/20/2017 00:00:00;APPROVAL;17 STATE ST;1000020;17;STATE ST;101;1;1000090014;40.702893;-74.013979;10004;MN;9;Battery Park City-Lower Manhattan
1402;N;37094455;17 STATE STREET LLC;09/22/2017 00:00:00;09/22/2017 00:00:00;APPROVAL;17 STATE ST;1000020;17;STATE ST;101;1;1000090014;40.702893;-74.013979;10004;MN;9;Battery Park City-Lower Manhattan
1403;N;37108321;17 STATE OWNER;07/05/2017 00:00:00;07/05/2017 00:00:00;APPROVAL;17 STATE ST;1000020;17;STATE ST;101;1;1000090014;40.702893;-74.013979;10004;MN;9;Battery Park City-Lower Manhattan
1404;N;37168911;17 STATE ST, LLC;09/22/2017 00:00:00;09/22/2017 00:00:00;APPROVAL;17 STATE ST;1000020;17;STATE ST;101;1;1000090014;40.702893;-74.013979;10004;MN;9;Battery Park City-Lower Manhattan
1405;N;37266103;17 STATE OWNER LLC;05/09/2018 00:00:00;05/09/2018 00:00:00;APPROVAL;17 STATE ST;1000020;17;STATE ST;101;1;1000090014;40.702893;-74.013979;10004;MN;9;Battery Park City-Lower Manhattan
1406;N;37272895;17 STATE STREET LLC;12/18/2018 00:00:00;12/18/2018 00:00:00;NOT APPROVAL(VIO);17 STATE ST;1000020;17;STATE ST;101;1;1000090014;40.702893;-74.013979;10004;MN;9;Battery Park City-Lower Manhattan
1407;AA;37287398;17 STATE OWNER LLC;09/20/2017 00:00:00;09/20/2017 00:00:00;NOT APPROVAL(W/REASON);17 STATE ST;1000020;17;STATE ST;101;1;1000090014;40.702893;-74.013979;10004;MN;9;Battery Park City-Lower Manhattan
1408;AA;37300423;17 STATE OWNER, LLC;10/04/2017 00:00:00;10/04/2017 00:00:00;NOT APPROVAL(W/REASON);17 STATE ST;1000020;17;STATE ST;101;1;1000090014;40.702893;-74.013979;10004;MN;9;Battery Park City-Lower Manhattan
1409;AA;37315421;17 STATE OWNER;10/17/2017 00:00:00;10/17/2017 00:00:00;NOT APPROVAL(W/REASON);17 STATE ST;1000020;17;STATE ST;101;1;1000090014;40.702893;-74.013979;10004;MN;9;Battery Park City-Lower Manhattan
1410;AA;37351582;17 STATE OWNER, LLC;11/20/2017 00:00:00;11/20/2017 00:00:00;NOT APPROVAL(W/REASON);17 STATE ST;1000020;17;STATE ST;101;1;1000090014;40.702893;-74.013979;10004;MN;9;Battery Park City-Lower Manhattan
1411;AA;37371614;14 STATE OWNER LLC;12/08/2017 00:00:00;12/08/2017 00:00:00;NOT APPROVAL(W/REASON);17 STATE ST;1000020;17;STATE ST;101;1;1000090014;40.702893;-74.013979;10004;MN;9;Battery Park City-Lower Manhattan
1412;AA;38000568;17 STATE OWNER, LLC;01/02/2018 00:00:00;01/02/2018 00:00:00;NOT APPROVAL(W/REASON);17 STATE ST;1000020;17;STATE ST;101;1;1000090014;40.702893;-74.013979;10004;MN;9;Battery Park City-Lower Manhattan
1413;T;38065835;17 STATE OWNER;09/22/2017 00:00:00;09/22/2017 00:00:00;NOT APPROVAL(VIO);17 STATE ST;1000020;17;STATE ST;101;1;1000090014;40.702893;-74.013979;10004;MN;9;Battery Park City-Lower Manhattan
1414;AA;38075024;17 STATE OWNER LLC;03/06/2018 00:00:00;03/06/2018 00:00:00;NOT APPROVAL(W/REASON);17 STATE ST;1000020;17;STATE ST;101;1;1000090014;40.702893;-74.013979;10004;MN;9;Battery Park City-Lower Manhattan
1415;AA;38075040;17 STATE OWNER LLC;03/06/2018 00:00:00;03/06/2018 00:00:00;NOT APPROVAL(W/REASON);17 STATE ST;1000020;17;STATE ST;101;1;1000090014;40.702893;-74.013979;10004;MN;9;Battery Park City-Lower Manhattan
1416;AA;38097465;17 STATE OWNER LLC;03/27/2018 00:00:00;03/27/2018 00:00:00;NOT APPROVAL(W/REASON);17 STATE ST;1000020;17;STATE ST;101;1;1000090014;40.702893;-74.013979;10004;MN;9;Battery Park City-Lower Manhattan
1417;AA;38160081;17 STATE OWNER, LLC;05/10/2018 00:00:00;05/11/2018 00:00:00;NOT APPROVAL(W/REASON);17 STATE ST;1000020;17;STATE ST;101;1;1000090014;40.702893;-74.013979;10004;MN;9;Battery Park City-Lower Manhattan
1418;AA;38200911;17 STATE OWNER LLC;06/11/2018 00:00:00;06/11/2018 00:00:00;NOT APPROVAL(W/REASON);17 STATE ST;1000020;17;STATE ST;101;1;1000090014;40.702893;-74.013979;10004;MN;9;Battery Park City-Lower Manhattan
1419;AA;38204046;17 STATE OWNER, LLC;06/13/2018 00:00:00;06/13/2018 00:00:00;NOT APPROVAL(W/REASON);17 STATE ST;1000020;17;STATE ST;101;1;1000090014;40.702893;-74.013979;10004;MN;9;Battery Park City-Lower Manhattan
1420;N;38210720;17 STATE OWNER LLC;05/22/2018 00:00:00;05/22/2018 00:00:00;NOT APPROVAL(VIO);17 STATE ST;1000020;17;STATE ST;101;1;1000090014;40.702893;-74.013979;10004;MN;9;Battery Park City-Lower Manhattan
1421;AA;38218384;17 STATE OWNER LLC;06/25/2018 00:00:00;06/25/2018 00:00:00;NOT APPROVAL(W/REASON);17 STATE ST;1000020;17;STATE ST;101;1;1000090014;40.702893;-74.013979;10004;MN;9;Battery Park City-Lower Manhattan
1422;AA;38222287;17 STATE OWNER, LLC;06/27/2018 00:00:00;06/27/2018 00:00:00;NOT APPROVAL(W/REASON);17 STATE ST;1000020;17;STATE ST;101;1;1000090014;40.702893;-74.013979;10004;MN;9;Battery Park City-Lower Manhattan
1423;AA;38254751;17 STATE OWNER, LLC;07/26/2018 00:00:00;07/26/2018 00:00:00;NOT APPROVAL(W/REASON);17 STATE ST;1000020;17;STATE ST;101;1;1000090014;40.702893;-74.013979;10004;MN;9;Battery Park City-Lower Manhattan
1424;AA;38257655;17 STATE OWNER LLC;07/30/2018 00:00:00;07/30/2018 00:00:00;NOT APPROVAL(W/REASON);17 STATE ST;1000020;17;STATE ST;101;1;1000090014;40.702893;-74.013979;10004;MN;9;Battery Park City-Lower Manhattan
1425;N;38269924;17 STATE OWNER, LLC;09/17/2018 00:00:00;09/17/2018 00:00:00;NOT APPROVAL(VIO);17 STATE ST;1000020;17;STATE ST;101;1;1000090014;40.702893;-74.013979;10004;MN;9;Battery Park City-Lower Manhattan
1426;AA;38332003;17 STATE OWNER, LLC;10/10/2018 00:00:00;10/10/2018 00:00:00;NOT APPROVAL(W/REASON);17 STATE ST;1000020;17;STATE ST;101;1;1000090014;40.702893;-74.013979;10004;MN;9;Battery Park City-Lower Manhattan
1427;AA;38339370;17 STATE OWNER LLC;10/15/2018 00:00:00;10/15/2018 00:00:00;NOT APPROVAL(W/REASON);17 STATE ST;1000020;17;STATE ST;101;1;1000090014;40.702893;-74.013979;10004;MN;9;Battery Park City-Lower Manhattan
1428;AA;38349767;17 STATE OWNER LLC;10/25/2018 00:00:00;10/25/2018 00:00:00;NOT APPROVAL(W/REASON);17 STATE ST;1000020;17;STATE ST;101;1;1000090014;40.702893;-74.013979;10004;MN;9;Battery Park City-Lower Manhattan
1429;AA;38384988;17 STATE OWNER LLC;11/28/2018 00:00:00;11/28/2018 00:00:00;NOT APPROVAL(W/REASON);17 STATE ST;1000020;17;STATE ST;101;1;1000090014;40.702893;-74.013979;10004;MN;9;Battery Park City-Lower Manhattan
1430;AA;38397782;17 STATE OWNER;12/10/2018 00:00:00;12/10/2018 00:00:00;NOT APPROVAL(W/REASON);17 STATE ST;1000020;17;STATE ST;101;1;1000090014;40.702893;-74.013979;10004;MN;9;Battery Park City-Lower Manhattan
1431;N;39000815;17 ST LLC/ RFR REALTY;12/12/2018 00:00:00;12/12/2018 00:00:00;NOT APPROVAL(VIO);17 STATE ST;1000020;17;STATE ST;101;1;1000090014;40.702893;-74.013979;10004;MN;9;Battery Park City-Lower Manhattan
1432;N;39000849;17 STATE ST LLC / RFR;12/12/2018 00:00:00;12/12/2018 00:00:00;NOT APPROVAL(VIO);17 STATE ST;1000020;17;STATE ST;101;1;1000090014;40.702893;-74.013979;10004;MN;9;Battery Park City-Lower Manhattan
1433;S;88096649;17 STATE ST LLC;12/05/2018 00:00:00;12/05/2018 00:00:00;APPROVAL;17 STATE ST;1000020;17;STATE ST;101;1;1000090014;40.702893;-74.013979;10004;MN;9;Battery Park City-Lower Manhattan
1434;B;88104757;RFR SF 17 STATE ST.LP;11/13/2018 00:00:00;06/12/2018 00:00:00;NOV AND VIO(NOV HOLD);17 STATE ST;1000020;17;STATE ST;101;1;1000090014;40.702893;-74.013979;10004;MN;9;Battery Park City-Lower Manhattan
1436;P;88112107;17 STATE ST LLC;11/14/2018 00:00:00;11/14/2018 00:00:00;APPROVAL;17 STATE ST;1000020;17;STATE ST;101;1;1000090014;40.702893;-74.013979;10004;MN;9;Battery Park City-Lower Manhattan
1437;R;89006670;17 STATE ST LLC;11/05/2018 00:00:00;11/05/2018 00:00:00;NOV(HOLD);17 STATE ST;1000020;17;STATE ST;101;1;1000090014;40.702893;-74.013979;10004;MN;9;Battery Park City-Lower Manhattan
1438;P;94023033;RFR REALTY LLC;11/13/2018 00:00:00;11/13/2018 00:00:00;APPROVAL;17 STATE ST;1000020;17;STATE ST;101;1;1000090014;40.702893;-74.013979;10004;MN;9;Battery Park City-Lower Manhattan
1439;P;94023041;RFR REALTY LLC;12/05/2018 00:00:00;12/05/2018 00:00:00;APPROVAL;17 STATE ST;1000020;17;STATE ST;101;1;1000090014;40.702893;-74.013979;10004;MN;9;Battery Park City-Lower Manhattan
1440;P;94023074;I.P SOFT;12/05/2018 00:00:00;12/05/2018 00:00:00;APPROVAL;17 STATE ST;1000020;17;STATE ST;101;1;1000090014;40.702893;-74.013979;10004;MN;9;Battery Park City-Lower Manhattan
1441;P;99007676;HANOVER INSURANCE;11/13/2018 00:00:00;11/13/2018 00:00:00;APPROVAL;17 STATE ST;1000020;17;STATE ST;101;1;1000090014;40.702893;-74.013979;10004;MN;9;Battery Park City-Lower Manhattan
1442;P;5354436;STATE WHITEHALL CO;12/10/2018 00:00:00;12/10/2018 00:00:00;APPROVAL;24 STATE ST;1000021;24;STATE ST;101;1;1000090029;40.703372;-74.013771;10004;MN;9;Battery Park City-Lower Manhattan
1443;P;20051215;HAPOLIN SECURITIES.;01/16/2018 00:00:00;01/16/2018 00:00:00;NOT APPROVAL(W/REASON);24 STATE ST;1000021;24;STATE ST;101;1;1000090029;40.703372;-74.013771;10004;MN;9;Battery Park City-Lower Manhattan
1456;P;24092645;W E S;01/16/2018 00:00:00;01/16/2018 00:00:00;APPROVAL;24 STATE ST;1000021;24;STATE ST;101;1;1000090029;40.703372;-74.013771;10004;MN;9;Battery Park City-Lower Manhattan
1471;B;26086348;HUGHES HUBBARD & REED;08/17/2018 00:00:00;08/17/2018 00:00:00;APPROVAL;24 STATE ST;1000021;24;STATE ST;101;1;1000090029;40.703372;-74.013771;10004;MN;9;Battery Park City-Lower Manhattan
1472;P;26158832;THE CHARTWELL LAW;11/14/2018 00:00:00;11/14/2018 00:00:00;APPROVAL;24 STATE ST;1000021;24;STATE ST;101;1;1000090029;40.703372;-74.013771;10004;MN;9;Battery Park City-Lower Manhattan
1473;AA;26171967;RUDIN MANAGEMENT;07/17/2018 00:00:00;07/17/2018 00:00:00;NOT APPROVAL(W/REASON);1 BATTERY PARK PLZ;1000021;1;BATTERY PARK PLZ;101;1;1000090029;40.703372;-74.013771;10004;MN;9;Battery Park City-Lower Manhattan
1475;P;27185776;CONDON O'MEARA;01/16/2018 00:00:00;01/16/2018 00:00:00;APPROVAL;24 STATE ST;1000021;24;STATE ST;101;1;1000090029;40.703372;-74.013771;10004;MN;9;Battery Park City-Lower Manhattan
1478;E;28011310;RUDIN MGNT CO INC;12/06/2018 00:00:00;12/06/2018 00:00:00;APPROVAL;24 STATE ST;1000021;24;STATE ST;101;1;1000090029;40.703372;-74.013771;10004;MN;9;Battery Park City-Lower Manhattan
1488;B;31087182;RUDIN MGMT CO, INC;08/17/2018 00:00:00;11/16/2016 00:00:00;APPROVAL;24 STATE ST;1000021;24;STATE ST;101;1;1000090029;40.703372;-74.013771;10004;MN;9;Battery Park City-Lower Manhattan
1497;N;32188252;RUDIN MGMT-THE STATE WHI;03/06/2014 00:00:00;03/06/2014 00:00:00;APPROVAL;24 STATE ST;1000021;24;STATE ST;101;1;1000090029;40.703372;-74.013771;10004;MN;9;Battery Park City-Lower Manhattan
1504;N;33035262;RUDIN MGT;11/25/2016 00:00:00;11/25/2016 00:00:00;APPROVAL;24 STATE ST;1000021;24;STATE ST;101;1;1000090029;40.703372;-74.013771;10004;MN;9;Battery Park City-Lower Manhattan
1506;B;33046145;SEWARD & KISSEL LLP;08/30/2018 00:00:00;08/30/2018 00:00:00;APPROVAL;22 WHITEHALL ST;1000021;22;WHITEHALL ST;101;1;1000090029;40.703372;-74.013771;10004;MN;9;Battery Park City-Lower Manhattan
1510;N;33114372;RUDIN MGMT A/A/F STATE;02/23/2016 00:00:00;02/23/2016 00:00:00;APPROVAL;24 STATE ST;1000021;24;STATE ST;101;1;1000090029;40.703372;-74.013771;10004;MN;9;Battery Park City-Lower Manhattan
1512;N;33308495;RUDIN MGNT;05/22/2017 00:00:00;05/22/2017 00:00:00;APPROVAL;24 STATE ST;1000021;24;STATE ST;101;1;1000090029;40.703372;-74.013771;10004;MN;9;Battery Park City-Lower Manhattan
1513;N;34003269;RUDIN MGNT A/A/F;05/28/2014 00:00:00;05/28/2014 00:00:00;APPROVAL;24 STATE ST;1000021;24;STATE ST;101;1;1000090029;40.703372;-74.013771;10004;MN;9;Battery Park City-Lower Manhattan
1514;AA;34003905;RUDIN MGMT AAF THE STATE;01/08/2014 00:00:00;01/08/2014 00:00:00;NOT APPROVAL(W/REASON);24 STATE ST;1000021;24;STATE ST;101;1;1000090029;40.703372;-74.013771;10004;MN;9;Battery Park City-Lower Manhattan
1515;N;34033803;RUDIN MGNT;03/06/2014 00:00:00;03/06/2014 00:00:00;APPROVAL;24 STATE ST;1000021;24;STATE ST;101;1;1000090029;40.703372;-74.013771;10004;MN;9;Battery Park City-Lower Manhattan
1516;T;34063867;RUDEN MGMT A/A/F;08/05/2014 00:00:00;08/05/2014 00:00:00;APPROVAL;24 STATE ST;1000021;24;STATE ST;101;1;1000090029;40.703372;-74.013771;10004;MN;9;Battery Park City-Lower Manhattan
1517;N;34169904;RUDIN MGNT;09/08/2014 00:00:00;09/08/2014 00:00:00;APPROVAL;24 STATE ST;1000021;24;STATE ST;101;1;1000090029;40.703372;-74.013771;10004;MN;9;Battery Park City-Lower Manhattan
1518;AA;34188151;RUDIN MANAGEMENT;07/24/2014 00:00:00;07/24/2014 00:00:00;NOT APPROVAL(W/REASON);24 STATE ST;1000021;24;STATE ST;101;1;1000090029;40.703372;-74.013771;10004;MN;9;Battery Park City-Lower Manhattan
1519;AA;34267724;RUDIN MGMT CO;10/15/2014 00:00:00;10/15/2014 00:00:00;NOT APPROVAL(W/REASON);24 STATE ST;1000021;24;STATE ST;101;1;1000090029;40.703372;-74.013771;10004;MN;9;Battery Park City-Lower Manhattan
1520;AA;34294868;RUDIN MGMT CO;11/14/2014 00:00:00;11/14/2014 00:00:00;NOT APPROVAL(W/REASON);24 STATE ST;1000021;24;STATE ST;101;1;1000090029;40.703372;-74.013771;10004;MN;9;Battery Park City-Lower Manhattan
1521;AA;34294926;RUDIN MGMT;11/14/2014 00:00:00;11/14/2014 00:00:00;NOT APPROVAL(W/REASON);24 STATE ST;1000021;24;STATE ST;101;1;1000090029;40.703372;-74.013771;10004;MN;9;Battery Park City-Lower Manhattan
1522;AA;34294942;RUDIN MGMT;11/14/2014 00:00:00;11/14/2014 00:00:00;NOT APPROVAL(W/REASON);24 STATE ST;1000021;24;STATE ST;101;1;1000090029;40.703372;-74.013771;10004;MN;9;Battery Park City-Lower Manhattan
1523;N;34296608;RUDIN MGMT A/A/F THE STA;12/27/2017 00:00:00;12/27/2017 00:00:00;APPROVAL;24 STATE ST;1000021;24;STATE ST;101;1;1000090029;40.703372;-74.013771;10004;MN;9;Battery Park City-Lower Manhattan
1524;AA;34302653;RUDIN MGMT CO INC;11/24/2014 00:00:00;11/24/2014 00:00:00;NOT APPROVAL(W/REASON);24 STATE ST;1000021;24;STATE ST;101;1;1000090029;40.703372;-74.013771;10004;MN;9;Battery Park City-Lower Manhattan
1525;AA;34324285;RUDIN MANAGEMENT;12/17/2014 00:00:00;12/17/2014 00:00:00;NOT APPROVAL(W/REASON);1 BATTERY PARK PLZ;1000021;1;BATTERY PARK PLZ;101;1;1000090029;40.703372;-74.013771;10004;MN;9;Battery Park City-Lower Manhattan
1526;AA;35022722;FIRECOM INC;01/29/2015 00:00:00;01/29/2015 00:00:00;NOT APPROVAL(W/REASON);24 STATE ST;1000021;24;STATE ST;101;1;1000090029;40.703372;-74.013771;10004;MN;9;Battery Park City-Lower Manhattan
1527;N;35024892;RUDIN MGNT;02/20/2015 00:00:00;02/20/2015 00:00:00;APPROVAL;24 STATE ST;1000021;24;STATE ST;101;1;1000090029;40.703372;-74.013771;10004;MN;9;Battery Park City-Lower Manhattan
1528;N;35031707;RUDIN MGNT;02/24/2015 00:00:00;02/24/2015 00:00:00;APPROVAL;24 STATE ST;1000021;24;STATE ST;101;1;1000090029;40.703372;-74.013771;10004;MN;9;Battery Park City-Lower Manhattan
1529;S;35058387;INFINITY MECHANICAL INC.;01/20/2016 00:00:00;01/20/2016 00:00:00;APPROVAL;24 STATE ST;1000021;24;STATE ST;101;1;1000090029;40.703372;-74.013771;10004;MN;9;Battery Park City-Lower Manhattan
1530;N;35059476;RUDIN MGNT;07/10/2015 00:00:00;07/10/2015 00:00:00;APPROVAL;24 STATE ST;1000021;24;STATE ST;101;1;1000090029;40.703372;-74.013771;10004;MN;9;Battery Park City-Lower Manhattan
1531;AA;35092576;EUGENE HENNESSY;07/06/2015 00:00:00;07/06/2015 00:00:00;NOT APPROVAL(W/REASON);24 STATE ST;1000021;24;STATE ST;101;1;1000090029;40.703372;-74.013771;10004;MN;9;Battery Park City-Lower Manhattan
1532;N;35176668;RUDIN MANAGEMENT;05/22/2017 00:00:00;05/22/2017 00:00:00;APPROVAL;24 STATE ST;1000021;24;STATE ST;101;1;1000090029;40.703372;-74.013771;10004;MN;9;Battery Park City-Lower Manhattan
1533;AA;35187954;RUDIN MANAGEMENT;07/17/2015 00:00:00;07/17/2015 00:00:00;NOT APPROVAL(W/REASON);24 STATE ST;1000021;24;STATE ST;101;1;1000090029;40.703372;-74.013771;10004;MN;9;Battery Park City-Lower Manhattan
1534;N;35200534;RUDIN MGMT CO INC;06/28/2017 00:00:00;06/28/2017 00:00:00;APPROVAL;24 STATE ST;1000021;24;STATE ST;101;1;1000090029;40.703372;-74.013771;10004;MN;9;Battery Park City-Lower Manhattan
1535;AA;35220839;HUGHES HUBBARD REED;08/19/2015 00:00:00;08/19/2015 00:00:00;NOT APPROVAL(W/REASON);24 STATE ST;1000021;24;STATE ST;101;1;1000090029;40.703372;-74.013771;10004;MN;9;Battery Park City-Lower Manhattan
1536;B;35271634;SEWARD & KISSEL LLP;09/29/2015 00:00:00;09/29/2015 00:00:00;APPROVAL;1 BATTERY PARK PLZ;1000021;1;BATTERY PARK PLZ;101;1;1000090029;40.703372;-74.013771;10004;MN;9;Battery Park City-Lower Manhattan
1537;P;35273325;GORDON & REES LLP;12/10/2018 00:00:00;12/10/2018 00:00:00;APPROVAL;24 STATE ST;1000021;24;STATE ST;101;1;1000090029;40.703372;-74.013771;10004;MN;9;Battery Park City-Lower Manhattan
1538;AA;35275395;RUDIN MGMT;10/02/2015 00:00:00;10/02/2015 00:00:00;NOT APPROVAL(W/REASON);24 STATE ST;1000021;24;STATE ST;101;1;1000090029;40.703372;-74.013771;10004;MN;9;Battery Park City-Lower Manhattan
1539;AA;35300490;RUDIN MANAGEMENT;10/21/2015 00:00:00;10/21/2015 00:00:00;NOT APPROVAL(W/REASON);24 STATE ST;1000021;24;STATE ST;101;1;1000090029;40.703372;-74.013771;10004;MN;9;Battery Park City-Lower Manhattan
1540;N;35323138;RUDIN MGMT;10/28/2015 00:00:00;10/28/2015 00:00:00;APPROVAL;24 STATE ST;1000021;24;STATE ST;101;1;1000090029;40.703372;-74.013771;10004;MN;9;Battery Park City-Lower Manhattan
1541;N;35325612;RUDIN MANAGEMENT A/A/F;07/19/2017 00:00:00;07/19/2017 00:00:00;APPROVAL;24 STATE ST;1000021;24;STATE ST;101;1;1000090029;40.703372;-74.013771;10004;MN;9;Battery Park City-Lower Manhattan
1542;B;35358589;HUGHES HUBBARD REED LLP;11/24/2015 00:00:00;11/24/2015 00:00:00;APPROVAL;24 STATE ST;1000021;24;STATE ST;101;1;1000090029;40.703372;-74.013771;10004;MN;9;Battery Park City-Lower Manhattan
1543;AA;35365345;RUDIN MANAGEMENT A.A.F T;12/08/2015 00:00:00;12/08/2015 00:00:00;NOT APPROVAL(W/REASON);24 STATE ST;1000021;24;STATE ST;101;1;1000090029;40.703372;-74.013771;10004;MN;9;Battery Park City-Lower Manhattan
1544;AA;35369768;RUDIN MANAGEMENT A.A.F T;12/10/2015 00:00:00;12/10/2015 00:00:00;NOT APPROVAL(W/REASON);24 STATE ST;1000021;24;STATE ST;101;1;1000090029;40.703372;-74.013771;10004;MN;9;Battery Park City-Lower Manhattan
1545;N;35384338;RUDIN MANAGEMENT;01/27/2016 00:00:00;01/27/2016 00:00:00;APPROVAL;1 BATTERY PARK PLZ;1000021;1;BATTERY PARK PLZ;101;1;1000090029;40.703372;-74.013771;10004;MN;9;Battery Park City-Lower Manhattan
1546;N;35387026;RUDIN MANAGEMENT;10/26/2016 00:00:00;10/26/2016 00:00:00;APPROVAL;24 STATE ST;1000021;24;STATE ST;101;1;1000090029;40.703372;-74.013771;10004;MN;9;Battery Park City-Lower Manhattan
1547;G;35387687;HUGHES HUBBARD REED;11/10/2015 00:00:00;11/10/2015 00:00:00;APPROVAL;24 STATE ST;1000021;24;STATE ST;101;1;1000090029;40.703372;-74.013771;10004;MN;9;Battery Park City-Lower Manhattan
1548;G;35387695;HUGES HUBBARD REED;11/10/2015 00:00:00;11/10/2015 00:00:00;APPROVAL;24 STATE ST;1000021;24;STATE ST;101;1;1000090029;40.703372;-74.013771;10004;MN;9;Battery Park City-Lower Manhattan
1549;T;36011450;RUDIN MANAGEMENT;07/16/2018 00:00:00;07/16/2018 00:00:00;APPROVAL;24 STATE ST;1000021;24;STATE ST;101;1;1000090029;40.703372;-74.013771;10004;MN;9;Battery Park City-Lower Manhattan
1550;AA;36132629;RUDIN MGMT AAF;05/03/2016 00:00:00;05/03/2016 00:00:00;NOT APPROVAL(W/REASON);24 STATE ST;1000021;24;STATE ST;101;1;1000090029;40.703372;-74.013771;10004;MN;9;Battery Park City-Lower Manhattan
1551;N;36139889;RUDIN MGMNT A/A/F STATE;11/03/2016 00:00:00;11/03/2016 00:00:00;APPROVAL;24 STATE ST;1000021;24;STATE ST;101;1;1000090029;40.703372;-74.013771;10004;MN;9;Battery Park City-Lower Manhattan
1552;A;36169506;HUGHES HUBBARD REED;11/10/2015 00:00:00;11/10/2015 00:00:00;NOT APPROVAL(W/REASON);24 STATE ST;1000021;24;STATE ST;101;1;1000090029;40.703372;-74.013771;10004;MN;9;Battery Park City-Lower Manhattan
1553;N;36293736;RUDIN MGMT THE STATE;11/03/2016 00:00:00;11/03/2016 00:00:00;APPROVAL;24 STATE ST;1000021;24;STATE ST;101;1;1000090029;40.703372;-74.013771;10004;MN;9;Battery Park City-Lower Manhattan
1554;N;36304061;RUDIN MGMT A/A/F;12/21/2016 00:00:00;12/21/2016 00:00:00;APPROVAL;24 STATE ST;1000021;24;STATE ST;101;1;1000090029;40.703372;-74.013771;10004;MN;9;Battery Park City-Lower Manhattan
1555;AA;36373926;RUDIN MANAGEMENT-AS AGEN;11/17/2016 00:00:00;11/17/2016 00:00:00;NOT APPROVAL(W/REASON);24 STATE ST;1000021;24;STATE ST;101;1;1000090029;40.703372;-74.013771;10004;MN;9;Battery Park City-Lower Manhattan
1556;N;37034568;RUDIN MGMT;01/09/2018 00:00:00;01/09/2018 00:00:00;APPROVAL;24 STATE ST;1000021;24;STATE ST;101;1;1000090029;40.703372;-74.013771;10004;MN;9;Battery Park City-Lower Manhattan
1557;AA;37123577;RUDIN MANAGEMENT;04/27/2017 00:00:00;04/27/2017 00:00:00;NOT APPROVAL(W/REASON);24 STATE ST;1000021;24;STATE ST;101;1;1000090029;40.703372;-74.013771;10004;MN;9;Battery Park City-Lower Manhattan
1558;AA;37135704;RUDIN MGMT-AS AGENTS FOR;05/05/2017 00:00:00;05/05/2017 00:00:00;NOT APPROVAL(W/REASON);24 STATE ST;1000021;24;STATE ST;101;1;1000090029;40.703372;-74.013771;10004;MN;9;Battery Park City-Lower Manhattan
1559;N;37183704;RUDIN MANAGEMENT;09/27/2017 00:00:00;09/27/2017 00:00:00;APPROVAL;24 STATE ST;1000021;24;STATE ST;101;1;1000090029;40.703372;-74.013771;10004;MN;9;Battery Park City-Lower Manhattan
1560;AA;37205358;RUDIN MGMT -AS AGENTS FO;07/06/2017 00:00:00;07/06/2017 00:00:00;NOT APPROVAL(W/REASON);24 STATE ST;1000021;24;STATE ST;101;1;1000090029;40.703372;-74.013771;10004;MN;9;Battery Park City-Lower Manhattan
1561;N;37207842;RUDIN MGMT A/A/F STATE W;09/27/2017 00:00:00;09/27/2017 00:00:00;APPROVAL;24 STATE ST;1000021;24;STATE ST;101;1;1000090029;40.703372;-74.013771;10004;MN;9;Battery Park City-Lower Manhattan
1562;AA;37292653;RUDIN MGMT-AS AGENTS FOR;09/26/2017 00:00:00;09/26/2017 00:00:00;NOT APPROVAL(W/REASON);24 STATE ST;1000021;24;STATE ST;101;1;1000090029;40.703372;-74.013771;10004;MN;9;Battery Park City-Lower Manhattan
1563;AA;37315264;EUGENE HENNESSY;10/17/2017 00:00:00;10/17/2017 00:00:00;NOT APPROVAL(W/REASON);1 BATTERY PARK PLZ;1000021;1;BATTERY PARK PLZ;101;1;1000090029;40.703372;-74.013771;10004;MN;9;Battery Park City-Lower Manhattan
1564;N;37323342;RUDIN MGMT A/A/F THE STA;11/16/2017 00:00:00;11/16/2017 00:00:00;APPROVAL;24 STATE ST;1000021;24;STATE ST;101;1;1000090029;40.703372;-74.013771;10004;MN;9;Battery Park City-Lower Manhattan
1565;AA;37325313;RUDIN MANAGEMENT-AS AGEN;10/26/2017 00:00:00;10/26/2017 00:00:00;NOT APPROVAL(W/REASON);24 STATE ST;1000021;24;STATE ST;101;1;1000090029;40.703372;-74.013771;10004;MN;9;Battery Park City-Lower Manhattan
1566;AA;37325362;RUDIN MANAGEMENT - AS AG;10/26/2017 00:00:00;10/26/2017 00:00:00;NOT APPROVAL(W/REASON);24 STATE ST;1000021;24;STATE ST;101;1;1000090029;40.703372;-74.013771;10004;MN;9;Battery Park City-Lower Manhattan
1567;N;37375698;RUDIN MGMT A/A/F;01/30/2018 00:00:00;01/30/2018 00:00:00;APPROVAL;24 STATE ST;1000021;24;STATE ST;101;1;1000090029;40.703372;-74.013771;10004;MN;9;Battery Park City-Lower Manhattan
1568;AA;38011524;RUDIN MANAGEMENT-AS AGEN;01/16/2018 00:00:00;01/16/2018 00:00:00;NOT APPROVAL(W/REASON);24 STATE ST;1000021;24;STATE ST;101;1;1000090029;40.703372;-74.013771;10004;MN;9;Battery Park City-Lower Manhattan
1569;AA;38012977;RUDIN MANAGEMENT - AS AG;01/17/2018 00:00:00;01/17/2018 00:00:00;NOT APPROVAL(W/REASON);24 STATE ST;1000021;24;STATE ST;101;1;1000090029;40.703372;-74.013771;10004;MN;9;Battery Park City-Lower Manhattan
1570;N;38042529;RUDIN MGMT A/A/F THE STA;09/13/2018 00:00:00;09/13/2018 00:00:00;NOT APPROVAL(W/REASON);24 STATE ST;1000021;24;STATE ST;101;1;1000090029;40.703372;-74.013771;10004;MN;9;Battery Park City-Lower Manhattan
1571;AA;38060919;RUDIN MANAGEMENT;02/23/2018 00:00:00;02/23/2018 00:00:00;NOT APPROVAL(W/REASON);24 STATE ST;1000021;24;STATE ST;101;1;1000090029;40.703372;-74.013771;10004;MN;9;Battery Park City-Lower Manhattan
1572;AA;38060935;RUDIN MANAGEMENT;02/23/2018 00:00:00;02/23/2018 00:00:00;NOT APPROVAL(W/REASON);24 STATE ST;1000021;24;STATE ST;101;1;1000090029;40.703372;-74.013771;10004;MN;9;Battery Park City-Lower Manhattan
1573;B;38061594;MERIDIAN;02/06/2018 00:00:00;02/06/2018 00:00:00;APPROVAL;1 BATTERY PARK PLZ;1000021;1;BATTERY PARK PLZ;101;1;1000090029;40.703372;-74.013771;10004;MN;9;Battery Park City-Lower Manhattan
1574;AA;38129128;RUDIN MANAGEMENT;04/19/2018 00:00:00;04/19/2018 00:00:00;NOT APPROVAL(W/REASON);24 STATE ST;1000021;24;STATE ST;101;1;1000090029;40.703372;-74.013771;10004;MN;9;Battery Park City-Lower Manhattan
1575;N;38207239;RUDIN MGMT A/A/F STATE;06/25/2018 00:00:00;06/25/2018 00:00:00;APPROVAL;24 STATE ST;1000021;24;STATE ST;101;1;1000090029;40.703372;-74.013771;10004;MN;9;Battery Park City-Lower Manhattan
1576;N;38241378;RUDIN MGMTAAF1 WHITEHALL;07/18/2018 00:00:00;07/18/2018 00:00:00;APPROVAL;24 STATE ST;1000021;24;STATE ST;101;1;1000090029;40.703372;-74.013771;10004;MN;9;Battery Park City-Lower Manhattan
1577;N;38241519;RUDIN MGMT AAF STATE WHI;07/18/2018 00:00:00;07/18/2018 00:00:00;APPROVAL;24 STATE ST;1000021;24;STATE ST;101;1;1000090029;40.703372;-74.013771;10004;MN;9;Battery Park City-Lower Manhattan
1578;N;38241568;RUDIN MGMT AAF STATE WHI;09/05/2018 00:00:00;09/05/2018 00:00:00;APPROVAL;24 STATE ST;1000021;24;STATE ST;101;1;1000090029;40.703372;-74.013771;10004;MN;9;Battery Park City-Lower Manhattan
1579;N;38259420;RUDIN MGMT;07/26/2018 00:00:00;07/26/2018 00:00:00;APPROVAL;24 STATE ST;1000021;24;STATE ST;101;1;1000090029;40.703372;-74.013771;10004;MN;9;Battery Park City-Lower Manhattan
1580;N;38259438;RUDIN MGMT;07/26/2018 00:00:00;07/26/2018 00:00:00;APPROVAL;24 STATE ST;1000021;24;STATE ST;101;1;1000090029;40.703372;-74.013771;10004;MN;9;Battery Park City-Lower Manhattan
1581;AA;38262077;RUDIN MANAGEMENT;08/01/2018 00:00:00;08/01/2018 00:00:00;NOT APPROVAL(W/REASON);24 STATE ST;1000021;24;STATE ST;101;1;1000090029;40.703372;-74.013771;10004;MN;9;Battery Park City-Lower Manhattan
1582;A;38267357;PENAVA MECHANICAL CORP;08/04/2018 00:00:00;08/04/2018 00:00:00;APPROVAL;1 BATTERY PARK PLZ;1000021;1;BATTERY PARK PLZ;101;1;1000090029;40.703372;-74.013771;10004;MN;9;Battery Park City-Lower Manhattan
1583;AA;38316931;RUDIN MANAGEMENT;09/24/2018 00:00:00;09/24/2018 00:00:00;NOT APPROVAL(W/REASON);24 STATE ST;1000021;24;STATE ST;101;1;1000090029;40.703372;-74.013771;10004;MN;9;Battery Park City-Lower Manhattan
1584;B;38324810;SEWARD & KISSEL LLP;09/27/2018 00:00:00;09/27/2018 00:00:00;APPROVAL;1 BATTERY PARK PLZ;1000021;1;BATTERY PARK PLZ;101;1;1000090029;40.703372;-74.013771;10004;MN;9;Battery Park City-Lower Manhattan
1585;B;38327029;WALDEN MACHT & HARAN LLC;09/25/2018 00:00:00;09/25/2018 00:00:00;APPROVAL;1 BATTERY PARK PLZ;1000021;1;BATTERY PARK PLZ;101;1;1000090029;40.703372;-74.013771;10004;MN;9;Battery Park City-Lower Manhattan
1586;N;38343349;RUDIN MGMT A/A/F THE STA;10/12/2018 00:00:00;10/12/2018 00:00:00;APPROVAL;24 STATE ST;1000021;24;STATE ST;101;1;1000090029;40.703372;-74.013771;10004;MN;9;Battery Park City-Lower Manhattan
1587;P;38400305;STATE WHITEHALL CO.;12/10/2018 00:00:00;12/10/2018 00:00:00;APPROVAL;24 STATE ST;1000021;24;STATE ST;101;1;1000090029;40.703372;-74.013771;10004;MN;9;Battery Park City-Lower Manhattan
1588;R;84002997;STATE WHITEHALL CO.;12/10/2018 00:00:00;12/10/2018 00:00:00;NOV(HOLD);24 STATE ST;1000021;24;STATE ST;101;1;1000090029;40.703372;-74.013771;10004;MN;9;Battery Park City-Lower Manhattan
1589;S;85005718;STATE WHITEHALL CO.;11/14/2018 00:00:00;11/14/2018 00:00:00;APPROVAL;24 STATE ST;1000021;24;STATE ST;101;1;1000090029;40.703372;-74.013771;10004;MN;9;Battery Park City-Lower Manhattan
1591;G;87013454;STATE WHITE CO;03/28/2014 00:00:00;10/09/2013 00:00:00;NOT APPROVAL(W/REASON);1 BATTERY PARK PLZ;1000021;1;BATTERY PARK PLZ;101;1;1000090029;40.703372;-74.013771;10004;MN;9;Battery Park City-Lower Manhattan
1592;B;89049100;RUDIN MANAGEMENT CO INC;08/28/2018 00:00:00;08/15/2018 00:00:00;APPROVAL;1 BATTERY PARK PLZ;1000021;1;BATTERY PARK PLZ;101;1;1000090029;40.703372;-74.013771;10004;MN;9;Battery Park City-Lower Manhattan
1593;P;94051935;SEWARD & KISSEL LLP;02/23/2018 00:00:00;02/23/2018 00:00:00;APPROVAL;24 STATE ST;1000021;24;STATE ST;101;1;1000090029;40.703372;-74.013771;10004;MN;9;Battery Park City-Lower Manhattan
1594;P;94051950;A F H U;12/10/2018 00:00:00;12/10/2018 00:00:00;APPROVAL;24 STATE ST;1000021;24;STATE ST;101;1;1000090029;40.703372;-74.013771;10004;MN;9;Battery Park City-Lower Manhattan
1595;P;94052289;PARTNERSHIP FOR N.Y.C.;12/10/2018 00:00:00;12/10/2018 00:00:00;APPROVAL;24 STATE ST;1000021;24;STATE ST;101;1;1000090029;40.703372;-74.013771;10004;MN;9;Battery Park City-Lower Manhattan
1596;P;94052354;ABEL NOSER CORP;12/10/2018 00:00:00;12/10/2018 00:00:00;APPROVAL;24 STATE ST;1000021;24;STATE ST;101;1;1000090029;40.703372;-74.013771;10004;MN;9;Battery Park City-Lower Manhattan
1597;P;94053741;STATE WHITEHALL CO.;12/10/2018 00:00:00;12/10/2018 00:00:00;APPROVAL;24 STATE ST;1000021;24;STATE ST;101;1;1000090029;40.703372;-74.013771;10004;MN;9;Battery Park City-Lower Manhattan
1599;AA;35127497;VENDOR AS AGENT FOR TENA;05/13/2015 00:00:00;05/13/2015 00:00:00;NOT APPROVAL(W/REASON);100 BROAD ST;1000022;100;BROAD ST;101;1;1000100001;40.703438;-74.012111;10004;MN;9;Battery Park City-Lower Manhattan
1600;AA;36037281;RESTAURANT;02/05/2016 00:00:00;02/05/2016 00:00:00;NOT APPROVAL(W/REASON);100 BROAD ST;1000022;100;BROAD ST;101;1;1000100001;40.703438;-74.012111;10004;MN;9;Battery Park City-Lower Manhattan
1601;AA;36080182;BON JOUR CAPITAL;03/18/2016 00:00:00;03/18/2016 00:00:00;NOT APPROVAL(W/REASON);100 BROAD ST;1000022;100;BROAD ST;101;1;1000100001;40.703438;-74.012111;10004;MN;9;Battery Park City-Lower Manhattan
1602;G;36196004;ESSEN;06/24/2016 00:00:00;06/07/2016 00:00:00;APPROVAL;100 BROAD ST;1000022;100;BROAD ST;101;1;1000100001;40.703438;-74.012111;10004;MN;9;Battery Park City-Lower Manhattan
1603;G;36196053;ESSEN;06/24/2016 00:00:00;06/07/2016 00:00:00;APPROVAL;100 BROAD ST;1000022;100;BROAD ST;101;1;1000100001;40.703438;-74.012111;10004;MN;9;Battery Park City-Lower Manhattan
1604;AA;36301463;100 BROAD STREET, LLC;09/16/2016 00:00:00;09/16/2016 00:00:00;NOT APPROVAL(W/REASON);100 BROAD ST;1000022;100;BROAD ST;101;1;1000100001;40.703438;-74.012111;10004;MN;9;Battery Park City-Lower Manhattan
1605;AA;36362044;100 BROAD LLCC/O BONJOOU;11/07/2016 00:00:00;11/07/2016 00:00:00;NOT APPROVAL(W/REASON);100 BROAD ST;1000022;100;BROAD ST;101;1;1000100001;40.703438;-74.012111;10004;MN;9;Battery Park City-Lower Manhattan
1606;T;36379675;ESSEN;12/23/2016 00:00:00;12/23/2016 00:00:00;NOT APPROVAL(W/REASON);100 BROAD ST;1000022;100;BROAD ST;101;1;1000100001;40.703438;-74.012111;10004;MN;9;Battery Park City-Lower Manhattan
1607;N;37202983;100 BROAD STREET LLC;09/20/2018 00:00:00;09/20/2018 00:00:00;NOT APPROVAL(VIO);100 BROAD ST;1000022;100;BROAD ST;101;1;1000100001;40.703438;-74.012111;10004;MN;9;Battery Park City-Lower Manhattan
1608;AA;37303062;CHARLES DAYAN;10/04/2017 00:00:00;10/04/2017 00:00:00;NOT APPROVAL(W/REASON);100 BROAD ST;1000022;100;BROAD ST;101;1;1000100001;40.703438;-74.012111;10004;MN;9;Battery Park City-Lower Manhattan
1609;AA;37381928;100 BROAD ST, LLC;12/18/2017 00:00:00;12/18/2017 00:00:00;NOT APPROVAL(W/REASON);100 BROAD ST;1000022;100;BROAD ST;101;1;1000100001;40.703438;-74.012111;10004;MN;9;Battery Park City-Lower Manhattan
1610;A;38106746;ESSEN;04/02/2018 00:00:00;04/02/2018 00:00:00;NOT APPROVAL(W/REASON);100 BROAD ST;1000022;100;BROAD ST;101;1;1000100001;40.703438;-74.012111;10004;MN;9;Battery Park City-Lower Manhattan
1611;AA;38164265;FRANKLIN BH LLC;05/14/2018 00:00:00;05/14/2018 00:00:00;NOT APPROVAL(W/REASON);100 BROAD ST;1000022;100;BROAD ST;101;1;1000100001;40.703438;-74.012111;10004;MN;9;Battery Park City-Lower Manhattan
1612;AA;38184404;RESTAURANT;05/30/2018 00:00:00;05/30/2018 00:00:00;NOT APPROVAL(W/REASON);100 BROAD ST;1000022;100;BROAD ST;101;1;1000100001;40.703438;-74.012111;10004;MN;9;Battery Park City-Lower Manhattan
1613;G;38229233;AMPIA;07/23/2018 00:00:00;06/28/2018 00:00:00;APPROVAL;100 BROAD ST;1000022;100;BROAD ST;101;1;1000100001;40.703438;-74.012111;10004;MN;9;Battery Park City-Lower Manhattan
1614;G;70052980;FRANKLIN BN LLC;08/09/2018 00:00:00;02/26/2004 00:00:00;NOV(NO HOLD);100 BROAD ST;1000022;100;BROAD ST;101;1;1000100001;40.703438;-74.012111;10004;MN;9;Battery Park City-Lower Manhattan
1615;R;20006573;BROAD FINANCIAL CENTER;11/01/2018 00:00:00;11/01/2018 00:00:00;APPROVAL;33 WHITEHALL ST;1000023;33;WHITEHALL ST;101;1;1000100014;40.70338;-74.01264;10004;MN;9;Battery Park City-Lower Manhattan
1633;AA;26194589;STAWSKI PARTNERS;05/19/2018 00:00:00;05/19/2018 00:00:00;NOT APPROVAL(W/REASON);33 WHITEHALL ST;1000023;33;WHITEHALL ST;101;1;1000100014;40.70338;-74.01264;10004;MN;9;Battery Park City-Lower Manhattan
1634;P;27161447;ADPRIME MEDIA;11/07/2017 00:00:00;11/07/2017 00:00:00;APPROVAL;33 WHITEHALL ST;1000023;33;WHITEHALL ST;101;1;1000100014;40.70338;-74.01264;10004;MN;9;Battery Park City-Lower Manhattan
1637;DV;28230217;BROAD FINANCIAL CENTER;09/17/2014 00:00:00;09/17/2014 00:00:00;APPROVAL;33 WHITEHALL ST;1000023;33;WHITEHALL ST;101;1;1000100014;40.70338;-74.01264;10004;MN;9;Battery Park City-Lower Manhattan
1642;P;32184053;MEDLEY GLOBAL ADVISORS;11/01/2018 00:00:00;11/01/2018 00:00:00;APPROVAL;33 WHITEHALL ST;1000023;33;WHITEHALL ST;101;1;1000100014;40.70338;-74.01264;10004;MN;9;Battery Park City-Lower Manhattan
1649;AA;34000588;CAMPBELL AND DAWES LTD;01/13/2014 00:00:00;01/13/2014 00:00:00;NOT APPROVAL(W/REASON);33 WHITEHALL ST;1000023;33;WHITEHALL ST;101;1;1000100014;40.70338;-74.01264;10004;MN;9;Battery Park City-Lower Manhattan
1650;AA;34105197;1212 6TH AVE;04/29/2014 00:00:00;04/29/2014 00:00:00;NOT APPROVAL(W/REASON);33 WHITEHALL ST;1000023;33;WHITEHALL ST;101;1;1000100014;40.70338;-74.01264;10004;MN;9;Battery Park City-Lower Manhattan
1651;N;34204156;BROAD FINANCIAL CTR;02/14/2015 00:00:00;02/14/2015 00:00:00;APPROVAL;33 WHITEHALL ST;1000023;33;WHITEHALL ST;101;1;1000100014;40.70338;-74.01264;10004;MN;9;Battery Park City-Lower Manhattan
1652;N;35002641;STAWSKI PARTNERS;04/21/2015 00:00:00;04/21/2015 00:00:00;APPROVAL;33 WHITEHALL ST;1000023;33;WHITEHALL ST;101;1;1000100014;40.70338;-74.01264;10004;MN;9;Battery Park City-Lower Manhattan
1653;N;35067420;BROAD FINANCIAL CTR STAW;10/11/2018 00:00:00;10/11/2018 00:00:00;APPROVAL;33 WHITEHALL ST;1000023;33;WHITEHALL ST;101;1;1000100014;40.70338;-74.01264;10004;MN;9;Battery Park City-Lower Manhattan
1654;AA;35264662;BROAD FINANCIAL CENTER L;09/25/2015 00:00:00;09/25/2015 00:00:00;NOT APPROVAL(W/REASON);33 WHITEHALL ST;1000023;33;WHITEHALL ST;101;1;1000100014;40.70338;-74.01264;10004;MN;9;Battery Park City-Lower Manhattan
1655;AA;35304971;BROAD FINANCIAL CENTER L;10/23/2015 00:00:00;10/23/2015 00:00:00;NOT APPROVAL(W/REASON);33 WHITEHALL ST;1000023;33;WHITEHALL ST;101;1;1000100014;40.70338;-74.01264;10004;MN;9;Battery Park City-Lower Manhattan
1656;AA;35377027;BROAD FINANCIAL CENTER L;12/17/2015 00:00:00;12/17/2015 00:00:00;NOT APPROVAL(W/REASON);33 WHITEHALL ST;1000023;33;WHITEHALL ST;101;1;1000100014;40.70338;-74.01264;10004;MN;9;Battery Park City-Lower Manhattan
1657;AA;36030393;BROAD FINANCIAL CENTER L;02/03/2016 00:00:00;02/03/2016 00:00:00;NOT APPROVAL(W/REASON);33 WHITEHALL ST;1000023;33;WHITEHALL ST;101;1;1000100014;40.70338;-74.01264;10004;MN;9;Battery Park City-Lower Manhattan
1658;AA;36036622;BROAD FINANCIAL CENTER L;02/05/2016 00:00:00;02/05/2016 00:00:00;NOT APPROVAL(W/REASON);33 WHITEHALL ST;1000023;33;WHITEHALL ST;101;1;1000100014;40.70338;-74.01264;10004;MN;9;Battery Park City-Lower Manhattan
1659;S;36101079;ALL STATE INTERIOR DEMO;04/05/2016 00:00:00;04/05/2016 00:00:00;APPROVAL;33 WHITEHALL ST;1000023;33;WHITEHALL ST;101;1;1000100014;40.70338;-74.01264;10004;MN;9;Battery Park City-Lower Manhattan
1660;AA;36104446;BROAD FINANCIAL CEN;04/08/2016 00:00:00;04/08/2016 00:00:00;NOT APPROVAL(W/REASON);33 WHITEHALL ST;1000023;33;WHITEHALL ST;101;1;1000100014;40.70338;-74.01264;10004;MN;9;Battery Park City-Lower Manhattan
1661;N;36187177;BROAD FINANCIAL CTR LLC;03/15/2017 00:00:00;03/15/2017 00:00:00;APPROVAL;33 WHITEHALL ST;1000023;33;WHITEHALL ST;101;1;1000100014;40.70338;-74.01264;10004;MN;9;Battery Park City-Lower Manhattan
1662;N;36204188;BROAD FINANCIAL CENTER;12/27/2016 00:00:00;12/27/2016 00:00:00;APPROVAL;33 WHITEHALL ST;1000023;33;WHITEHALL ST;101;1;1000100014;40.70338;-74.01264;10004;MN;9;Battery Park City-Lower Manhattan
1663;N;36204204;BROAD FINANCIAL CENTER;12/28/2016 00:00:00;12/28/2016 00:00:00;APPROVAL;33 WHITEHALL ST;1000023;33;WHITEHALL ST;101;1;1000100014;40.70338;-74.01264;10004;MN;9;Battery Park City-Lower Manhattan
1664;S;37038791;SANCO MP INC;02/04/2017 00:00:00;02/04/2017 00:00:00;APPROVAL;33 WHITEHALL ST;1000023;33;WHITEHALL ST;101;1;1000100014;40.70338;-74.01264;10004;MN;9;Battery Park City-Lower Manhattan
1665;AA;37121563;BROAD FINANCIAL CENTER L;04/24/2017 00:00:00;04/24/2017 00:00:00;NOT APPROVAL(W/REASON);33 WHITEHALL ST;1000023;33;WHITEHALL ST;101;1;1000100014;40.70338;-74.01264;10004;MN;9;Battery Park City-Lower Manhattan
1666;AA;37153210;BROAD FINANCIAL CENTER L;05/22/2017 00:00:00;05/22/2017 00:00:00;NOT APPROVAL(W/REASON);33 WHITEHALL ST;1000023;33;WHITEHALL ST;101;1;1000100014;40.70338;-74.01264;10004;MN;9;Battery Park City-Lower Manhattan
1667;N;37162617;BROAD FINANCIAL;07/26/2017 00:00:00;07/26/2017 00:00:00;APPROVAL;33 WHITEHALL ST;1000023;33;WHITEHALL ST;101;1;1000100014;40.70338;-74.01264;10004;MN;9;Battery Park City-Lower Manhattan
1668;AA;37203734;BROAD FINANACIAL CENTER;07/06/2017 00:00:00;07/06/2017 00:00:00;NOT APPROVAL(W/REASON);33 WHITEHALL ST;1000023;33;WHITEHALL ST;101;1;1000100014;40.70338;-74.01264;10004;MN;9;Battery Park City-Lower Manhattan
1669;AA;37255213;BROAD FINANCIAL CENTER;08/17/2017 00:00:00;08/17/2017 00:00:00;NOT APPROVAL(W/REASON);33 WHITEHALL ST;1000023;33;WHITEHALL ST;101;1;1000100014;40.70338;-74.01264;10004;MN;9;Battery Park City-Lower Manhattan
1670;N;37255791;BROAD FINANCIAL CENTER;05/02/2018 00:00:00;05/02/2018 00:00:00;APPROVAL;33 WHITEHALL ST;1000023;33;WHITEHALL ST;101;1;1000100014;40.70338;-74.01264;10004;MN;9;Battery Park City-Lower Manhattan
1671;AA;37320926;BROAD FINANCIAL CENTER L;10/23/2017 00:00:00;10/23/2017 00:00:00;NOT APPROVAL(W/REASON);33 WHITEHALL ST;1000023;33;WHITEHALL ST;101;1;1000100014;40.70338;-74.01264;10004;MN;9;Battery Park City-Lower Manhattan
1672;AA;38044996;BROAD FINANCIAL CENTER;02/13/2018 00:00:00;02/13/2018 00:00:00;NOT APPROVAL(W/REASON);33 WHITEHALL ST;1000023;33;WHITEHALL ST;101;1;1000100014;40.70338;-74.01264;10004;MN;9;Battery Park City-Lower Manhattan
1673;T;38133955;BROAD FINANCIAL CENTER;12/28/2017 00:00:00;12/28/2017 00:00:00;NOT APPROVAL(VIO);33 WHITEHALL ST;1000023;33;WHITEHALL ST;101;1;1000100014;40.70338;-74.01264;10004;MN;9;Battery Park City-Lower Manhattan
1674;AA;38184503;BROAD FINANCIAL CENTER L;05/30/2018 00:00:00;05/30/2018 00:00:00;NOT APPROVAL(W/REASON);33 WHITEHALL ST;1000023;33;WHITEHALL ST;101;1;1000100014;40.70338;-74.01264;10004;MN;9;Battery Park City-Lower Manhattan
1675;AA;38221941;BROAD FINANCE CENTER;06/27/2018 00:00:00;06/27/2018 00:00:00;NOT APPROVAL(W/REASON);33 WHITEHALL ST;1000023;33;WHITEHALL ST;101;1;1000100014;40.70338;-74.01264;10004;MN;9;Battery Park City-Lower Manhattan
1676;AA;38227906;BROAD FINANCIAL CENTER L;07/05/2018 00:00:00;07/05/2018 00:00:00;NOT APPROVAL(W/REASON);33 WHITEHALL ST;1000023;33;WHITEHALL ST;101;1;1000100014;40.70338;-74.01264;10004;MN;9;Battery Park City-Lower Manhattan
1677;N;38241709;BROAD FINANCIAL CTR LLC;06/27/2018 00:00:00;06/27/2018 00:00:00;NOT APPROVAL(VIO);33 WHITEHALL ST;1000023;33;WHITEHALL ST;101;1;1000100014;40.70338;-74.01264;10004;MN;9;Battery Park City-Lower Manhattan
1678;AA;38282745;BROAD FINANCIAL CENTER;08/20/2018 00:00:00;08/20/2018 00:00:00;NOT APPROVAL(W/REASON);33 WHITEHALL ST;1000023;33;WHITEHALL ST;101;1;1000100014;40.70338;-74.01264;10004;MN;9;Battery Park City-Lower Manhattan
1679;S;38340683;TRI STATE DISMANTLING CO;10/13/2018 00:00:00;10/13/2018 00:00:00;APPROVAL;33 WHITEHALL ST;1000023;33;WHITEHALL ST;101;1;1000100014;40.70338;-74.01264;10004;MN;9;Battery Park City-Lower Manhattan
1680;N;38359121;BROAD FINANCIAL CTR LLC;10/22/2018 00:00:00;10/22/2018 00:00:00;APPROVAL;33 WHITEHALL ST;1000023;33;WHITEHALL ST;101;1;1000100014;40.70338;-74.01264;10004;MN;9;Battery Park City-Lower Manhattan
1681;N;38359139;BROAD FINANCIAL CTR LLC;10/22/2018 00:00:00;10/22/2018 00:00:00;APPROVAL;33 WHITEHALL ST;1000023;33;WHITEHALL ST;101;1;1000100014;40.70338;-74.01264;10004;MN;9;Battery Park City-Lower Manhattan
1682;AA;38362406;BROAD FINANCIAL;11/07/2018 00:00:00;11/07/2018 00:00:00;NOT APPROVAL(W/REASON);33 WHITEHALL ST;1000023;33;WHITEHALL ST;101;1;1000100014;40.70338;-74.01264;10004;MN;9;Battery Park City-Lower Manhattan
1683;AA;38362489;BROAD FINIACIAL;11/05/2018 00:00:00;11/05/2018 00:00:00;NOT APPROVAL(W/REASON);33 WHITEHALL ST;1000023;33;WHITEHALL ST;101;1;1000100014;40.70338;-74.01264;10004;MN;9;Battery Park City-Lower Manhattan
1684;P;87131025;BROAD FINANCIAL CENTER;12/20/2018 00:00:00;12/20/2018 00:00:00;APPROVAL;33 WHITEHALL ST;1000023;33;WHITEHALL ST;101;1;1000100014;40.70338;-74.01264;10004;MN;9;Battery Park City-Lower Manhattan
1685;S;87131256;BROAD FINANCIAL CENTER;11/01/2018 00:00:00;11/01/2018 00:00:00;APPROVAL;33 WHITEHALL ST;1000023;33;WHITEHALL ST;101;1;1000100014;40.70338;-74.01264;10004;MN;9;Battery Park City-Lower Manhattan
1686;R;87131355;BROAD FINANCIAL CENTER;11/01/2018 00:00:00;11/01/2018 00:00:00;APPROVAL;33 WHITEHALL ST;1000023;33;WHITEHALL ST;101;1;1000100014;40.70338;-74.01264;10004;MN;9;Battery Park City-Lower Manhattan
1688;B;89004196;STAWSKI PARTNERS;03/09/2018 00:00:00;01/08/2018 00:00:00;APPROVAL;33 WHITEHALL ST;1000023;33;WHITEHALL ST;101;1;1000100014;40.70338;-74.01264;10004;MN;9;Battery Park City-Lower Manhattan
1689;P;91011718;FITCH RATINGS;11/05/2018 00:00:00;11/05/2018 00:00:00;APPROVAL;33 WHITEHALL ST;1000023;33;WHITEHALL ST;101;1;1000100014;40.70338;-74.01264;10004;MN;9;Battery Park City-Lower Manhattan
1690;P;91011742;VERIZON BUSINESS;11/07/2018 00:00:00;11/07/2018 00:00:00;APPROVAL;33 WHITEHALL ST;1000023;33;WHITEHALL ST;101;1;1000100014;40.70338;-74.01264;10004;MN;9;Battery Park City-Lower Manhattan
1691;P;91011759;BRIONI;11/05/2018 00:00:00;11/05/2018 00:00:00;APPROVAL;33 WHITEHALL ST;1000023;33;WHITEHALL ST;101;1;1000100014;40.70338;-74.01264;10004;MN;9;Battery Park City-Lower Manhattan
1692;G;93097640;BROAD FINANCIAL CENTER;05/14/2018 00:00:00;06/26/2014 00:00:00;NOT APPROVAL(W/REASON);33 WHITEHALL ST;1000023;33;WHITEHALL ST;101;1;1000100014;40.70338;-74.01264;10004;MN;9;Battery Park City-Lower Manhattan
1693;U;97013627;BROAD FINANCIAL CENTER;11/07/2018 00:00:00;11/07/2018 00:00:00;APPROVAL;33 WHITEHALL ST;1000023;33;WHITEHALL ST;101;1;1000100014;40.70338;-74.01264;10004;MN;9;Battery Park City-Lower Manhattan
1694;P;97013833;COGENT COMM.;01/30/2018 00:00:00;01/30/2018 00:00:00;APPROVAL;33 WHITEHALL ST;1000023;33;WHITEHALL ST;101;1;1000100014;40.70338;-74.01264;10004;MN;9;Battery Park City-Lower Manhattan
1695;P;99010977;BROAD FINANCIAL CENTER;11/05/2018 00:00:00;11/05/2018 00:00:00;APPROVAL;33 WHITEHALL ST;1000023;33;WHITEHALL ST;101;1;1000100014;40.70338;-74.01264;10004;MN;9;Battery Park City-Lower Manhattan
1699;P;32179673;FLAVORS CAFE;12/05/2018 00:00:00;12/05/2018 00:00:00;APPROVAL;27 WHITEHALL ST;1000024;27;WHITEHALL ST;101;1;1000100015;40.703482;-74.01287;10004;MN;9;Battery Park City-Lower Manhattan
1700;AA;35019165;MSA TWNS LTD;01/23/2015 00:00:00;01/23/2015 00:00:00;NOT APPROVAL(W/REASON);27 WHITEHALL ST;1000024;27;WHITEHALL ST;101;1;1000100015;40.703482;-74.01287;10004;MN;9;Battery Park City-Lower Manhattan
1701;AA;35120435;KAMALJIT RITIENI;05/06/2015 00:00:00;05/06/2015 00:00:00;NOT APPROVAL(W/REASON);27 WHITEHALL ST;1000024;27;WHITEHALL ST;101;1;1000100015;40.703482;-74.01287;10004;MN;9;Battery Park City-Lower Manhattan
1702;T;35127992;MSA TWINS LTD;07/14/2016 00:00:00;07/14/2016 00:00:00;NOT APPROVAL(W/REASON);27 WHITEHALL ST;1000024;27;WHITEHALL ST;101;1;1000100015;40.703482;-74.01287;10004;MN;9;Battery Park City-Lower Manhattan
1703;AA;36178796;MSA TWINS LTD;06/07/2016 00:00:00;06/07/2016 00:00:00;NOT APPROVAL(W/REASON);27 WHITEHALL ST;1000024;27;WHITEHALL ST;101;1;1000100015;40.703482;-74.01287;10004;MN;9;Battery Park City-Lower Manhattan
1704;AA;37064037;MSA TWINS LTD;03/02/2017 00:00:00;03/02/2017 00:00:00;NOT APPROVAL(W/REASON);27 WHITEHALL ST;1000024;27;WHITEHALL ST;101;1;1000100015;40.703482;-74.01287;10004;MN;9;Battery Park City-Lower Manhattan
1705;N;37282225;MSA TWINS LTD;09/14/2018 00:00:00;09/14/2018 00:00:00;NOT APPROVAL(W/REASON);27 WHITEHALL ST;1000024;27;WHITEHALL ST;101;1;1000100015;40.703482;-74.01287;10004;MN;9;Battery Park City-Lower Manhattan
1706;AA;38064036;MSA TWINS LTD;02/26/2018 00:00:00;02/26/2018 00:00:00;NOT APPROVAL(W/REASON);27 WHITEHALL ST;1000024;27;WHITEHALL ST;101;1;1000100015;40.703482;-74.01287;10004;MN;9;Battery Park City-Lower Manhattan
1707;AA;38295523;MSA TWINS LTD;09/04/2018 00:00:00;09/04/2018 00:00:00;NOT APPROVAL(W/REASON);27 WHITEHALL ST;1000024;27;WHITEHALL ST;101;1;1000100015;40.703482;-74.01287;10004;MN;9;Battery Park City-Lower Manhattan
1708;P;94054541;MSA TWINS LTD.;12/14/2018 00:00:00;12/14/2018 00:00:00;APPROVAL;27 WHITEHALL ST;1000024;27;WHITEHALL ST;101;1;1000100015;40.703482;-74.01287;10004;MN;9;Battery Park City-Lower Manhattan
1709;G;1054162;PRINCETON INTERNATIONAL;10/05/2018 00:00:00;11/18/2015 00:00:00;NOT APPROVAL(W/REASON);90 BROAD ST;1000025;90;BROAD ST;101;1;1000100016;40.703804;-74.011956;10004;MN;9;Battery Park City-Lower Manhattan
1710;P;9002122;BROAD ST PLAZA LLC,;08/20/2018 00:00:00;08/20/2018 00:00:00;APPROVAL;90 BROAD ST;1000025;90;BROAD ST;101;1;1000100016;40.703804;-74.011956;10004;MN;9;Battery Park City-Lower Manhattan
1711;P;9020256;POTBELLY SANDWICH SHOP;08/20/2018 00:00:00;08/20/2018 00:00:00;APPROVAL;90 BROAD ST;1000025;90;BROAD ST;101;1;1000100016;40.703804;-74.011956;10004;MN;9;Battery Park City-Lower Manhattan
1726;AA;27000074;PRINCETON INT'L PROP CP;02/25/2016 00:00:00;02/25/2016 00:00:00;NOT APPROVAL(W/REASON);90 BROAD ST;1000025;90;BROAD ST;101;1;1000100016;40.703804;-74.011956;10004;MN;9;Battery Park City-Lower Manhattan
1738;N;32210312;90 BROAD OWNER LLC;11/03/2017 00:00:00;11/03/2017 00:00:00;APPROVAL;90 BROAD ST;1000025;90;BROAD ST;101;1;1000100016;40.703804;-74.011956;10004;MN;9;Battery Park City-Lower Manhattan
1744;N;33084179;90 BROAD OWNER LLC;04/03/2014 00:00:00;04/03/2014 00:00:00;APPROVAL;90 BROAD ST;1000025;90;BROAD ST;101;1;1000100016;40.703804;-74.011956;10004;MN;9;Battery Park City-Lower Manhattan
1748;N;33182650;90 BROAD OWNER LLC C/O;11/20/2014 00:00:00;11/20/2014 00:00:00;APPROVAL;90 BROAD ST;1000025;90;BROAD ST;101;1;1000100016;40.703804;-74.011956;10004;MN;9;Battery Park City-Lower Manhattan
1752;AA;34043323;JONES LANG LASALLE;02/24/2014 00:00:00;02/24/2014 00:00:00;NOT APPROVAL(W/REASON);90 BROAD ST;1000025;90;BROAD ST;101;1;1000100016;40.703804;-74.011956;10004;MN;9;Battery Park City-Lower Manhattan
1753;T;34050252;90 BROAD STREET PLAZA LL;01/08/2018 00:00:00;01/08/2018 00:00:00;APPROVAL;90 BROAD ST;1000025;90;BROAD ST;101;1;1000100016;40.703804;-74.011956;10004;MN;9;Battery Park City-Lower Manhattan
1754;AA;34052449;PRINCETON INTERNATIONAL;03/05/2014 00:00:00;03/05/2014 00:00:00;NOT APPROVAL(W/REASON);90 BROAD ST;1000025;90;BROAD ST;101;1;1000100016;40.703804;-74.011956;10004;MN;9;Battery Park City-Lower Manhattan
1755;AA;34052456;BROAD STREET PLAZA LLC;03/05/2014 00:00:00;03/05/2014 00:00:00;NOT APPROVAL(W/REASON);90 BROAD ST;1000025;90;BROAD ST;101;1;1000100016;40.703804;-74.011956;10004;MN;9;Battery Park City-Lower Manhattan
1756;AA;34052464;BROAD STREET PLAZA LLC;03/05/2014 00:00:00;03/05/2014 00:00:00;NOT APPROVAL(W/REASON);90 BROAD ST;1000025;90;BROAD ST;101;1;1000100016;40.703804;-74.011956;10004;MN;9;Battery Park City-Lower Manhattan
